Url,Status,Name,Organisation,Address,City,State,Zip Code,Country,E-mails,Domain,Alexa Rank,Registrar
https://www.reddit.com/r/india/comments/galb3d/irrfan_khans_old_hutch_commercial_will_definitely/,Legitimate,REDDIT.COMreddit.com,Reddit Inc.,None,None,CA,None,US,abusecomplaints@markmonitor.comwhoisrequest@markmonitor.com,REDDIT.COMreddit.com,19,MarkMonitor Inc.
https://github.com/abhisheksaxena1998/,Legitimate,GITHUB.COMgithub.com,GitHub Inc.,None,None,CA,None,US,abusecomplaints@markmonitor.comwhoisrequest@markmonitor.com,GITHUB.COMgithub.com,63,MarkMonitor Inc.
https://github.com/abhisheksaxena1998/,Legitimate,GITHUB.COMgithub.com,GitHub Inc.,None,None,CA,None,US,abusecomplaints@markmonitor.comwhoisrequest@markmonitor.com,GITHUB.COMgithub.com,63,MarkMonitor Inc.
https://www.youtube.com/,Legitimate,YOUTUBE.COMyoutube.com,Google LLC,None,None,CA,None,US,abusecomplaints@markmonitor.comwhoisrequest@markmonitor.com,YOUTUBE.COMyoutube.com,2,MarkMonitor Inc.
https://www.youtube.com/,Legitimate,YOUTUBE.COMyoutube.com,Google LLC,None,None,CA,None,US,abusecomplaints@markmonitor.comwhoisrequest@markmonitor.com,YOUTUBE.COMyoutube.com,2,MarkMonitor Inc.
https://leetcode.com/problems/letter-case-permutation/,Legitimate,LEETCODE.COM,Domains By Proxy LLC,DomainsByProxy.com14455 N. Hayden Road,Scottsdale,Arizona,85260,US,abuse@godaddy.comLEETCODE.COM@domainsbyproxy.com,LEETCODE.COM,2155,GoDaddy.com LLC
https://docs.python.org/3/library/itertools.html,Legitimate,PYTHON.ORGpython.org,Python Software Foundation,REDACTED FOR PRIVACY,REDACTED FOR PRIVACY,['OR', 'Oregon'],REDACTED FOR PRIVACY,US,abuse@support.gandi.nete89d6901ba3e470e8cedc3eaa32a0074-1697561@contact.gandi.net7fd79ebe18980da9baceef0fa1b27680-1705778@contact.gandi.net,PYTHON.ORGpython.org,984,GANDI SAS
https://wallpapersite.com/,Legitimate,WALLPAPERSITE.COMwallpapersite.com,z,None,None,Quebec,None,CA,abuse@godaddy.com,WALLPAPERSITE.COMwallpapersite.com,61723,GoDaddy.com LLC
https://babytorrent.se/,Legitimate,babytorrent.se,None,None,None,None,None,None,None,babytorrent.se,18523,Sarek
https://babytorrent.se/,Legitimate,babytorrent.se,None,None,None,None,None,None,None,babytorrent.se,18523,Sarek
https://babytorrent.se/,Legitimate,babytorrent.se,None,None,None,None,None,None,None,babytorrent.se,18523,Sarek
https://babytorrent.se/?__cf_chl_jschl_tk__=895df7e46b01f020065db5e2347212b3aa117637-1588915477-0-AZlM2hqaue22-rsmNRfjFAWpU9wkmI38ThiaT_Bna-Ejqc5ft1HkMJt9TS0YJTv9kj67e-I27tQswqArbGKkPVc1gLhAnkLBXboxqP6HqBfdQ9HT9T6bq6tX3wGr2Tf83FySDH4a8BAReOE1tQch3HCUNm7cR-VseKBo1Z2Uaj61J1a188A7G8JZzDBsKZYBWt50UewxgDw4MZLLPk_VlCKuoO6RRQbFyzsE7rJdS-y27xT8_pP-dtAc8z7XTsMYKlMMmgqE7hZrWO2TkJtE1qr46Sgi2NqcpkkiBj9iDOugPsFFKGzQzbiU6kwkRP9R4X9pp2Bcjp2mXv3ZGezOPd4,Legitimate,babytorrent.se,None,None,None,None,None,None,None,babytorrent.se,18523,Sarek
https://babytorrent.se/?__cf_chl_jschl_tk__=895df7e46b01f020065db5e2347212b3aa117637-1588915477-0-AZlM2hqaue22-rsmNRfjFAWpU9wkmI38ThiaT_Bna-Ejqc5ft1HkMJt9TS0YJTv9kj67e-I27tQswqArbGKkPVc1gLhAnkLBXboxqP6HqBfdQ9HT9T6bq6tX3wGr2Tf83FySDH4a8BAReOE1tQch3HCUNm7cR-VseKBo1Z2Uaj61J1a188A7G8JZzDBsKZYBWt50UewxgDw4MZLLPk_VlCKuoO6RRQbFyzsE7rJdS-y27xT8_pP-dtAc8z7XTsMYKlMMmgqE7hZrWO2TkJtE1qr46Sgi2NqcpkkiBj9iDOugPsFFKGzQzbiU6kwkRP9R4X9pp2Bcjp2mXv3ZGezOPd4,Legitimate,babytorrent.se,None,None,None,None,None,None,None,babytorrent.se,18523,Sarek
https://babytorrent.se/movies/gretel-hansel-2020/,Legitimate,babytorrent.se,None,None,None,None,None,None,None,babytorrent.se,18523,Sarek
https://babytorrent.se/movies/gretel-hansel-2020/,Legitimate,babytorrent.se,None,None,None,None,None,None,None,babytorrent.se,18523,Sarek
https://ord.amaxon.com/,Legitimate,AMAXON.COMamaxon.com,Amazon Technologies Inc.,P.O. Box 8102,Reno,NV,89507,US,abusecomplaints@markmonitor.comhostmaster@amazon.comwhoisrequest@markmonitor.com,AMAXON.COMamaxon.com,-1,MarkMonitor Inc.
https://www.seedr.cc/,Legitimate,SEEDR.CCseedr.cc,REDACTED FOR PRIVACY,REDACTED FOR PRIVACY,REDACTED FOR PRIVACY,Panama,REDACTED FOR PRIVACY,PA,ABUSE@ENOM.COM,SEEDR.CCseedr.cc,5320,ENOM INC.
https://www.seedr.cc/files,Legitimate,SEEDR.CCseedr.cc,REDACTED FOR PRIVACY,REDACTED FOR PRIVACY,REDACTED FOR PRIVACY,Panama,REDACTED FOR PRIVACY,PA,ABUSE@ENOM.COM,SEEDR.CCseedr.cc,5320,ENOM INC.
https://www.seedr.cc/files,Legitimate,SEEDR.CCseedr.cc,REDACTED FOR PRIVACY,REDACTED FOR PRIVACY,REDACTED FOR PRIVACY,Panama,REDACTED FOR PRIVACY,PA,ABUSE@ENOM.COM,SEEDR.CCseedr.cc,5320,ENOM INC.
https://www.seedr.cc/files,Legitimate,SEEDR.CCseedr.cc,REDACTED FOR PRIVACY,REDACTED FOR PRIVACY,REDACTED FOR PRIVACY,Panama,REDACTED FOR PRIVACY,PA,ABUSE@ENOM.COM,SEEDR.CCseedr.cc,5320,ENOM INC.
https://www.seedr.cc/files/127324118,Legitimate,SEEDR.CCseedr.cc,REDACTED FOR PRIVACY,REDACTED FOR PRIVACY,REDACTED FOR PRIVACY,Panama,REDACTED FOR PRIVACY,PA,ABUSE@ENOM.COM,SEEDR.CCseedr.cc,5320,ENOM INC.
https://www.seedr.cc/files/127324118,Legitimate,SEEDR.CC,None,None,None,None,None,None,None,SEEDR.CC,5320,eNom LLC
https://leetcode.com/isa_97/,Legitimate,LEETCODE.COM,Domains By Proxy LLC,DomainsByProxy.com14455 N. Hayden Road,Scottsdale,Arizona,85260,US,abuse@godaddy.comLEETCODE.COM@domainsbyproxy.com,LEETCODE.COM,2155,GoDaddy.com LLC
https://leetcode.com/isa_97/,Legitimate,LEETCODE.COM,Domains By Proxy LLC,DomainsByProxy.com14455 N. Hayden Road,Scottsdale,Arizona,85260,US,abuse@godaddy.comLEETCODE.COM@domainsbyproxy.com,LEETCODE.COM,2155,GoDaddy.com LLC
https://leetcode.com/problems/search-insert-position/,Legitimate,LEETCODE.COM,Domains By Proxy LLC,DomainsByProxy.com14455 N. Hayden Road,Scottsdale,Arizona,85260,US,abuse@godaddy.comLEETCODE.COM@domainsbyproxy.com,LEETCODE.COM,2155,GoDaddy.com LLC
https://leetcode.com/problems/search-insert-position/,Legitimate,LEETCODE.COM,Domains By Proxy LLC,DomainsByProxy.com14455 N. Hayden Road,Scottsdale,Arizona,85260,US,abuse@godaddy.comLEETCODE.COM@domainsbyproxy.com,LEETCODE.COM,2155,GoDaddy.com LLC
https://leetcode.com/problems/search-insert-position/,Legitimate,LEETCODE.COM,Domains By Proxy LLC,DomainsByProxy.com14455 N. Hayden Road,Scottsdale,Arizona,85260,US,abuse@godaddy.comLEETCODE.COM@domainsbyproxy.com,LEETCODE.COM,2155,GoDaddy.com LLC
https://leetcode.com/problems/search-insert-position/submissions/,Legitimate,Not found in database,Not found in database,Not found in database,Not found in database,Not found in database,Not found in database,Not found in database,Not found in database,Not Found,2155,Not Found
https://leetcode.com/problems/search-insert-position/submissions/,Legitimate,LEETCODE.COM,Domains By Proxy LLC,DomainsByProxy.com14455 N. Hayden Road,Scottsdale,Arizona,85260,US,abuse@godaddy.comLEETCODE.COM@domainsbyproxy.com,LEETCODE.COM,2155,GoDaddy.com LLC
https://leetcode.com/problems/first-bad-version/,Legitimate,LEETCODE.COM,Domains By Proxy LLC,DomainsByProxy.com14455 N. Hayden Road,Scottsdale,Arizona,85260,US,abuse@godaddy.comLEETCODE.COM@domainsbyproxy.com,LEETCODE.COM,2155,GoDaddy.com LLC
https://leetcode.com/problems/first-bad-version/,Legitimate,LEETCODE.COM,Domains By Proxy LLC,DomainsByProxy.com14455 N. Hayden Road,Scottsdale,Arizona,85260,US,abuse@godaddy.comLEETCODE.COM@domainsbyproxy.com,LEETCODE.COM,2155,GoDaddy.com LLC
https://leetcode.com/legion_abhe/,Legitimate,LEETCODE.COM,Domains By Proxy LLC,DomainsByProxy.com14455 N. Hayden Road,Scottsdale,Arizona,85260,US,abuse@godaddy.comLEETCODE.COM@domainsbyproxy.com,LEETCODE.COM,2155,GoDaddy.com LLC
https://leetcode.com/legion_abhe/,Legitimate,LEETCODE.COM,Domains By Proxy LLC,DomainsByProxy.com14455 N. Hayden Road,Scottsdale,Arizona,85260,US,abuse@godaddy.comLEETCODE.COM@domainsbyproxy.com,LEETCODE.COM,2155,GoDaddy.com LLC
https://www.youtube.com/,Legitimate,YOUTUBE.COMyoutube.com,Google LLC,None,None,CA,None,US,abusecomplaints@markmonitor.comwhoisrequest@markmonitor.com,YOUTUBE.COMyoutube.com,2,MarkMonitor Inc.
https://www.youtube.com/,Legitimate,Not found in database,Not found in database,Not found in database,Not found in database,Not found in database,Not found in database,Not found in database,Not found in database,Not Found,2,Not Found
https://stackoverflow.com/questions/43751485/what-is-the-difference-between-ndk-and-sdk,Legitimate,STACKOVERFLOW.COM,Stack Exchange Inc.,110 William St , Floor 28,New York,NY,10038,US,abuse@name.comsysadmin-team@stackoverflow.com,STACKOVERFLOW.COM,42,Name.com Inc.
https://stackoverflow.com/questions/43751485/what-is-the-difference-between-ndk-and-sdk,Legitimate,STACKOVERFLOW.COM,None,None,None,None,None,None,abuse@name.com,STACKOVERFLOW.COM,42,Name.com Inc.
https://stackoverflow.com/questions/43751485/what-is-the-difference-between-ndk-and-sdk,Legitimate,STACKOVERFLOW.COM,Stack Exchange Inc.,110 William St , Floor 28,New York,NY,10038,US,abuse@name.comsysadmin-team@stackoverflow.com,STACKOVERFLOW.COM,42,Name.com Inc.
https://stackoverflow.com/questions/43751485/what-is-the-difference-between-ndk-and-sdk,Legitimate,STACKOVERFLOW.COM,Stack Exchange Inc.,110 William St , Floor 28,New York,NY,10038,US,abuse@name.comsysadmin-team@stackoverflow.com,STACKOVERFLOW.COM,42,Name.com Inc.
https://stackoverflow.com/questions/43751485/what-is-the-difference-between-ndk-and-sdk,Legitimate,STACKOVERFLOW.COM,None,None,None,None,None,None,abuse@name.com,STACKOVERFLOW.COM,42,Name.com Inc.
https://stackoverflow.com/questions/43751485/what-is-the-difference-between-ndk-and-sdk,Legitimate,STACKOVERFLOW.COM,None,None,None,None,None,None,abuse@name.com,STACKOVERFLOW.COM,42,Name.com Inc.
https://stackoverflow.com/questions/43751485/what-is-the-difference-between-ndk-and-sdk,Legitimate,STACKOVERFLOW.COM,Stack Exchange Inc.,110 William St , Floor 28,New York,NY,10038,US,abuse@name.comsysadmin-team@stackoverflow.com,STACKOVERFLOW.COM,42,Name.com Inc.
https://stackoverflow.com/questions/43751485/what-is-the-difference-between-ndk-and-sdk,Legitimate,STACKOVERFLOW.COM,Stack Exchange Inc.,110 William St , Floor 28,New York,NY,10038,US,abuse@name.comsysadmin-team@stackoverflow.com,STACKOVERFLOW.COM,42,Name.com Inc.
https://stackoverflow.com/questions/43751485/what-is-the-difference-between-ndk-and-sdk,Legitimate,STACKOVERFLOW.COM,None,None,None,None,None,None,abuse@name.com,STACKOVERFLOW.COM,42,Name.com Inc.
https://stackoverflow.com/questions/43751485/what-is-the-difference-between-ndk-and-sdk,Legitimate,STACKOVERFLOW.COM,None,None,None,None,None,None,abuse@name.com,STACKOVERFLOW.COM,42,Name.com Inc.
https://stackoverflow.com/questions/43751485/what-is-the-difference-between-ndk-and-sdk,Legitimate,STACKOVERFLOW.COM,Stack Exchange Inc.,110 William St , Floor 28,New York,NY,10038,US,abuse@name.comsysadmin-team@stackoverflow.com,STACKOVERFLOW.COM,42,Name.com Inc.
https://stackoverflow.com/questions/43751485/what-is-the-difference-between-ndk-and-sdk,Legitimate,STACKOVERFLOW.COM,None,None,None,None,None,None,abuse@name.com,STACKOVERFLOW.COM,42,Name.com Inc.
https://stackoverflow.com/questions/43751485/what-is-the-difference-between-ndk-and-sdk,Legitimate,STACKOVERFLOW.COM,Stack Exchange Inc.,110 William St , Floor 28,New York,NY,10038,US,abuse@name.comsysadmin-team@stackoverflow.com,STACKOVERFLOW.COM,42,Name.com Inc.
https://stackoverflow.com/questions/43751485/what-is-the-difference-between-ndk-and-sdk,Legitimate,STACKOVERFLOW.COM,None,None,None,None,None,None,abuse@name.com,STACKOVERFLOW.COM,42,Name.com Inc.
https://stackoverflow.com/questions/43751485/what-is-the-difference-between-ndk-and-sdk,Legitimate,STACKOVERFLOW.COM,Stack Exchange Inc.,110 William St , Floor 28,New York,NY,10038,US,abuse@name.comsysadmin-team@stackoverflow.com,STACKOVERFLOW.COM,42,Name.com Inc.
https://stackoverflow.com/questions/43751485/what-is-the-difference-between-ndk-and-sdk,Legitimate,STACKOVERFLOW.COM,Stack Exchange Inc.,110 William St , Floor 28,New York,NY,10038,US,abuse@name.comsysadmin-team@stackoverflow.com,STACKOVERFLOW.COM,42,Name.com Inc.
https://stackoverflow.com/questions/43751485/what-is-the-difference-between-ndk-and-sdk,Legitimate,STACKOVERFLOW.COM,Stack Exchange Inc.,110 William St , Floor 28,New York,NY,10038,US,abuse@name.comsysadmin-team@stackoverflow.com,STACKOVERFLOW.COM,42,Name.com Inc.
https://stackoverflow.com/questions/43751485/what-is-the-difference-between-ndk-and-sdk,Legitimate,STACKOVERFLOW.COM,None,None,None,None,None,None,abuse@name.com,STACKOVERFLOW.COM,42,Name.com Inc.
https://stackoverflow.com/questions/43751485/what-is-the-difference-between-ndk-and-sdk,Legitimate,STACKOVERFLOW.COM,Stack Exchange Inc.,110 William St , Floor 28,New York,NY,10038,US,abuse@name.comsysadmin-team@stackoverflow.com,STACKOVERFLOW.COM,42,Name.com Inc.
https://stackoverflow.com/questions/43751485/what-is-the-difference-between-ndk-and-sdk,Legitimate,STACKOVERFLOW.COM,None,None,None,None,None,None,abuse@name.com,STACKOVERFLOW.COM,42,Name.com Inc.
https://stackoverflow.com/questions/43751485/what-is-the-difference-between-ndk-and-sdk,Legitimate,STACKOVERFLOW.COM,Stack Exchange Inc.,110 William St , Floor 28,New York,NY,10038,US,abuse@name.comsysadmin-team@stackoverflow.com,STACKOVERFLOW.COM,42,Name.com Inc.
https://stackoverflow.com/questions/43751485/what-is-the-difference-between-ndk-and-sdk,Legitimate,STACKOVERFLOW.COM,None,None,None,None,None,None,abuse@name.com,STACKOVERFLOW.COM,42,Name.com Inc.
https://stackoverflow.com/questions/43751485/what-is-the-difference-between-ndk-and-sdk,Legitimate,STACKOVERFLOW.COM,None,None,None,None,None,None,abuse@name.com,STACKOVERFLOW.COM,42,Name.com Inc.
https://stackoverflow.com/questions/43751485/what-is-the-difference-between-ndk-and-sdk,Legitimate,STACKOVERFLOW.COM,None,None,None,None,None,None,abuse@name.com,STACKOVERFLOW.COM,42,Name.com Inc.
https://stackoverflow.com/questions/43751485/what-is-the-difference-between-ndk-and-sdk,Legitimate,STACKOVERFLOW.COM,None,None,None,None,None,None,abuse@name.com,STACKOVERFLOW.COM,42,Name.com Inc.
https://stackoverflow.com/questions/43751485/what-is-the-difference-between-ndk-and-sdk,Legitimate,STACKOVERFLOW.COM,None,None,None,None,None,None,abuse@name.com,STACKOVERFLOW.COM,42,Name.com Inc.
https://stackoverflow.com/questions/43751485/what-is-the-difference-between-ndk-and-sdk,Legitimate,STACKOVERFLOW.COM,None,None,None,None,None,None,abuse@name.com,STACKOVERFLOW.COM,42,Name.com Inc.
https://stackoverflow.com/questions/43751485/what-is-the-difference-between-ndk-and-sdk,Legitimate,STACKOVERFLOW.COM,Stack Exchange Inc.,110 William St , Floor 28,New York,NY,10038,US,abuse@name.comsysadmin-team@stackoverflow.com,STACKOVERFLOW.COM,42,Name.com Inc.
https://stackoverflow.com/questions/43751485/what-is-the-difference-between-ndk-and-sdk,Legitimate,STACKOVERFLOW.COM,Stack Exchange Inc.,110 William St , Floor 28,New York,NY,10038,US,abuse@name.comsysadmin-team@stackoverflow.com,STACKOVERFLOW.COM,42,Name.com Inc.
https://stackoverflow.com/questions/43751485/what-is-the-difference-between-ndk-and-sdk,Legitimate,STACKOVERFLOW.COM,None,None,None,None,None,None,abuse@name.com,STACKOVERFLOW.COM,42,Name.com Inc.
https://stackoverflow.com/questions/43751485/what-is-the-difference-between-ndk-and-sdk,Legitimate,STACKOVERFLOW.COM,None,None,None,None,None,None,abuse@name.com,STACKOVERFLOW.COM,42,Name.com Inc.
https://stackoverflow.com/questions/43751485/what-is-the-difference-between-ndk-and-sdk,Legitimate,STACKOVERFLOW.COM,Stack Exchange Inc.,110 William St , Floor 28,New York,NY,10038,US,abuse@name.comsysadmin-team@stackoverflow.com,STACKOVERFLOW.COM,42,Name.com Inc.
https://stackoverflow.com/questions/43751485/what-is-the-difference-between-ndk-and-sdk,Legitimate,STACKOVERFLOW.COM,None,None,None,None,None,None,abuse@name.com,STACKOVERFLOW.COM,42,Name.com Inc.
https://stackoverflow.com/questions/43751485/what-is-the-difference-between-ndk-and-sdk,Legitimate,STACKOVERFLOW.COM,Stack Exchange Inc.,110 William St , Floor 28,New York,NY,10038,US,abuse@name.comsysadmin-team@stackoverflow.com,STACKOVERFLOW.COM,42,Name.com Inc.
https://stackoverflow.com/questions/43751485/what-is-the-difference-between-ndk-and-sdk,Legitimate,STACKOVERFLOW.COM,None,None,None,None,None,None,abuse@name.com,STACKOVERFLOW.COM,42,Name.com Inc.
https://stackoverflow.com/questions/43751485/what-is-the-difference-between-ndk-and-sdk,Legitimate,STACKOVERFLOW.COM,Stack Exchange Inc.,110 William St , Floor 28,New York,NY,10038,US,abuse@name.comsysadmin-team@stackoverflow.com,STACKOVERFLOW.COM,42,Name.com Inc.
https://stackoverflow.com/questions/43751485/what-is-the-difference-between-ndk-and-sdk,Legitimate,STACKOVERFLOW.COM,Stack Exchange Inc.,110 William St , Floor 28,New York,NY,10038,US,abuse@name.comsysadmin-team@stackoverflow.com,STACKOVERFLOW.COM,42,Name.com Inc.
https://stackoverflow.com/questions/43751485/what-is-the-difference-between-ndk-and-sdk,Legitimate,STACKOVERFLOW.COM,None,None,None,None,None,None,abuse@name.com,STACKOVERFLOW.COM,42,Name.com Inc.
https://stackoverflow.com/questions/43751485/what-is-the-difference-between-ndk-and-sdk,Legitimate,STACKOVERFLOW.COM,None,None,None,None,None,None,abuse@name.com,STACKOVERFLOW.COM,42,Name.com Inc.
https://developer.android.com/reference/android/view/View,Legitimate,ANDROID.COMandroid.com,Google LLC,None,None,CA,None,US,abusecomplaints@markmonitor.comwhoisrequest@markmonitor.com,ANDROID.COMandroid.com,1451,MarkMonitor Inc.
https://developer.android.com/reference/android/view/View,Legitimate,Not found in database,Not found in database,Not found in database,Not found in database,Not found in database,Not found in database,Not found in database,Not found in database,Not Found,1451,Not Found
https://developer.android.com/reference/android/view/View,Legitimate,ANDROID.COMandroid.com,Google LLC,None,None,CA,None,US,abusecomplaints@markmonitor.comwhoisrequest@markmonitor.com,ANDROID.COMandroid.com,1451,MarkMonitor Inc.
https://developer.android.com/reference/android/view/View,Legitimate,Not found in database,Not found in database,Not found in database,Not found in database,Not found in database,Not found in database,Not found in database,Not found in database,Not Found,1451,Not Found
https://developer.android.com/reference/android/view/View,Legitimate,ANDROID.COMandroid.com,Google LLC,None,None,CA,None,US,abusecomplaints@markmonitor.comwhoisrequest@markmonitor.com,ANDROID.COMandroid.com,1451,MarkMonitor Inc.
https://developer.android.com/reference/android/view/View,Legitimate,Not found in database,Not found in database,Not found in database,Not found in database,Not found in database,Not found in database,Not found in database,Not found in database,Not Found,1451,Not Found
https://developer.android.com/reference/android/view/View,Legitimate,Not found in database,Not found in database,Not found in database,Not found in database,Not found in database,Not found in database,Not found in database,Not found in database,Not Found,1451,Not Found
https://developer.android.com/reference/android/view/View,Legitimate,ANDROID.COMandroid.com,Google LLC,None,None,CA,None,US,abusecomplaints@markmonitor.comwhoisrequest@markmonitor.com,ANDROID.COMandroid.com,1451,MarkMonitor Inc.
https://developer.android.com/reference/android/view/View,Legitimate,ANDROID.COMandroid.com,Google LLC,None,None,CA,None,US,abusecomplaints@markmonitor.comwhoisrequest@markmonitor.com,ANDROID.COMandroid.com,1451,MarkMonitor Inc.
https://android.stackexchange.com/questions/95625/what-is-androids-sleep-mode,Legitimate,STACKEXCHANGE.COM,Domain Protection Services Inc.,PO Box 1769,Denver,CO,80201,US,abuse@name.com,STACKEXCHANGE.COM,110,Name.com Inc.
https://android.stackexchange.com/questions/95625/what-is-androids-sleep-mode,Legitimate,STACKEXCHANGE.COM,None,None,None,None,None,None,abuse@name.com,STACKEXCHANGE.COM,110,Name.com Inc.
https://developer.android.com/training/monitoring-device-state/doze-standby,Legitimate,ANDROID.COMandroid.com,Google LLC,None,None,CA,None,US,abusecomplaints@markmonitor.comwhoisrequest@markmonitor.com,ANDROID.COMandroid.com,1451,MarkMonitor Inc.
https://developer.android.com/training/monitoring-device-state/doze-standby,Legitimate,Not found in database,Not found in database,Not found in database,Not found in database,Not found in database,Not found in database,Not found in database,Not found in database,Not Found,1451,Not Found
https://developer.android.com/training/monitoring-device-state/doze-standby,Legitimate,ANDROID.COM,None,None,None,None,None,None,abusecomplaints@markmonitor.com,ANDROID.COM,1451,MarkMonitor Inc.
https://developer.android.com/training/monitoring-device-state/doze-standby,Legitimate,Not found in database,Not found in database,Not found in database,Not found in database,Not found in database,Not found in database,Not found in database,Not found in database,Not Found,1451,Not Found
https://developer.android.com/training/monitoring-device-state/doze-standby,Legitimate,Not found in database,Not found in database,Not found in database,Not found in database,Not found in database,Not found in database,Not found in database,Not found in database,Not Found,1451,Not Found
https://developer.android.com/reference/android/view/View,Legitimate,Not found in database,Not found in database,Not found in database,Not found in database,Not found in database,Not found in database,Not found in database,Not found in database,Not Found,1451,Not Found
https://developer.android.com/reference/android/view/View,Legitimate,Not found in database,Not found in database,Not found in database,Not found in database,Not found in database,Not found in database,Not found in database,Not found in database,Not Found,1451,Not Found
https://developer.android.com/reference/android/view/View,Legitimate,Not found in database,Not found in database,Not found in database,Not found in database,Not found in database,Not found in database,Not found in database,Not found in database,Not Found,1451,Not Found
https://en.wikipedia.org/wiki/Singleton_pattern,Legitimate,Not found in database,Not found in database,Not found in database,Not found in database,Not found in database,Not found in database,Not found in database,Not found in database,Not Found,13,Not Found
https://en.wikipedia.org/wiki/Singleton_pattern,Legitimate,Not found in database,Not found in database,Not found in database,Not found in database,Not found in database,Not found in database,Not found in database,Not found in database,Not Found,13,Not Found
https://www.geeksforgeeks.org/singleton-class-java/,Legitimate,GEEKSFORGEEKS.ORG,Privacy Protect LLC (PrivacyProtect.org),10 Corporate Drive,Burlington,MA,01803,US,abuse-contact@publicdomainregistry.comcontact@privacyprotect.org,GEEKSFORGEEKS.ORG,317,PDR Ltd. d/b/a PublicDomainRegistry.com
https://www.geeksforgeeks.org/singleton-class-java/,Legitimate,GEEKSFORGEEKS.ORG,Privacy Protect LLC (PrivacyProtect.org),10 Corporate Drive,Burlington,MA,01803,US,abuse-contact@publicdomainregistry.comcontact@privacyprotect.org,GEEKSFORGEEKS.ORG,317,PDR Ltd. d/b/a PublicDomainRegistry.com
https://www.geeksforgeeks.org/singleton-class-java/,Legitimate,GEEKSFORGEEKS.ORG,Privacy Protect LLC (PrivacyProtect.org),10 Corporate Drive,Burlington,MA,01803,US,abuse-contact@publicdomainregistry.comcontact@privacyprotect.org,GEEKSFORGEEKS.ORG,317,PDR Ltd. d/b/a PublicDomainRegistry.com
https://www.tutorialspoint.com/android/android_fragments.htm,Legitimate,TUTORIALSPOINT.COM,Tutorials Point India Limited,None,None,Andhra Pradesh,None,IN,abuse@godaddy.com,TUTORIALSPOINT.COM,463,GoDaddy.com LLC
https://www.tutorialspoint.com/android/android_fragments.htm,Legitimate,TUTORIALSPOINT.COM,Tutorials Point India Limited,None,None,Andhra Pradesh,None,IN,abuse@godaddy.com,TUTORIALSPOINT.COM,463,GoDaddy.com LLC
https://www.tutorialspoint.com/android/android_fragments.htm,Legitimate,TUTORIALSPOINT.COM,Tutorials Point India Limited,None,None,Andhra Pradesh,None,IN,abuse@godaddy.com,TUTORIALSPOINT.COM,463,GoDaddy.com LLC
https://leetcode.com/problemset/all/,Legitimate,LEETCODE.COM,Domains By Proxy LLC,DomainsByProxy.com14455 N. Hayden Road,Scottsdale,Arizona,85260,US,abuse@godaddy.comLEETCODE.COM@domainsbyproxy.com,LEETCODE.COM,2155,GoDaddy.com LLC
https://leetcode.com/problemset/all/,Legitimate,LEETCODE.COM,Domains By Proxy LLC,DomainsByProxy.com14455 N. Hayden Road,Scottsdale,Arizona,85260,US,abuse@godaddy.comLEETCODE.COM@domainsbyproxy.com,LEETCODE.COM,2155,GoDaddy.com LLC
https://leetcode.com/problems/search-in-rotated-sorted-array/,Legitimate,LEETCODE.COM,Domains By Proxy LLC,DomainsByProxy.com14455 N. Hayden Road,Scottsdale,Arizona,85260,US,abuse@godaddy.comLEETCODE.COM@domainsbyproxy.com,LEETCODE.COM,2155,GoDaddy.com LLC
https://leetcode.com/problems/search-in-rotated-sorted-array/,Legitimate,LEETCODE.COM,Domains By Proxy LLC,DomainsByProxy.com14455 N. Hayden Road,Scottsdale,Arizona,85260,US,abuse@godaddy.comLEETCODE.COM@domainsbyproxy.com,LEETCODE.COM,2155,GoDaddy.com LLC
https://leetcode.com/problems/search-in-rotated-sorted-array/,Legitimate,LEETCODE.COM,Domains By Proxy LLC,DomainsByProxy.com14455 N. Hayden Road,Scottsdale,Arizona,85260,US,abuse@godaddy.comLEETCODE.COM@domainsbyproxy.com,LEETCODE.COM,2155,GoDaddy.com LLC
https://leetcode.com/problems/search-in-rotated-sorted-array/,Legitimate,LEETCODE.COM,Domains By Proxy LLC,DomainsByProxy.com14455 N. Hayden Road,Scottsdale,Arizona,85260,US,abuse@godaddy.comLEETCODE.COM@domainsbyproxy.com,LEETCODE.COM,2155,GoDaddy.com LLC
https://www.google.com/search?sxsrf=ALeKk02Ga8lohruBIssLKZyBVxWV4Zu0-w:1588938384326,Legitimate,GOOGLE.COMgoogle.com,Google LLC,None,None,CA,None,US,abusecomplaints@markmonitor.comwhoisrequest@markmonitor.com,GOOGLE.COMgoogle.com,1,MarkMonitor Inc.
https://www.google.com/search?sxsrf=ALeKk02Ga8lohruBIssLKZyBVxWV4Zu0-w:1588938384326,Legitimate,GOOGLE.COM,None,None,None,None,None,None,abusecomplaints@markmonitor.com,GOOGLE.COM,1,MarkMonitor Inc.
https://docs.python.org/2/library/collections.html,Legitimate,PYTHON.ORGpython.org,Python Software Foundation,REDACTED FOR PRIVACY,REDACTED FOR PRIVACY,['OR', 'Oregon'],REDACTED FOR PRIVACY,US,abuse@support.gandi.nete89d6901ba3e470e8cedc3eaa32a0074-1697561@contact.gandi.net7fd79ebe18980da9baceef0fa1b27680-1705778@contact.gandi.net,PYTHON.ORGpython.org,984,GANDI SAS
https://docs.python.org/2/library/collections.html,Legitimate,PYTHON.ORGpython.org,Python Software Foundation,REDACTED FOR PRIVACY,REDACTED FOR PRIVACY,['OR', 'Oregon'],REDACTED FOR PRIVACY,US,abuse@support.gandi.nete89d6901ba3e470e8cedc3eaa32a0074-1697561@contact.gandi.net7fd79ebe18980da9baceef0fa1b27680-1705778@contact.gandi.net,PYTHON.ORGpython.org,984,GANDI SAS
https://docs.python.org/3/library/collections.html,Legitimate,Not found in database,Not found in database,Not found in database,Not found in database,Not found in database,Not found in database,Not found in database,Not found in database,Not Found,984,Not Found
https://docs.python.org/3/library/collections.html,Legitimate,PYTHON.ORG,Python Software Foundation,None,None,OR,None,US,abuse@support.gandi.net,PYTHON.ORG,984,Gandi SAS
https://docs.python.org/3/library/collections.html,Legitimate,PYTHON.ORGpython.org,Python Software Foundation,REDACTED FOR PRIVACY,REDACTED FOR PRIVACY,['OR', 'Oregon'],REDACTED FOR PRIVACY,US,abuse@support.gandi.nete89d6901ba3e470e8cedc3eaa32a0074-1697561@contact.gandi.net7fd79ebe18980da9baceef0fa1b27680-1705778@contact.gandi.net,PYTHON.ORGpython.org,984,GANDI SAS
https://leetcode.com/problems/search-in-rotated-sorted-array/discuss/?currentPage=1,Legitimate,LEETCODE.COM,Domains By Proxy LLC,DomainsByProxy.com14455 N. Hayden Road,Scottsdale,Arizona,85260,US,abuse@godaddy.comLEETCODE.COM@domainsbyproxy.com,LEETCODE.COM,2155,GoDaddy.com LLC
https://leetcode.com/problems/search-in-rotated-sorted-array/discuss/?currentPage=1,Legitimate,LEETCODE.COM,Domains By Proxy LLC,DomainsByProxy.com14455 N. Hayden Road,Scottsdale,Arizona,85260,US,abuse@godaddy.comLEETCODE.COM@domainsbyproxy.com,LEETCODE.COM,2155,GoDaddy.com LLC
https://leetcode.com/problems/search-in-rotated-sorted-array/discuss/?currentPage=1,Legitimate,LEETCODE.COM,Domains By Proxy LLC,DomainsByProxy.com14455 N. Hayden Road,Scottsdale,Arizona,85260,US,abuse@godaddy.comLEETCODE.COM@domainsbyproxy.com,LEETCODE.COM,2155,GoDaddy.com LLC
https://leetcode.com/problems/search-in-rotated-sorted-array/discuss/?currentPage=1,Legitimate,LEETCODE.COM,Domains By Proxy LLC,DomainsByProxy.com14455 N. Hayden Road,Scottsdale,Arizona,85260,US,abuse@godaddy.comLEETCODE.COM@domainsbyproxy.com,LEETCODE.COM,2155,GoDaddy.com LLC
https://leetcode.com/problems/search-in-rotated-sorted-array/discuss/617886/Python-Binary-Search-Solution-with-Explanation-~90,Legitimate,LEETCODE.COM,Domains By Proxy LLC,DomainsByProxy.com14455 N. Hayden Road,Scottsdale,Arizona,85260,US,abuse@godaddy.comLEETCODE.COM@domainsbyproxy.com,LEETCODE.COM,2155,GoDaddy.com LLC
https://leetcode.com/problems/search-in-rotated-sorted-array/discuss/617886/Python-Binary-Search-Solution-with-Explanation-~90,Legitimate,LEETCODE.COM,Domains By Proxy LLC,DomainsByProxy.com14455 N. Hayden Road,Scottsdale,Arizona,85260,US,abuse@godaddy.comLEETCODE.COM@domainsbyproxy.com,LEETCODE.COM,2155,GoDaddy.com LLC
https://leetcode.com/problems/search-in-rotated-sorted-array/discuss/?currentPage=1,Legitimate,LEETCODE.COM,Domains By Proxy LLC,DomainsByProxy.com14455 N. Hayden Road,Scottsdale,Arizona,85260,US,abuse@godaddy.comLEETCODE.COM@domainsbyproxy.com,LEETCODE.COM,2155,GoDaddy.com LLC
https://leetcode.com/problems/search-in-rotated-sorted-array/discuss/?currentPage=1,Legitimate,LEETCODE.COM,Domains By Proxy LLC,DomainsByProxy.com14455 N. Hayden Road,Scottsdale,Arizona,85260,US,abuse@godaddy.comLEETCODE.COM@domainsbyproxy.com,LEETCODE.COM,2155,GoDaddy.com LLC
https://leetcode.com/problems/search-in-rotated-sorted-array/discuss/?currentPage=1,Legitimate,LEETCODE.COM,Domains By Proxy LLC,DomainsByProxy.com14455 N. Hayden Road,Scottsdale,Arizona,85260,US,abuse@godaddy.comLEETCODE.COM@domainsbyproxy.com,LEETCODE.COM,2155,GoDaddy.com LLC
https://leetcode.com/problems/search-in-rotated-sorted-array/discuss/587952/Python-Modified-Binary-Search-Recursive-Solution,Legitimate,LEETCODE.COM,Domains By Proxy LLC,DomainsByProxy.com14455 N. Hayden Road,Scottsdale,Arizona,85260,US,abuse@godaddy.comLEETCODE.COM@domainsbyproxy.com,LEETCODE.COM,2155,GoDaddy.com LLC
https://leetcode.com/problems/search-in-rotated-sorted-array/discuss/587952/Python-Modified-Binary-Search-Recursive-Solution,Legitimate,LEETCODE.COM,Domains By Proxy LLC,DomainsByProxy.com14455 N. Hayden Road,Scottsdale,Arizona,85260,US,abuse@godaddy.comLEETCODE.COM@domainsbyproxy.com,LEETCODE.COM,2155,GoDaddy.com LLC
https://leetcode.com/problems/search-in-rotated-sorted-array/discuss/?currentPage=1,Legitimate,LEETCODE.COM,Domains By Proxy LLC,DomainsByProxy.com14455 N. Hayden Road,Scottsdale,Arizona,85260,US,abuse@godaddy.comLEETCODE.COM@domainsbyproxy.com,LEETCODE.COM,2155,GoDaddy.com LLC
https://leetcode.com/problems/search-in-rotated-sorted-array/discuss/?currentPage=1,Legitimate,LEETCODE.COM,Domains By Proxy LLC,DomainsByProxy.com14455 N. Hayden Road,Scottsdale,Arizona,85260,US,abuse@godaddy.comLEETCODE.COM@domainsbyproxy.com,LEETCODE.COM,2155,GoDaddy.com LLC
https://leetcode.com/problems/search-in-rotated-sorted-array/discuss/557476/Python3-modified-BS-explained-and-faster-than-64.77,Legitimate,LEETCODE.COM,Domains By Proxy LLC,DomainsByProxy.com14455 N. Hayden Road,Scottsdale,Arizona,85260,US,abuse@godaddy.comLEETCODE.COM@domainsbyproxy.com,LEETCODE.COM,2155,GoDaddy.com LLC
https://leetcode.com/problems/search-in-rotated-sorted-array/discuss/557476/Python3-modified-BS-explained-and-faster-than-64.77,Legitimate,LEETCODE.COM,Domains By Proxy LLC,DomainsByProxy.com14455 N. Hayden Road,Scottsdale,Arizona,85260,US,abuse@godaddy.comLEETCODE.COM@domainsbyproxy.com,LEETCODE.COM,2155,GoDaddy.com LLC
https://leetcode.com/problems/search-in-rotated-sorted-array/,Legitimate,LEETCODE.COM,Domains By Proxy LLC,DomainsByProxy.com14455 N. Hayden Road,Scottsdale,Arizona,85260,US,abuse@godaddy.comLEETCODE.COM@domainsbyproxy.com,LEETCODE.COM,2155,GoDaddy.com LLC
https://leetcode.com/problems/search-in-rotated-sorted-array/discuss/?currentPage=1,Legitimate,LEETCODE.COM,Domains By Proxy LLC,DomainsByProxy.com14455 N. Hayden Road,Scottsdale,Arizona,85260,US,abuse@godaddy.comLEETCODE.COM@domainsbyproxy.com,LEETCODE.COM,2155,GoDaddy.com LLC
https://leetcode.com/problems/search-in-rotated-sorted-array/discuss/?currentPage=1,Legitimate,LEETCODE.COM,Domains By Proxy LLC,DomainsByProxy.com14455 N. Hayden Road,Scottsdale,Arizona,85260,US,abuse@godaddy.comLEETCODE.COM@domainsbyproxy.com,LEETCODE.COM,2155,GoDaddy.com LLC
https://leetcode.com/problems/search-in-rotated-sorted-array/discuss/?currentPage=1,Legitimate,LEETCODE.COM,Domains By Proxy LLC,DomainsByProxy.com14455 N. Hayden Road,Scottsdale,Arizona,85260,US,abuse@godaddy.comLEETCODE.COM@domainsbyproxy.com,LEETCODE.COM,2155,GoDaddy.com LLC
https://leetcode.com/problems/search-in-rotated-sorted-array/discuss/?currentPage=1,Legitimate,LEETCODE.COM,Domains By Proxy LLC,DomainsByProxy.com14455 N. Hayden Road,Scottsdale,Arizona,85260,US,abuse@godaddy.comLEETCODE.COM@domainsbyproxy.com,LEETCODE.COM,2155,GoDaddy.com LLC
https://leetcode.com/problems/search-in-rotated-sorted-array/discuss/?currentPage=1,Legitimate,LEETCODE.COM,Domains By Proxy LLC,DomainsByProxy.com14455 N. Hayden Road,Scottsdale,Arizona,85260,US,abuse@godaddy.comLEETCODE.COM@domainsbyproxy.com,LEETCODE.COM,2155,GoDaddy.com LLC
https://leetcode.com/problems/search-in-rotated-sorted-array/discuss/615188/C++-O(log(N))-solution,Legitimate,LEETCODE.COM,Domains By Proxy LLC,DomainsByProxy.com14455 N. Hayden Road,Scottsdale,Arizona,85260,US,abuse@godaddy.comLEETCODE.COM@domainsbyproxy.com,LEETCODE.COM,2155,GoDaddy.com LLC
https://leetcode.com/problems/search-in-rotated-sorted-array/discuss/615188/C++-O(log(N))-solution,Legitimate,LEETCODE.COM,Domains By Proxy LLC,DomainsByProxy.com14455 N. Hayden Road,Scottsdale,Arizona,85260,US,abuse@godaddy.comLEETCODE.COM@domainsbyproxy.com,LEETCODE.COM,2155,GoDaddy.com LLC
https://leetcode.com/problems/search-in-rotated-sorted-array/discuss/?currentPage=1,Legitimate,LEETCODE.COM,Domains By Proxy LLC,DomainsByProxy.com14455 N. Hayden Road,Scottsdale,Arizona,85260,US,abuse@godaddy.comLEETCODE.COM@domainsbyproxy.com,LEETCODE.COM,2155,GoDaddy.com LLC
https://leetcode.com/problems/search-in-rotated-sorted-array/discuss/?currentPage=1,Legitimate,LEETCODE.COM,Domains By Proxy LLC,DomainsByProxy.com14455 N. Hayden Road,Scottsdale,Arizona,85260,US,abuse@godaddy.comLEETCODE.COM@domainsbyproxy.com,LEETCODE.COM,2155,GoDaddy.com LLC
https://leetcode.com/problems/search-in-rotated-sorted-array/discuss/?currentPage=1,Legitimate,LEETCODE.COM,Domains By Proxy LLC,DomainsByProxy.com14455 N. Hayden Road,Scottsdale,Arizona,85260,US,abuse@godaddy.comLEETCODE.COM@domainsbyproxy.com,LEETCODE.COM,2155,GoDaddy.com LLC
https://leetcode.com/problems/search-in-rotated-sorted-array/discuss/?currentPage=1,Legitimate,LEETCODE.COM,Domains By Proxy LLC,DomainsByProxy.com14455 N. Hayden Road,Scottsdale,Arizona,85260,US,abuse@godaddy.comLEETCODE.COM@domainsbyproxy.com,LEETCODE.COM,2155,GoDaddy.com LLC
https://leetcode.com/problems/search-in-rotated-sorted-array/discuss/?currentPage=1,Legitimate,LEETCODE.COM,Domains By Proxy LLC,DomainsByProxy.com14455 N. Hayden Road,Scottsdale,Arizona,85260,US,abuse@godaddy.comLEETCODE.COM@domainsbyproxy.com,LEETCODE.COM,2155,GoDaddy.com LLC
https://leetcode.com/problems/search-in-rotated-sorted-array/discuss/614439/Java-solution-using-binary-search-beats-100,Legitimate,LEETCODE.COM,Domains By Proxy LLC,DomainsByProxy.com14455 N. Hayden Road,Scottsdale,Arizona,85260,US,abuse@godaddy.comLEETCODE.COM@domainsbyproxy.com,LEETCODE.COM,2155,GoDaddy.com LLC
https://leetcode.com/problems/search-in-rotated-sorted-array/discuss/614439/Java-solution-using-binary-search-beats-100,Legitimate,LEETCODE.COM,Domains By Proxy LLC,DomainsByProxy.com14455 N. Hayden Road,Scottsdale,Arizona,85260,US,abuse@godaddy.comLEETCODE.COM@domainsbyproxy.com,LEETCODE.COM,2155,GoDaddy.com LLC
https://leetcode.com/problems/search-in-rotated-sorted-array/discuss/?currentPage=1,Legitimate,LEETCODE.COM,Domains By Proxy LLC,DomainsByProxy.com14455 N. Hayden Road,Scottsdale,Arizona,85260,US,abuse@godaddy.comLEETCODE.COM@domainsbyproxy.com,LEETCODE.COM,2155,GoDaddy.com LLC
https://leetcode.com/problems/search-in-rotated-sorted-array/discuss/?currentPage=1,Legitimate,LEETCODE.COM,Domains By Proxy LLC,DomainsByProxy.com14455 N. Hayden Road,Scottsdale,Arizona,85260,US,abuse@godaddy.comLEETCODE.COM@domainsbyproxy.com,LEETCODE.COM,2155,GoDaddy.com LLC
https://leetcode.com/problems/search-in-rotated-sorted-array/discuss/?currentPage=1,Legitimate,LEETCODE.COM,Domains By Proxy LLC,DomainsByProxy.com14455 N. Hayden Road,Scottsdale,Arizona,85260,US,abuse@godaddy.comLEETCODE.COM@domainsbyproxy.com,LEETCODE.COM,2155,GoDaddy.com LLC
https://leetcode.com/problems/search-in-rotated-sorted-array/discuss/591611/Easy-Understand-or-Beat-90-or-SOLUTION-for-BOTH-33.-and-81.-or-BinarySearch-or-Time:-O(nlogn),Legitimate,LEETCODE.COM,Domains By Proxy LLC,DomainsByProxy.com14455 N. Hayden Road,Scottsdale,Arizona,85260,US,abuse@godaddy.comLEETCODE.COM@domainsbyproxy.com,LEETCODE.COM,2155,GoDaddy.com LLC
https://leetcode.com/problems/search-in-rotated-sorted-array/discuss/591611/Easy-Understand-or-Beat-90-or-SOLUTION-for-BOTH-33.-and-81.-or-BinarySearch-or-Time:-O(nlogn),Legitimate,LEETCODE.COM,Domains By Proxy LLC,DomainsByProxy.com14455 N. Hayden Road,Scottsdale,Arizona,85260,US,abuse@godaddy.comLEETCODE.COM@domainsbyproxy.com,LEETCODE.COM,2155,GoDaddy.com LLC
https://leetcode.com/problems/search-in-rotated-sorted-array/discuss/?currentPage=1,Legitimate,LEETCODE.COM,Domains By Proxy LLC,DomainsByProxy.com14455 N. Hayden Road,Scottsdale,Arizona,85260,US,abuse@godaddy.comLEETCODE.COM@domainsbyproxy.com,LEETCODE.COM,2155,GoDaddy.com LLC
https://leetcode.com/problems/search-in-rotated-sorted-array/discuss/?currentPage=1,Legitimate,LEETCODE.COM,Domains By Proxy LLC,DomainsByProxy.com14455 N. Hayden Road,Scottsdale,Arizona,85260,US,abuse@godaddy.comLEETCODE.COM@domainsbyproxy.com,LEETCODE.COM,2155,GoDaddy.com LLC
https://leetcode.com/problems/search-in-rotated-sorted-array/discuss/?currentPage=1,Legitimate,LEETCODE.COM,Domains By Proxy LLC,DomainsByProxy.com14455 N. Hayden Road,Scottsdale,Arizona,85260,US,abuse@godaddy.comLEETCODE.COM@domainsbyproxy.com,LEETCODE.COM,2155,GoDaddy.com LLC
https://leetcode.com/problems/search-in-rotated-sorted-array/discuss/494999/Python-log(-n-)-sol.-derived-from-binary-search.-w-Visualization,Legitimate,LEETCODE.COM,Domains By Proxy LLC,DomainsByProxy.com14455 N. Hayden Road,Scottsdale,Arizona,85260,US,abuse@godaddy.comLEETCODE.COM@domainsbyproxy.com,LEETCODE.COM,2155,GoDaddy.com LLC
https://leetcode.com/problems/search-in-rotated-sorted-array/discuss/494999/Python-log(-n-)-sol.-derived-from-binary-search.-w-Visualization,Legitimate,LEETCODE.COM,Domains By Proxy LLC,DomainsByProxy.com14455 N. Hayden Road,Scottsdale,Arizona,85260,US,abuse@godaddy.comLEETCODE.COM@domainsbyproxy.com,LEETCODE.COM,2155,GoDaddy.com LLC
https://8movierulz.ws/,Legitimate,8MOVIERULZ.WS8movierulz.ws,None,REDACTED FOR PRIVACY,REDACTED FOR PRIVACY,Georgia,REDACTED FOR PRIVACY,US,reg.ws-notification@gandi.netabuse@support.gandi.net3c4b6ba4264c6ba27a658a2d74483cee-18856629@contact.gandi.net,8MOVIERULZ.WS8movierulz.ws,94888,GANDI SAS
https://8movierulz.ws/,Legitimate,8MOVIERULZ.WS8movierulz.ws,None,REDACTED FOR PRIVACY,REDACTED FOR PRIVACY,Georgia,REDACTED FOR PRIVACY,US,reg.ws-notification@gandi.netabuse@support.gandi.net3c4b6ba4264c6ba27a658a2d74483cee-18856629@contact.gandi.net,8MOVIERULZ.WS8movierulz.ws,94888,GANDI SAS
https://8movierulz.ws/titanic-1997-bluray-original-telugu-tamil-hindi-eng-dubbed-movie-watch-online-free/,Legitimate,Not found in database,Not found in database,Not found in database,Not found in database,Not found in database,Not found in database,Not found in database,Not found in database,Not Found,94888,Not Found
https://8movierulz.ws/titanic-1997-bluray-original-telugu-tamil-hindi-eng-dubbed-movie-watch-online-free/,Legitimate,8MOVIERULZ.WS,None,None,None,None,None,None,reg.ws-notification@gandi.net,8MOVIERULZ.WS,94888,Gandi SAS
https://8movierulz.ws/,Legitimate,8MOVIERULZ.WS,None,None,None,None,None,None,reg.ws-notification@gandi.net,8MOVIERULZ.WS,94888,Gandi SAS
https://8movierulz.ws/,Legitimate,Not found in database,Not found in database,Not found in database,Not found in database,Not found in database,Not found in database,Not found in database,Not found in database,Not Found,94888,Not Found
https://8movierulz.ws/category/hollywood-movie-2020/,Legitimate,Not found in database,Not found in database,Not found in database,Not found in database,Not found in database,Not found in database,Not found in database,Not found in database,Not Found,94888,Not Found
https://8movierulz.ws/category/hollywood-movie-2020/,Legitimate,Not found in database,Not found in database,Not found in database,Not found in database,Not found in database,Not found in database,Not found in database,Not found in database,Not Found,94888,Not Found
https://8movierulz.ws/,Legitimate,8MOVIERULZ.WS,None,None,None,None,None,None,reg.ws-notification@gandi.net,8MOVIERULZ.WS,94888,Gandi SAS
https://8movierulz.ws/,Legitimate,Not found in database,Not found in database,Not found in database,Not found in database,Not found in database,Not found in database,Not found in database,Not found in database,Not Found,94888,Not Found
https://torrentcounter.red/,Legitimate,TORRENTCOUNTER.REDtorrentcounter.red,WhoisGuard Inc.,P.O. Box 0823-03411,Panama,Panama,None,PA,abuse@namecheap.com9a5dbbcf8316442396b8912106b43dcd.protect@whoisguard.com,TORRENTCOUNTER.REDtorrentcounter.red,38448,NAMECHEAP INC
https://torrentcounter.red/,Legitimate,TORRENTCOUNTER.REDtorrentcounter.red,WhoisGuard Inc.,P.O. Box 0823-03411,Panama,Panama,None,PA,abuse@namecheap.com9a5dbbcf8316442396b8912106b43dcd.protect@whoisguard.com,TORRENTCOUNTER.REDtorrentcounter.red,38448,NAMECHEAP INC
https://torrentcounter.red/extraction-2020-torrent/,Legitimate,TORRENTCOUNTER.REDtorrentcounter.red,WhoisGuard Inc.,P.O. Box 0823-03411,Panama,Panama,None,PA,abuse@namecheap.com9a5dbbcf8316442396b8912106b43dcd.protect@whoisguard.com,TORRENTCOUNTER.REDtorrentcounter.red,38448,NAMECHEAP INC
https://torrentcounter.red/extraction-2020-torrent/,Legitimate,TORRENTCOUNTER.REDtorrentcounter.red,WhoisGuard Inc.,P.O. Box 0823-03411,Panama,Panama,None,PA,abuse@namecheap.com9a5dbbcf8316442396b8912106b43dcd.protect@whoisguard.com,TORRENTCOUNTER.REDtorrentcounter.red,38448,NAMECHEAP INC
https://torrentcounter.red/extraction-2020-torrent/,Legitimate,Not found in database,Not found in database,Not found in database,Not found in database,Not found in database,Not found in database,Not found in database,Not found in database,Not Found,38448,Not Found
https://torrentcounter.red/ninja-cheerleaders-2008-hindi-torrent/,Legitimate,TORRENTCOUNTER.REDtorrentcounter.red,WhoisGuard Inc.,P.O. Box 0823-03411,Panama,Panama,None,PA,abuse@namecheap.com9a5dbbcf8316442396b8912106b43dcd.protect@whoisguard.com,TORRENTCOUNTER.REDtorrentcounter.red,38448,NAMECHEAP INC
https://torrentcounter.red/ninja-cheerleaders-2008-hindi-torrent/,Legitimate,Not found in database,Not found in database,Not found in database,Not found in database,Not found in database,Not found in database,Not found in database,Not found in database,Not Found,38448,Not Found
https://torrentcounter.red/ninja-cheerleaders-2008-hindi-torrent/,Legitimate,Not found in database,Not found in database,Not found in database,Not found in database,Not found in database,Not found in database,Not found in database,Not found in database,Not Found,38448,Not Found
https://torrentcounter.red/stars/ginny-weirick/,Legitimate,Not found in database,Not found in database,Not found in database,Not found in database,Not found in database,Not found in database,Not found in database,Not found in database,Not Found,38448,Not Found
https://torrentcounter.red/stars/ginny-weirick/,Legitimate,Not found in database,Not found in database,Not found in database,Not found in database,Not found in database,Not found in database,Not found in database,Not found in database,Not Found,38448,Not Found
https://uphold.com/authorize/6d8d9473ed20be627f71ed46e207f40c004c5b1a?scope=accounts:read accounts:write cards:read cards:write user:read transactions:deposit transactions:read transactions:transfer:application transactions:transfer:others,Legitimate,UPHOLD.COM,Domains By Proxy LLC,DomainsByProxy.com14455 N. Hayden Road,Scottsdale,Arizona,85260,US,abuse@godaddy.comUPHOLD.COM@domainsbyproxy.com,UPHOLD.COM,-1,GoDaddy.com LLC
https://uphold.com/authorize/6d8d9473ed20be627f71ed46e207f40c004c5b1a?scope=accounts:read accounts:write cards:read cards:write user:read transactions:deposit transactions:read transactions:transfer:application transactions:transfer:others,Legitimate,UPHOLD.COM,Domains By Proxy LLC,DomainsByProxy.com14455 N. Hayden Road,Scottsdale,Arizona,85260,US,abuse@godaddy.comUPHOLD.COM@domainsbyproxy.com,UPHOLD.COM,-1,GoDaddy.com LLC
https://uphold.com/authorize/6d8d9473ed20be627f71ed46e207f40c004c5b1a?scope=accounts:read accounts:write cards:read cards:write user:read transactions:deposit transactions:read transactions:transfer:application transactions:transfer:others,Legitimate,UPHOLD.COM,Domains By Proxy LLC,DomainsByProxy.com14455 N. Hayden Road,Scottsdale,Arizona,85260,US,abuse@godaddy.comUPHOLD.COM@domainsbyproxy.com,UPHOLD.COM,-1,GoDaddy.com LLC
https://leetcode.com/problems/search-in-rotated-sorted-array/,Legitimate,LEETCODE.COM,Domains By Proxy LLC,DomainsByProxy.com14455 N. Hayden Road,Scottsdale,Arizona,85260,US,abuse@godaddy.comLEETCODE.COM@domainsbyproxy.com,LEETCODE.COM,2155,GoDaddy.com LLC
https://www.google.com/search?sxsrf=ALeKk013zNqHnhgUXjBk4qsZhgZD0zMA1g:1588940253625,Legitimate,GOOGLE.COMgoogle.com,Google LLC,None,None,CA,None,US,abusecomplaints@markmonitor.comwhoisrequest@markmonitor.com,GOOGLE.COMgoogle.com,1,MarkMonitor Inc.
https://www.google.com/search?sxsrf=ALeKk013zNqHnhgUXjBk4qsZhgZD0zMA1g:1588940253625,Legitimate,Not found in database,Not found in database,Not found in database,Not found in database,Not found in database,Not found in database,Not found in database,Not found in database,Not Found,1,Not Found
https://www.google.com/search?sxsrf=ALeKk013zNqHnhgUXjBk4qsZhgZD0zMA1g:1588940253625,Legitimate,GOOGLE.COM,None,None,None,None,None,None,abusecomplaints@markmonitor.com,GOOGLE.COM,1,MarkMonitor Inc.
https://www.google.com/search?sxsrf=ALeKk02rBmLCegvMJqK_M-FYm_b3WzKsEw:1588940288874,Legitimate,GOOGLE.COM,None,None,None,None,None,None,abusecomplaints@markmonitor.com,GOOGLE.COM,1,MarkMonitor Inc.
https://www.google.com/search?sxsrf=ALeKk02rBmLCegvMJqK_M-FYm_b3WzKsEw:1588940288874,Legitimate,GOOGLE.COM,None,None,None,None,None,None,abusecomplaints@markmonitor.com,GOOGLE.COM,1,MarkMonitor Inc.
https://www.google.com/search?sxsrf=ALeKk02rBmLCegvMJqK_M-FYm_b3WzKsEw:1588940288874,Legitimate,Not found in database,Not found in database,Not found in database,Not found in database,Not found in database,Not found in database,Not found in database,Not found in database,Not Found,1,Not Found
https://www.google.com/search?sxsrf=ALeKk0285DdYlXlr5qR_RlAdFmhqXkwXSw:1588940293410,Legitimate,Not found in database,Not found in database,Not found in database,Not found in database,Not found in database,Not found in database,Not found in database,Not found in database,Not Found,1,Not Found
https://www.google.com/search?sxsrf=ALeKk0285DdYlXlr5qR_RlAdFmhqXkwXSw:1588940293410,Legitimate,GOOGLE.COM,None,None,None,None,None,None,abusecomplaints@markmonitor.com,GOOGLE.COM,1,MarkMonitor Inc.
https://www.google.com/search?sxsrf=ALeKk02rBmLCegvMJqK_M-FYm_b3WzKsEw:1588940288874,Legitimate,Not found in database,Not found in database,Not found in database,Not found in database,Not found in database,Not found in database,Not found in database,Not found in database,Not Found,1,Not Found
https://www.google.com/search?sxsrf=ALeKk02rBmLCegvMJqK_M-FYm_b3WzKsEw:1588940288874,Legitimate,GOOGLE.COM,None,None,None,None,None,None,abusecomplaints@markmonitor.com,GOOGLE.COM,1,MarkMonitor Inc.
https://www.google.com/search?sxsrf=ALeKk0285DdYlXlr5qR_RlAdFmhqXkwXSw:1588940293410,Legitimate,Not found in database,Not found in database,Not found in database,Not found in database,Not found in database,Not found in database,Not found in database,Not found in database,Not Found,1,Not Found
https://www.google.com/search?sxsrf=ALeKk0285DdYlXlr5qR_RlAdFmhqXkwXSw:1588940293410,Legitimate,GOOGLE.COM,None,None,None,None,None,None,abusecomplaints@markmonitor.com,GOOGLE.COM,1,MarkMonitor Inc.
https://www.google.com/search?sxsrf=ALeKk02rBmLCegvMJqK_M-FYm_b3WzKsEw:1588940288874,Legitimate,Not found in database,Not found in database,Not found in database,Not found in database,Not found in database,Not found in database,Not found in database,Not found in database,Not Found,1,Not Found
https://www.google.com/search?sxsrf=ALeKk02rBmLCegvMJqK_M-FYm_b3WzKsEw:1588940288874,Legitimate,Not found in database,Not found in database,Not found in database,Not found in database,Not found in database,Not found in database,Not found in database,Not found in database,Not Found,1,Not Found
https://www.google.com/search?sxsrf=ALeKk0285DdYlXlr5qR_RlAdFmhqXkwXSw:1588940293410,Legitimate,GOOGLE.COM,None,None,None,None,None,None,abusecomplaints@markmonitor.com,GOOGLE.COM,1,MarkMonitor Inc.
https://www.google.com/search?sxsrf=ALeKk0285DdYlXlr5qR_RlAdFmhqXkwXSw:1588940293410,Legitimate,Not found in database,Not found in database,Not found in database,Not found in database,Not found in database,Not found in database,Not found in database,Not found in database,Not Found,1,Not Found
https://www.google.com/search?sxsrf=ALeKk0285DdYlXlr5qR_RlAdFmhqXkwXSw:1588940293410,Legitimate,GOOGLE.COM,None,None,None,None,None,None,abusecomplaints@markmonitor.com,GOOGLE.COM,1,MarkMonitor Inc.
https://www.google.com/search?sxsrf=ALeKk01ESWSgR3P0oR6T-sXO-ug42w9NUw:1588940365413,Legitimate,Not found in database,Not found in database,Not found in database,Not found in database,Not found in database,Not found in database,Not found in database,Not found in database,Not Found,1,Not Found
https://www.google.com/search?sxsrf=ALeKk01ESWSgR3P0oR6T-sXO-ug42w9NUw:1588940365413,Legitimate,GOOGLE.COM,None,None,None,None,None,None,abusecomplaints@markmonitor.com,GOOGLE.COM,1,MarkMonitor Inc.
https://www.google.com/search?sxsrf=ALeKk01ESWSgR3P0oR6T-sXO-ug42w9NUw:1588940365413,Legitimate,Not found in database,Not found in database,Not found in database,Not found in database,Not found in database,Not found in database,Not found in database,Not found in database,Not Found,1,Not Found
https://www.google.com/search?sxsrf=ALeKk00CUw6Yv3N-tFNJnZ7qBJd-ZDJYBw:1588940394003,Legitimate,GOOGLE.COM,None,None,None,None,None,None,abusecomplaints@markmonitor.com,GOOGLE.COM,1,MarkMonitor Inc.
https://www.google.com/search?sxsrf=ALeKk00CUw6Yv3N-tFNJnZ7qBJd-ZDJYBw:1588940394003,Legitimate,Not found in database,Not found in database,Not found in database,Not found in database,Not found in database,Not found in database,Not found in database,Not found in database,Not Found,1,Not Found
https://www.google.com/search?sxsrf=ALeKk00CUw6Yv3N-tFNJnZ7qBJd-ZDJYBw:1588940394003,Legitimate,GOOGLE.COM,None,None,None,None,None,None,abusecomplaints@markmonitor.com,GOOGLE.COM,1,MarkMonitor Inc.
https://www.google.com/search?sxsrf=ALeKk01wYfWioo_stEROtGoCcNSA2Cv7LQ:1588940426082,Legitimate,GOOGLE.COM,None,None,None,None,None,None,abusecomplaints@markmonitor.com,GOOGLE.COM,1,MarkMonitor Inc.
https://www.google.com/search?sxsrf=ALeKk01wYfWioo_stEROtGoCcNSA2Cv7LQ:1588940426082,Legitimate,GOOGLE.COM,None,None,None,None,None,None,abusecomplaints@markmonitor.com,GOOGLE.COM,1,MarkMonitor Inc.
https://www.google.com/search?sxsrf=ALeKk01wYfWioo_stEROtGoCcNSA2Cv7LQ:1588940426082,Legitimate,GOOGLE.COM,None,None,None,None,None,None,abusecomplaints@markmonitor.com,GOOGLE.COM,1,MarkMonitor Inc.
https://leetcode.com/problems/search-in-rotated-sorted-array/discuss/494999/Python-log(-n-)-sol.-derived-from-binary-search.-w-Visualization,Legitimate,LEETCODE.COM,Domains By Proxy LLC,DomainsByProxy.com14455 N. Hayden Road,Scottsdale,Arizona,85260,US,abuse@godaddy.comLEETCODE.COM@domainsbyproxy.com,LEETCODE.COM,2155,GoDaddy.com LLC
https://leetcode.com/problems/search-in-rotated-sorted-array/discuss/?currentPage=1,Legitimate,LEETCODE.COM,Domains By Proxy LLC,DomainsByProxy.com14455 N. Hayden Road,Scottsdale,Arizona,85260,US,abuse@godaddy.comLEETCODE.COM@domainsbyproxy.com,LEETCODE.COM,2149,GoDaddy.com LLC
https://leetcode.com/problems/search-in-rotated-sorted-array/discuss/?currentPage=1,Legitimate,LEETCODE.COM,Domains By Proxy LLC,DomainsByProxy.com14455 N. Hayden Road,Scottsdale,Arizona,85260,US,abuse@godaddy.comLEETCODE.COM@domainsbyproxy.com,LEETCODE.COM,2149,GoDaddy.com LLC
https://leetcode.com/problems/search-in-rotated-sorted-array/discuss/?currentPage=1,Legitimate,LEETCODE.COM,Domains By Proxy LLC,DomainsByProxy.com14455 N. Hayden Road,Scottsdale,Arizona,85260,US,abuse@godaddy.comLEETCODE.COM@domainsbyproxy.com,LEETCODE.COM,2149,GoDaddy.com LLC
https://leetcode.com/problems/search-in-rotated-sorted-array/discuss/?currentPage=1,Legitimate,LEETCODE.COM,Domains By Proxy LLC,DomainsByProxy.com14455 N. Hayden Road,Scottsdale,Arizona,85260,US,abuse@godaddy.comLEETCODE.COM@domainsbyproxy.com,LEETCODE.COM,2149,GoDaddy.com LLC
https://leetcode.com/problems/search-in-rotated-sorted-array/,Legitimate,LEETCODE.COM,Domains By Proxy LLC,DomainsByProxy.com14455 N. Hayden Road,Scottsdale,Arizona,85260,US,abuse@godaddy.comLEETCODE.COM@domainsbyproxy.com,LEETCODE.COM,2149,GoDaddy.com LLC
https://web.whatsapp.com/,Legitimate,WHATSAPP.COM,Whatsapp Inc.,650 Castro Street Suite 120-219,Mountain View,CA,94041,US,abusecomplaints@registrarsafe.comdomain@fb.com,WHATSAPP.COM,71,RegistrarSafe LLC
https://leetcode.com/problems/search-in-rotated-sorted-array/submissions/,Legitimate,LEETCODE.COM,Domains By Proxy LLC,DomainsByProxy.com14455 N. Hayden Road,Scottsdale,Arizona,85260,US,abuse@godaddy.comLEETCODE.COM@domainsbyproxy.com,LEETCODE.COM,2149,GoDaddy.com LLC
https://leetcode.com/problems/search-in-rotated-sorted-array/,Legitimate,LEETCODE.COM,Domains By Proxy LLC,DomainsByProxy.com14455 N. Hayden Road,Scottsdale,Arizona,85260,US,abuse@godaddy.comLEETCODE.COM@domainsbyproxy.com,LEETCODE.COM,2149,GoDaddy.com LLC
https://leetcode.com/problems/search-in-rotated-sorted-array/submissions/,Legitimate,LEETCODE.COM,Domains By Proxy LLC,DomainsByProxy.com14455 N. Hayden Road,Scottsdale,Arizona,85260,US,abuse@godaddy.comLEETCODE.COM@domainsbyproxy.com,LEETCODE.COM,2149,GoDaddy.com LLC
https://leetcode.com/problems/search-in-rotated-sorted-array/submissions/,Legitimate,LEETCODE.COM,Domains By Proxy LLC,DomainsByProxy.com14455 N. Hayden Road,Scottsdale,Arizona,85260,US,abuse@godaddy.comLEETCODE.COM@domainsbyproxy.com,LEETCODE.COM,2149,GoDaddy.com LLC
https://leetcode.com/problems/search-in-rotated-sorted-array/submissions/,Legitimate,LEETCODE.COM,Domains By Proxy LLC,DomainsByProxy.com14455 N. Hayden Road,Scottsdale,Arizona,85260,US,abuse@godaddy.comLEETCODE.COM@domainsbyproxy.com,LEETCODE.COM,2149,GoDaddy.com LLC
https://leetcode.com/problems/search-in-rotated-sorted-array/submissions/,Legitimate,LEETCODE.COM,Domains By Proxy LLC,DomainsByProxy.com14455 N. Hayden Road,Scottsdale,Arizona,85260,US,abuse@godaddy.comLEETCODE.COM@domainsbyproxy.com,LEETCODE.COM,2149,GoDaddy.com LLC
https://leetcode.com/problems/search-in-rotated-sorted-array/submissions/,Legitimate,LEETCODE.COM,Domains By Proxy LLC,DomainsByProxy.com14455 N. Hayden Road,Scottsdale,Arizona,85260,US,abuse@godaddy.comLEETCODE.COM@domainsbyproxy.com,LEETCODE.COM,2149,GoDaddy.com LLC
https://leetcode.com/problems/search-in-rotated-sorted-array/submissions/,Legitimate,LEETCODE.COM,Domains By Proxy LLC,DomainsByProxy.com14455 N. Hayden Road,Scottsdale,Arizona,85260,US,abuse@godaddy.comLEETCODE.COM@domainsbyproxy.com,LEETCODE.COM,2149,GoDaddy.com LLC
https://leetcode.com/problems/search-in-rotated-sorted-array/submissions/,Legitimate,LEETCODE.COM,Domains By Proxy LLC,DomainsByProxy.com14455 N. Hayden Road,Scottsdale,Arizona,85260,US,abuse@godaddy.comLEETCODE.COM@domainsbyproxy.com,LEETCODE.COM,2149,GoDaddy.com LLC
https://leetcode.com/problems/search-in-rotated-sorted-array/submissions/,Legitimate,LEETCODE.COM,Domains By Proxy LLC,DomainsByProxy.com14455 N. Hayden Road,Scottsdale,Arizona,85260,US,abuse@godaddy.comLEETCODE.COM@domainsbyproxy.com,LEETCODE.COM,2149,GoDaddy.com LLC
https://leetcode.com/problems/search-in-rotated-sorted-array-ii/discuss/?currentPage=1,Legitimate,LEETCODE.COM,Domains By Proxy LLC,DomainsByProxy.com14455 N. Hayden Road,Scottsdale,Arizona,85260,US,abuse@godaddy.comLEETCODE.COM@domainsbyproxy.com,LEETCODE.COM,2149,GoDaddy.com LLC
https://leetcode.com/problems/search-in-rotated-sorted-array-ii/discuss/?currentPage=1,Legitimate,LEETCODE.COM,Domains By Proxy LLC,DomainsByProxy.com14455 N. Hayden Road,Scottsdale,Arizona,85260,US,abuse@godaddy.comLEETCODE.COM@domainsbyproxy.com,LEETCODE.COM,2149,GoDaddy.com LLC
https://leetcode.com/problems/search-in-rotated-sorted-array-ii/discuss/?currentPage=1,Legitimate,LEETCODE.COM,Domains By Proxy LLC,DomainsByProxy.com14455 N. Hayden Road,Scottsdale,Arizona,85260,US,abuse@godaddy.comLEETCODE.COM@domainsbyproxy.com,LEETCODE.COM,2149,GoDaddy.com LLC
https://leetcode.com/problems/search-in-rotated-sorted-array-ii/discuss/616611/beats-98.36-of-python-submissions,Legitimate,LEETCODE.COM,Domains By Proxy LLC,DomainsByProxy.com14455 N. Hayden Road,Scottsdale,Arizona,85260,US,abuse@godaddy.comLEETCODE.COM@domainsbyproxy.com,LEETCODE.COM,2149,GoDaddy.com LLC
https://leetcode.com/problems/search-in-rotated-sorted-array-ii/discuss/616611/beats-98.36-of-python-submissions,Legitimate,LEETCODE.COM,Domains By Proxy LLC,DomainsByProxy.com14455 N. Hayden Road,Scottsdale,Arizona,85260,US,abuse@godaddy.comLEETCODE.COM@domainsbyproxy.com,LEETCODE.COM,2149,GoDaddy.com LLC
https://leetcode.com/problems/search-in-rotated-sorted-array-ii/discuss/?currentPage=1,Legitimate,LEETCODE.COM,Domains By Proxy LLC,DomainsByProxy.com14455 N. Hayden Road,Scottsdale,Arizona,85260,US,abuse@godaddy.comLEETCODE.COM@domainsbyproxy.com,LEETCODE.COM,2149,GoDaddy.com LLC
https://leetcode.com/problems/search-in-rotated-sorted-array-ii/discuss/?currentPage=1,Legitimate,LEETCODE.COM,Domains By Proxy LLC,DomainsByProxy.com14455 N. Hayden Road,Scottsdale,Arizona,85260,US,abuse@godaddy.comLEETCODE.COM@domainsbyproxy.com,LEETCODE.COM,2149,GoDaddy.com LLC
https://leetcode.com/problems/search-in-rotated-sorted-array-ii/discuss/?currentPage=1,Legitimate,LEETCODE.COM,Domains By Proxy LLC,DomainsByProxy.com14455 N. Hayden Road,Scottsdale,Arizona,85260,US,abuse@godaddy.comLEETCODE.COM@domainsbyproxy.com,LEETCODE.COM,2149,GoDaddy.com LLC
https://leetcode.com/problems/search-in-rotated-sorted-array-ii/discuss/608226/C++-or-O(n)-and-O(log(n)),Legitimate,LEETCODE.COM,Domains By Proxy LLC,DomainsByProxy.com14455 N. Hayden Road,Scottsdale,Arizona,85260,US,abuse@godaddy.comLEETCODE.COM@domainsbyproxy.com,LEETCODE.COM,2149,GoDaddy.com LLC
https://leetcode.com/problems/search-in-rotated-sorted-array-ii/discuss/608226/C++-or-O(n)-and-O(log(n)),Legitimate,LEETCODE.COM,Domains By Proxy LLC,DomainsByProxy.com14455 N. Hayden Road,Scottsdale,Arizona,85260,US,abuse@godaddy.comLEETCODE.COM@domainsbyproxy.com,LEETCODE.COM,2149,GoDaddy.com LLC
https://leetcode.com/problems/search-in-rotated-sorted-array-ii/discuss/?currentPage=1,Legitimate,LEETCODE.COM,Domains By Proxy LLC,DomainsByProxy.com14455 N. Hayden Road,Scottsdale,Arizona,85260,US,abuse@godaddy.comLEETCODE.COM@domainsbyproxy.com,LEETCODE.COM,2149,GoDaddy.com LLC
https://leetcode.com/problems/search-in-rotated-sorted-array-ii/,Legitimate,LEETCODE.COM,Domains By Proxy LLC,DomainsByProxy.com14455 N. Hayden Road,Scottsdale,Arizona,85260,US,abuse@godaddy.comLEETCODE.COM@domainsbyproxy.com,LEETCODE.COM,2149,GoDaddy.com LLC
https://leetcode.com/problems/search-in-rotated-sorted-array-ii/,Legitimate,LEETCODE.COM,Domains By Proxy LLC,DomainsByProxy.com14455 N. Hayden Road,Scottsdale,Arizona,85260,US,abuse@godaddy.comLEETCODE.COM@domainsbyproxy.com,LEETCODE.COM,2149,GoDaddy.com LLC
https://leetcode.com/problems/search-in-rotated-sorted-array-ii/,Legitimate,LEETCODE.COM,Domains By Proxy LLC,DomainsByProxy.com14455 N. Hayden Road,Scottsdale,Arizona,85260,US,abuse@godaddy.comLEETCODE.COM@domainsbyproxy.com,LEETCODE.COM,2149,GoDaddy.com LLC
https://leetcode.com/problems/search-in-rotated-sorted-array-ii/,Legitimate,LEETCODE.COM,Domains By Proxy LLC,DomainsByProxy.com14455 N. Hayden Road,Scottsdale,Arizona,85260,US,abuse@godaddy.comLEETCODE.COM@domainsbyproxy.com,LEETCODE.COM,2149,GoDaddy.com LLC
https://leetcode.com/problems/search-in-rotated-sorted-array-ii/,Legitimate,LEETCODE.COM,Domains By Proxy LLC,DomainsByProxy.com14455 N. Hayden Road,Scottsdale,Arizona,85260,US,abuse@godaddy.comLEETCODE.COM@domainsbyproxy.com,LEETCODE.COM,2149,GoDaddy.com LLC
https://leetcode.com/problems/search-in-rotated-sorted-array-ii/,Legitimate,LEETCODE.COM,Domains By Proxy LLC,DomainsByProxy.com14455 N. Hayden Road,Scottsdale,Arizona,85260,US,abuse@godaddy.comLEETCODE.COM@domainsbyproxy.com,LEETCODE.COM,2149,GoDaddy.com LLC
https://leetcode.com/problems/search-in-rotated-sorted-array-ii/,Legitimate,Not found in database,Not found in database,Not found in database,Not found in database,Not found in database,Not found in database,Not found in database,Not found in database,Not Found,2149,Not Found
https://leetcode.com/problems/search-in-rotated-sorted-array-ii/,Legitimate,LEETCODE.COM,Domains By Proxy LLC,DomainsByProxy.com14455 N. Hayden Road,Scottsdale,Arizona,85260,US,abuse@godaddy.comLEETCODE.COM@domainsbyproxy.com,LEETCODE.COM,2149,GoDaddy.com LLC
https://leetcode.com/problems/search-in-rotated-sorted-array-ii/,Legitimate,LEETCODE.COM,Domains By Proxy LLC,DomainsByProxy.com14455 N. Hayden Road,Scottsdale,Arizona,85260,US,abuse@godaddy.comLEETCODE.COM@domainsbyproxy.com,LEETCODE.COM,2149,GoDaddy.com LLC
https://leetcode.com/problems/search-in-rotated-sorted-array-ii/,Legitimate,LEETCODE.COM,Domains By Proxy LLC,DomainsByProxy.com14455 N. Hayden Road,Scottsdale,Arizona,85260,US,abuse@godaddy.comLEETCODE.COM@domainsbyproxy.com,LEETCODE.COM,2149,GoDaddy.com LLC
https://leetcode.com/problems/search-in-rotated-sorted-array-ii/,Legitimate,LEETCODE.COM,Domains By Proxy LLC,DomainsByProxy.com14455 N. Hayden Road,Scottsdale,Arizona,85260,US,abuse@godaddy.comLEETCODE.COM@domainsbyproxy.com,LEETCODE.COM,2149,GoDaddy.com LLC
https://leetcode.com/problems/search-in-rotated-sorted-array-ii/,Legitimate,LEETCODE.COM,Domains By Proxy LLC,DomainsByProxy.com14455 N. Hayden Road,Scottsdale,Arizona,85260,US,abuse@godaddy.comLEETCODE.COM@domainsbyproxy.com,LEETCODE.COM,2149,GoDaddy.com LLC
https://leetcode.com/problems/search-in-rotated-sorted-array-ii/,Legitimate,LEETCODE.COM,Domains By Proxy LLC,DomainsByProxy.com14455 N. Hayden Road,Scottsdale,Arizona,85260,US,abuse@godaddy.comLEETCODE.COM@domainsbyproxy.com,LEETCODE.COM,2149,GoDaddy.com LLC
https://leetcode.com/problems/search-in-rotated-sorted-array-ii/,Legitimate,LEETCODE.COM,Domains By Proxy LLC,DomainsByProxy.com14455 N. Hayden Road,Scottsdale,Arizona,85260,US,abuse@godaddy.comLEETCODE.COM@domainsbyproxy.com,LEETCODE.COM,2149,GoDaddy.com LLC
https://leetcode.com/problems/search-in-rotated-sorted-array-ii/,Legitimate,LEETCODE.COM,Domains By Proxy LLC,DomainsByProxy.com14455 N. Hayden Road,Scottsdale,Arizona,85260,US,abuse@godaddy.comLEETCODE.COM@domainsbyproxy.com,LEETCODE.COM,2149,GoDaddy.com LLC
https://leetcode.com/problems/search-in-rotated-sorted-array-ii/,Legitimate,LEETCODE.COM,Domains By Proxy LLC,DomainsByProxy.com14455 N. Hayden Road,Scottsdale,Arizona,85260,US,abuse@godaddy.comLEETCODE.COM@domainsbyproxy.com,LEETCODE.COM,2149,GoDaddy.com LLC
https://leetcode.com/problems/search-in-rotated-sorted-array-ii/,Legitimate,LEETCODE.COM,Domains By Proxy LLC,DomainsByProxy.com14455 N. Hayden Road,Scottsdale,Arizona,85260,US,abuse@godaddy.comLEETCODE.COM@domainsbyproxy.com,LEETCODE.COM,2149,GoDaddy.com LLC
https://leetcode.com/problems/search-in-rotated-sorted-array-ii/,Legitimate,LEETCODE.COM,Domains By Proxy LLC,DomainsByProxy.com14455 N. Hayden Road,Scottsdale,Arizona,85260,US,abuse@godaddy.comLEETCODE.COM@domainsbyproxy.com,LEETCODE.COM,2149,GoDaddy.com LLC
https://leetcode.com/problems/search-in-rotated-sorted-array-ii/,Legitimate,LEETCODE.COM,Domains By Proxy LLC,DomainsByProxy.com14455 N. Hayden Road,Scottsdale,Arizona,85260,US,abuse@godaddy.comLEETCODE.COM@domainsbyproxy.com,LEETCODE.COM,2149,GoDaddy.com LLC
https://leetcode.com/problems/search-in-rotated-sorted-array-ii/,Legitimate,LEETCODE.COM,Domains By Proxy LLC,DomainsByProxy.com14455 N. Hayden Road,Scottsdale,Arizona,85260,US,abuse@godaddy.comLEETCODE.COM@domainsbyproxy.com,LEETCODE.COM,2149,GoDaddy.com LLC
https://leetcode.com/problems/search-in-rotated-sorted-array-ii/,Legitimate,LEETCODE.COM,Domains By Proxy LLC,DomainsByProxy.com14455 N. Hayden Road,Scottsdale,Arizona,85260,US,abuse@godaddy.comLEETCODE.COM@domainsbyproxy.com,LEETCODE.COM,2149,GoDaddy.com LLC
https://leetcode.com/problems/search-in-rotated-sorted-array-ii/,Legitimate,LEETCODE.COM,Domains By Proxy LLC,DomainsByProxy.com14455 N. Hayden Road,Scottsdale,Arizona,85260,US,abuse@godaddy.comLEETCODE.COM@domainsbyproxy.com,LEETCODE.COM,2149,GoDaddy.com LLC
https://leetcode.com/problems/search-in-rotated-sorted-array-ii/,Legitimate,LEETCODE.COM,Domains By Proxy LLC,DomainsByProxy.com14455 N. Hayden Road,Scottsdale,Arizona,85260,US,abuse@godaddy.comLEETCODE.COM@domainsbyproxy.com,LEETCODE.COM,2149,GoDaddy.com LLC
https://leetcode.com/problems/search-in-rotated-sorted-array-ii/,Legitimate,LEETCODE.COM,Domains By Proxy LLC,DomainsByProxy.com14455 N. Hayden Road,Scottsdale,Arizona,85260,US,abuse@godaddy.comLEETCODE.COM@domainsbyproxy.com,LEETCODE.COM,2149,GoDaddy.com LLC
https://leetcode.com/problems/search-in-rotated-sorted-array-ii/,Legitimate,LEETCODE.COM,Domains By Proxy LLC,DomainsByProxy.com14455 N. Hayden Road,Scottsdale,Arizona,85260,US,abuse@godaddy.comLEETCODE.COM@domainsbyproxy.com,LEETCODE.COM,2149,GoDaddy.com LLC
https://leetcode.com/problems/search-in-rotated-sorted-array-ii/,Legitimate,LEETCODE.COM,Domains By Proxy LLC,DomainsByProxy.com14455 N. Hayden Road,Scottsdale,Arizona,85260,US,abuse@godaddy.comLEETCODE.COM@domainsbyproxy.com,LEETCODE.COM,2149,GoDaddy.com LLC
https://leetcode.com/problems/search-in-rotated-sorted-array-ii/,Legitimate,Not found in database,Not found in database,Not found in database,Not found in database,Not found in database,Not found in database,Not found in database,Not found in database,Not Found,2149,Not Found
https://leetcode.com/problems/search-in-rotated-sorted-array-ii/,Legitimate,LEETCODE.COM,Domains By Proxy LLC,DomainsByProxy.com14455 N. Hayden Road,Scottsdale,Arizona,85260,US,abuse@godaddy.comLEETCODE.COM@domainsbyproxy.com,LEETCODE.COM,2149,GoDaddy.com LLC
https://leetcode.com/problems/search-in-rotated-sorted-array-ii/,Legitimate,Not found in database,Not found in database,Not found in database,Not found in database,Not found in database,Not found in database,Not found in database,Not found in database,Not Found,2149,Not Found
https://leetcode.com/problems/search-in-rotated-sorted-array-ii/,Legitimate,LEETCODE.COM,Domains By Proxy LLC,DomainsByProxy.com14455 N. Hayden Road,Scottsdale,Arizona,85260,US,abuse@godaddy.comLEETCODE.COM@domainsbyproxy.com,LEETCODE.COM,2149,GoDaddy.com LLC
https://leetcode.com/problems/search-in-rotated-sorted-array-ii/,Legitimate,Not found in database,Not found in database,Not found in database,Not found in database,Not found in database,Not found in database,Not found in database,Not found in database,Not Found,2149,Not Found
https://leetcode.com/problems/search-in-rotated-sorted-array-ii/,Legitimate,LEETCODE.COM,Domains By Proxy LLC,DomainsByProxy.com14455 N. Hayden Road,Scottsdale,Arizona,85260,US,abuse@godaddy.comLEETCODE.COM@domainsbyproxy.com,LEETCODE.COM,2149,GoDaddy.com LLC
https://leetcode.com/problems/search-in-rotated-sorted-array-ii/,Legitimate,LEETCODE.COM,Domains By Proxy LLC,DomainsByProxy.com14455 N. Hayden Road,Scottsdale,Arizona,85260,US,abuse@godaddy.comLEETCODE.COM@domainsbyproxy.com,LEETCODE.COM,2149,GoDaddy.com LLC
https://leetcode.com/problems/search-in-rotated-sorted-array-ii/,Legitimate,LEETCODE.COM,Domains By Proxy LLC,DomainsByProxy.com14455 N. Hayden Road,Scottsdale,Arizona,85260,US,abuse@godaddy.comLEETCODE.COM@domainsbyproxy.com,LEETCODE.COM,2149,GoDaddy.com LLC
https://leetcode.com/problems/search-in-rotated-sorted-array-ii/,Legitimate,LEETCODE.COM,Domains By Proxy LLC,DomainsByProxy.com14455 N. Hayden Road,Scottsdale,Arizona,85260,US,abuse@godaddy.comLEETCODE.COM@domainsbyproxy.com,LEETCODE.COM,2149,GoDaddy.com LLC
https://leetcode.com/problems/search-in-rotated-sorted-array-ii/,Legitimate,LEETCODE.COM,Domains By Proxy LLC,DomainsByProxy.com14455 N. Hayden Road,Scottsdale,Arizona,85260,US,abuse@godaddy.comLEETCODE.COM@domainsbyproxy.com,LEETCODE.COM,2149,GoDaddy.com LLC
https://leetcode.com/problems/search-in-rotated-sorted-array-ii/,Legitimate,LEETCODE.COM,Domains By Proxy LLC,DomainsByProxy.com14455 N. Hayden Road,Scottsdale,Arizona,85260,US,abuse@godaddy.comLEETCODE.COM@domainsbyproxy.com,LEETCODE.COM,2149,GoDaddy.com LLC
https://leetcode.com/problems/search-in-rotated-sorted-array-ii/,Legitimate,LEETCODE.COM,Domains By Proxy LLC,DomainsByProxy.com14455 N. Hayden Road,Scottsdale,Arizona,85260,US,abuse@godaddy.comLEETCODE.COM@domainsbyproxy.com,LEETCODE.COM,2149,GoDaddy.com LLC
https://leetcode.com/problems/search-in-rotated-sorted-array-ii/,Legitimate,LEETCODE.COM,Domains By Proxy LLC,DomainsByProxy.com14455 N. Hayden Road,Scottsdale,Arizona,85260,US,abuse@godaddy.comLEETCODE.COM@domainsbyproxy.com,LEETCODE.COM,2149,GoDaddy.com LLC
https://leetcode.com/problems/search-in-rotated-sorted-array-ii/,Legitimate,LEETCODE.COM,Domains By Proxy LLC,DomainsByProxy.com14455 N. Hayden Road,Scottsdale,Arizona,85260,US,abuse@godaddy.comLEETCODE.COM@domainsbyproxy.com,LEETCODE.COM,2149,GoDaddy.com LLC
https://leetcode.com/problems/search-in-rotated-sorted-array-ii/,Legitimate,LEETCODE.COM,Domains By Proxy LLC,DomainsByProxy.com14455 N. Hayden Road,Scottsdale,Arizona,85260,US,abuse@godaddy.comLEETCODE.COM@domainsbyproxy.com,LEETCODE.COM,2149,GoDaddy.com LLC
https://leetcode.com/problems/search-in-rotated-sorted-array-ii/,Legitimate,LEETCODE.COM,Domains By Proxy LLC,DomainsByProxy.com14455 N. Hayden Road,Scottsdale,Arizona,85260,US,abuse@godaddy.comLEETCODE.COM@domainsbyproxy.com,LEETCODE.COM,2149,GoDaddy.com LLC
https://leetcode.com/problems/search-in-rotated-sorted-array-ii/submissions/,Legitimate,LEETCODE.COM,Domains By Proxy LLC,DomainsByProxy.com14455 N. Hayden Road,Scottsdale,Arizona,85260,US,abuse@godaddy.comLEETCODE.COM@domainsbyproxy.com,LEETCODE.COM,2149,GoDaddy.com LLC
https://leetcode.com/problems/search-in-rotated-sorted-array-ii/submissions/,Legitimate,LEETCODE.COM,Domains By Proxy LLC,DomainsByProxy.com14455 N. Hayden Road,Scottsdale,Arizona,85260,US,abuse@godaddy.comLEETCODE.COM@domainsbyproxy.com,LEETCODE.COM,2149,GoDaddy.com LLC
https://leetcode.com/problems/search-in-rotated-sorted-array-ii/submissions/,Legitimate,LEETCODE.COM,Domains By Proxy LLC,DomainsByProxy.com14455 N. Hayden Road,Scottsdale,Arizona,85260,US,abuse@godaddy.comLEETCODE.COM@domainsbyproxy.com,LEETCODE.COM,2149,GoDaddy.com LLC
https://leetcode.com/problems/search-in-rotated-sorted-array-ii/submissions/,Legitimate,LEETCODE.COM,Domains By Proxy LLC,DomainsByProxy.com14455 N. Hayden Road,Scottsdale,Arizona,85260,US,abuse@godaddy.comLEETCODE.COM@domainsbyproxy.com,LEETCODE.COM,2149,GoDaddy.com LLC
https://leetcode.com/problems/search-in-rotated-sorted-array-ii/submissions/,Legitimate,LEETCODE.COM,Domains By Proxy LLC,DomainsByProxy.com14455 N. Hayden Road,Scottsdale,Arizona,85260,US,abuse@godaddy.comLEETCODE.COM@domainsbyproxy.com,LEETCODE.COM,2149,GoDaddy.com LLC
https://leetcode.com/problems/search-in-rotated-sorted-array-ii/submissions/,Legitimate,LEETCODE.COM,Domains By Proxy LLC,DomainsByProxy.com14455 N. Hayden Road,Scottsdale,Arizona,85260,US,abuse@godaddy.comLEETCODE.COM@domainsbyproxy.com,LEETCODE.COM,2149,GoDaddy.com LLC
https://leetcode.com/problems/search-in-rotated-sorted-array-ii/submissions/,Legitimate,LEETCODE.COM,Domains By Proxy LLC,DomainsByProxy.com14455 N. Hayden Road,Scottsdale,Arizona,85260,US,abuse@godaddy.comLEETCODE.COM@domainsbyproxy.com,LEETCODE.COM,2149,GoDaddy.com LLC
https://leetcode.com/problems/search-in-rotated-sorted-array-ii/submissions/,Legitimate,Not found in database,Not found in database,Not found in database,Not found in database,Not found in database,Not found in database,Not found in database,Not found in database,Not Found,2149,Not Found
https://leetcode.com/problems/find-minimum-in-rotated-sorted-array/,Legitimate,LEETCODE.COM,Domains By Proxy LLC,DomainsByProxy.com14455 N. Hayden Road,Scottsdale,Arizona,85260,US,abuse@godaddy.comLEETCODE.COM@domainsbyproxy.com,LEETCODE.COM,2149,GoDaddy.com LLC
https://leetcode.com/problems/find-minimum-in-rotated-sorted-array/,Legitimate,LEETCODE.COM,Domains By Proxy LLC,DomainsByProxy.com14455 N. Hayden Road,Scottsdale,Arizona,85260,US,abuse@godaddy.comLEETCODE.COM@domainsbyproxy.com,LEETCODE.COM,2149,GoDaddy.com LLC
https://leetcode.com/problems/find-minimum-in-rotated-sorted-array/,Legitimate,LEETCODE.COM,Domains By Proxy LLC,DomainsByProxy.com14455 N. Hayden Road,Scottsdale,Arizona,85260,US,abuse@godaddy.comLEETCODE.COM@domainsbyproxy.com,LEETCODE.COM,2149,GoDaddy.com LLC
https://leetcode.com/problems/find-minimum-in-rotated-sorted-array/,Legitimate,LEETCODE.COM,Domains By Proxy LLC,DomainsByProxy.com14455 N. Hayden Road,Scottsdale,Arizona,85260,US,abuse@godaddy.comLEETCODE.COM@domainsbyproxy.com,LEETCODE.COM,2149,GoDaddy.com LLC
https://leetcode.com/problems/find-minimum-in-rotated-sorted-array/,Legitimate,LEETCODE.COM,Domains By Proxy LLC,DomainsByProxy.com14455 N. Hayden Road,Scottsdale,Arizona,85260,US,abuse@godaddy.comLEETCODE.COM@domainsbyproxy.com,LEETCODE.COM,2149,GoDaddy.com LLC
https://leetcode.com/problems/find-minimum-in-rotated-sorted-array/,Legitimate,LEETCODE.COM,Domains By Proxy LLC,DomainsByProxy.com14455 N. Hayden Road,Scottsdale,Arizona,85260,US,abuse@godaddy.comLEETCODE.COM@domainsbyproxy.com,LEETCODE.COM,2149,GoDaddy.com LLC
https://leetcode.com/problems/find-minimum-in-rotated-sorted-array/,Legitimate,Not found in database,Not found in database,Not found in database,Not found in database,Not found in database,Not found in database,Not found in database,Not found in database,Not Found,2149,Not Found
https://leetcode.com/problems/find-minimum-in-rotated-sorted-array/,Legitimate,LEETCODE.COM,Domains By Proxy LLC,DomainsByProxy.com14455 N. Hayden Road,Scottsdale,Arizona,85260,US,abuse@godaddy.comLEETCODE.COM@domainsbyproxy.com,LEETCODE.COM,2149,GoDaddy.com LLC
https://leetcode.com/problems/find-minimum-in-rotated-sorted-array/,Legitimate,Not found in database,Not found in database,Not found in database,Not found in database,Not found in database,Not found in database,Not found in database,Not found in database,Not Found,2149,Not Found
https://leetcode.com/problems/find-minimum-in-rotated-sorted-array/,Legitimate,LEETCODE.COM,Domains By Proxy LLC,DomainsByProxy.com14455 N. Hayden Road,Scottsdale,Arizona,85260,US,abuse@godaddy.comLEETCODE.COM@domainsbyproxy.com,LEETCODE.COM,2149,GoDaddy.com LLC
https://leetcode.com/problems/find-minimum-in-rotated-sorted-array/,Legitimate,LEETCODE.COM,Domains By Proxy LLC,DomainsByProxy.com14455 N. Hayden Road,Scottsdale,Arizona,85260,US,abuse@godaddy.comLEETCODE.COM@domainsbyproxy.com,LEETCODE.COM,2149,GoDaddy.com LLC
https://leetcode.com/problems/find-minimum-in-rotated-sorted-array/,Legitimate,LEETCODE.COM,Domains By Proxy LLC,DomainsByProxy.com14455 N. Hayden Road,Scottsdale,Arizona,85260,US,abuse@godaddy.comLEETCODE.COM@domainsbyproxy.com,LEETCODE.COM,2149,GoDaddy.com LLC
https://leetcode.com/problems/find-minimum-in-rotated-sorted-array/discuss/?currentPage=1,Legitimate,LEETCODE.COM,Domains By Proxy LLC,DomainsByProxy.com14455 N. Hayden Road,Scottsdale,Arizona,85260,US,abuse@godaddy.comLEETCODE.COM@domainsbyproxy.com,LEETCODE.COM,2149,GoDaddy.com LLC
https://leetcode.com/problems/find-minimum-in-rotated-sorted-array/discuss/?currentPage=1,Legitimate,LEETCODE.COM,Domains By Proxy LLC,DomainsByProxy.com14455 N. Hayden Road,Scottsdale,Arizona,85260,US,abuse@godaddy.comLEETCODE.COM@domainsbyproxy.com,LEETCODE.COM,2149,GoDaddy.com LLC
https://leetcode.com/problems/find-minimum-in-rotated-sorted-array/discuss/?currentPage=1,Legitimate,LEETCODE.COM,Domains By Proxy LLC,DomainsByProxy.com14455 N. Hayden Road,Scottsdale,Arizona,85260,US,abuse@godaddy.comLEETCODE.COM@domainsbyproxy.com,LEETCODE.COM,2149,GoDaddy.com LLC
https://leetcode.com/problems/find-minimum-in-rotated-sorted-array/discuss/?currentPage=1,Legitimate,LEETCODE.COM,Domains By Proxy LLC,DomainsByProxy.com14455 N. Hayden Road,Scottsdale,Arizona,85260,US,abuse@godaddy.comLEETCODE.COM@domainsbyproxy.com,LEETCODE.COM,2149,GoDaddy.com LLC
https://leetcode.com/problems/find-minimum-in-rotated-sorted-array/,Legitimate,Not found in database,Not found in database,Not found in database,Not found in database,Not found in database,Not found in database,Not found in database,Not found in database,Not Found,2149,Not Found
https://leetcode.com/problems/find-minimum-in-rotated-sorted-array/,Legitimate,LEETCODE.COM,Domains By Proxy LLC,DomainsByProxy.com14455 N. Hayden Road,Scottsdale,Arizona,85260,US,abuse@godaddy.comLEETCODE.COM@domainsbyproxy.com,LEETCODE.COM,2149,GoDaddy.com LLC
https://leetcode.com/problems/find-minimum-in-rotated-sorted-array/submissions/,Legitimate,LEETCODE.COM,Domains By Proxy LLC,DomainsByProxy.com14455 N. Hayden Road,Scottsdale,Arizona,85260,US,abuse@godaddy.comLEETCODE.COM@domainsbyproxy.com,LEETCODE.COM,2149,GoDaddy.com LLC
https://leetcode.com/problems/find-minimum-in-rotated-sorted-array-ii/,Legitimate,LEETCODE.COM,Domains By Proxy LLC,DomainsByProxy.com14455 N. Hayden Road,Scottsdale,Arizona,85260,US,abuse@godaddy.comLEETCODE.COM@domainsbyproxy.com,LEETCODE.COM,2149,GoDaddy.com LLC
https://leetcode.com/problems/find-minimum-in-rotated-sorted-array-ii/,Legitimate,LEETCODE.COM,Domains By Proxy LLC,DomainsByProxy.com14455 N. Hayden Road,Scottsdale,Arizona,85260,US,abuse@godaddy.comLEETCODE.COM@domainsbyproxy.com,LEETCODE.COM,2149,GoDaddy.com LLC
https://leetcode.com/problems/find-minimum-in-rotated-sorted-array-ii/submissions/,Legitimate,LEETCODE.COM,Domains By Proxy LLC,DomainsByProxy.com14455 N. Hayden Road,Scottsdale,Arizona,85260,US,abuse@godaddy.comLEETCODE.COM@domainsbyproxy.com,LEETCODE.COM,2149,GoDaddy.com LLC
https://leetcode.com/problems/find-minimum-in-rotated-sorted-array-ii/submissions/,Legitimate,LEETCODE.COM,Domains By Proxy LLC,DomainsByProxy.com14455 N. Hayden Road,Scottsdale,Arizona,85260,US,abuse@godaddy.comLEETCODE.COM@domainsbyproxy.com,LEETCODE.COM,2149,GoDaddy.com LLC
https://leetcode.com/problems/closest-binary-search-tree-value/,Legitimate,LEETCODE.COM,Domains By Proxy LLC,DomainsByProxy.com14455 N. Hayden Road,Scottsdale,Arizona,85260,US,abuse@godaddy.comLEETCODE.COM@domainsbyproxy.com,LEETCODE.COM,2149,GoDaddy.com LLC
https://leetcode.com/problems/closest-binary-search-tree-value/,Legitimate,LEETCODE.COM,Domains By Proxy LLC,DomainsByProxy.com14455 N. Hayden Road,Scottsdale,Arizona,85260,US,abuse@godaddy.comLEETCODE.COM@domainsbyproxy.com,LEETCODE.COM,2149,GoDaddy.com LLC
https://leetcode.com/problems/closest-binary-search-tree-value/,Legitimate,LEETCODE.COM,Domains By Proxy LLC,DomainsByProxy.com14455 N. Hayden Road,Scottsdale,Arizona,85260,US,abuse@godaddy.comLEETCODE.COM@domainsbyproxy.com,LEETCODE.COM,2149,GoDaddy.com LLC
https://leetcode.com/problems/search-in-rotated-sorted-array/discuss/494999/Python-log(-n-)-sol.-derived-from-binary-search.-w-Visualization,Legitimate,LEETCODE.COM,Domains By Proxy LLC,DomainsByProxy.com14455 N. Hayden Road,Scottsdale,Arizona,85260,US,abuse@godaddy.comLEETCODE.COM@domainsbyproxy.com,LEETCODE.COM,2149,GoDaddy.com LLC
https://leetcode.com/problems/search-in-rotated-sorted-array/discuss/494999/Python-log(-n-)-sol.-derived-from-binary-search.-w-Visualization,Legitimate,LEETCODE.COM,Domains By Proxy LLC,DomainsByProxy.com14455 N. Hayden Road,Scottsdale,Arizona,85260,US,abuse@godaddy.comLEETCODE.COM@domainsbyproxy.com,LEETCODE.COM,2149,GoDaddy.com LLC
https://leetcode.com/problems/search-in-rotated-sorted-array/discuss/494999/Python-log(-n-)-sol.-derived-from-binary-search.-w-Visualization,Legitimate,LEETCODE.COM,Domains By Proxy LLC,DomainsByProxy.com14455 N. Hayden Road,Scottsdale,Arizona,85260,US,abuse@godaddy.comLEETCODE.COM@domainsbyproxy.com,LEETCODE.COM,2149,GoDaddy.com LLC
https://leetcode.com/problems/search-in-rotated-sorted-array/submissions/,Legitimate,LEETCODE.COM,Domains By Proxy LLC,DomainsByProxy.com14455 N. Hayden Road,Scottsdale,Arizona,85260,US,abuse@godaddy.comLEETCODE.COM@domainsbyproxy.com,LEETCODE.COM,2149,GoDaddy.com LLC
https://leetcode.com/problems/search-in-rotated-sorted-array/submissions/,Legitimate,LEETCODE.COM,Domains By Proxy LLC,DomainsByProxy.com14455 N. Hayden Road,Scottsdale,Arizona,85260,US,abuse@godaddy.comLEETCODE.COM@domainsbyproxy.com,LEETCODE.COM,2149,GoDaddy.com LLC
https://leetcode.com/problems/search-in-rotated-sorted-array/submissions/,Legitimate,LEETCODE.COM,Domains By Proxy LLC,DomainsByProxy.com14455 N. Hayden Road,Scottsdale,Arizona,85260,US,abuse@godaddy.comLEETCODE.COM@domainsbyproxy.com,LEETCODE.COM,2149,GoDaddy.com LLC
https://leetcode.com/problems/search-in-rotated-sorted-array/submissions/,Legitimate,LEETCODE.COM,Domains By Proxy LLC,DomainsByProxy.com14455 N. Hayden Road,Scottsdale,Arizona,85260,US,abuse@godaddy.comLEETCODE.COM@domainsbyproxy.com,LEETCODE.COM,2149,GoDaddy.com LLC
https://leetcode.com/problems/search-in-rotated-sorted-array/submissions/,Legitimate,LEETCODE.COM,Domains By Proxy LLC,DomainsByProxy.com14455 N. Hayden Road,Scottsdale,Arizona,85260,US,abuse@godaddy.comLEETCODE.COM@domainsbyproxy.com,LEETCODE.COM,2149,GoDaddy.com LLC
https://docs.python.org/3/library/collections.html,Legitimate,PYTHON.ORGpython.org,Python Software Foundation,REDACTED FOR PRIVACY,REDACTED FOR PRIVACY,['OR', 'Oregon'],REDACTED FOR PRIVACY,US,abuse@support.gandi.nete89d6901ba3e470e8cedc3eaa32a0074-1697561@contact.gandi.net7fd79ebe18980da9baceef0fa1b27680-1705778@contact.gandi.net,PYTHON.ORGpython.org,988,GANDI SAS
https://leetcode.com/problems/maximum-swap/,Legitimate,LEETCODE.COM,Domains By Proxy LLC,DomainsByProxy.com14455 N. Hayden Road,Scottsdale,Arizona,85260,US,abuse@godaddy.comLEETCODE.COM@domainsbyproxy.com,LEETCODE.COM,2149,GoDaddy.com LLC
https://leetcode.com/problems/maximum-swap/,Legitimate,LEETCODE.COM,Domains By Proxy LLC,DomainsByProxy.com14455 N. Hayden Road,Scottsdale,Arizona,85260,US,abuse@godaddy.comLEETCODE.COM@domainsbyproxy.com,LEETCODE.COM,2149,GoDaddy.com LLC
https://leetcode.com/problems/maximum-swap/,Legitimate,LEETCODE.COM,Domains By Proxy LLC,DomainsByProxy.com14455 N. Hayden Road,Scottsdale,Arizona,85260,US,abuse@godaddy.comLEETCODE.COM@domainsbyproxy.com,LEETCODE.COM,2149,GoDaddy.com LLC
https://leetcode.com/problems/maximum-swap/,Legitimate,LEETCODE.COM,Domains By Proxy LLC,DomainsByProxy.com14455 N. Hayden Road,Scottsdale,Arizona,85260,US,abuse@godaddy.comLEETCODE.COM@domainsbyproxy.com,LEETCODE.COM,2149,GoDaddy.com LLC
https://leetcode.com/problems/maximum-swap/submissions/,Legitimate,LEETCODE.COM,Domains By Proxy LLC,DomainsByProxy.com14455 N. Hayden Road,Scottsdale,Arizona,85260,US,abuse@godaddy.comLEETCODE.COM@domainsbyproxy.com,LEETCODE.COM,2149,GoDaddy.com LLC
https://leetcode.com/problems/maximum-swap/submissions/,Legitimate,LEETCODE.COM,Domains By Proxy LLC,DomainsByProxy.com14455 N. Hayden Road,Scottsdale,Arizona,85260,US,abuse@godaddy.comLEETCODE.COM@domainsbyproxy.com,LEETCODE.COM,2149,GoDaddy.com LLC
https://leetcode.com/submissions/detail/336252618/,Legitimate,LEETCODE.COM,Domains By Proxy LLC,DomainsByProxy.com14455 N. Hayden Road,Scottsdale,Arizona,85260,US,abuse@godaddy.comLEETCODE.COM@domainsbyproxy.com,LEETCODE.COM,2149,GoDaddy.com LLC
https://leetcode.com/submissions/detail/336252618/,Legitimate,LEETCODE.COM,Domains By Proxy LLC,DomainsByProxy.com14455 N. Hayden Road,Scottsdale,Arizona,85260,US,abuse@godaddy.comLEETCODE.COM@domainsbyproxy.com,LEETCODE.COM,2149,GoDaddy.com LLC
https://github.com/,Legitimate,GITHUB.COMgithub.com,GitHub Inc.,None,None,CA,None,US,abusecomplaints@markmonitor.comwhoisrequest@markmonitor.com,GITHUB.COMgithub.com,62,MarkMonitor Inc.
https://github.com/,Legitimate,GITHUB.COM,None,None,None,None,None,None,abusecomplaints@markmonitor.com,GITHUB.COM,62,MarkMonitor Inc.
https://github.com/,Legitimate,GITHUB.COMgithub.com,GitHub Inc.,None,None,CA,None,US,abusecomplaints@markmonitor.comwhoisrequest@markmonitor.com,GITHUB.COMgithub.com,62,MarkMonitor Inc.
https://github.com/,Legitimate,GITHUB.COMgithub.com,GitHub Inc.,None,None,CA,None,US,abusecomplaints@markmonitor.comwhoisrequest@markmonitor.com,GITHUB.COMgithub.com,62,MarkMonitor Inc.
https://github.com/ashutoshkr46,Legitimate,Not found in database,Not found in database,Not found in database,Not found in database,Not found in database,Not found in database,Not found in database,Not found in database,Not Found,62,Not Found
https://github.com/ashutoshkr46,Legitimate,GITHUB.COM,None,None,None,None,None,None,abusecomplaints@markmonitor.com,GITHUB.COM,62,MarkMonitor Inc.
https://github.com/ashutoshkr46?tab=following,Legitimate,GITHUB.COMgithub.com,GitHub Inc.,None,None,CA,None,US,abusecomplaints@markmonitor.comwhoisrequest@markmonitor.com,GITHUB.COMgithub.com,62,MarkMonitor Inc.
https://github.com/ashutoshkr46?tab=following,Legitimate,Not found in database,Not found in database,Not found in database,Not found in database,Not found in database,Not found in database,Not found in database,Not found in database,Not Found,62,Not Found
https://github.com/ashutoshkr46,Legitimate,GITHUB.COMgithub.com,GitHub Inc.,None,None,CA,None,US,abusecomplaints@markmonitor.comwhoisrequest@markmonitor.com,GITHUB.COMgithub.com,62,MarkMonitor Inc.
https://github.com/,Legitimate,GITHUB.COMgithub.com,GitHub Inc.,None,None,CA,None,US,abusecomplaints@markmonitor.comwhoisrequest@markmonitor.com,GITHUB.COMgithub.com,62,MarkMonitor Inc.
https://github.com/IBM/cloud-operators,Legitimate,GITHUB.COMgithub.com,GitHub Inc.,None,None,CA,None,US,abusecomplaints@markmonitor.comwhoisrequest@markmonitor.com,GITHUB.COMgithub.com,62,MarkMonitor Inc.
https://github.com/IBM/cloud-operators,Legitimate,Not found in database,Not found in database,Not found in database,Not found in database,Not found in database,Not found in database,Not found in database,Not found in database,Not Found,62,Not Found
https://github.com/IBM/cloud-operators,Legitimate,Not found in database,Not found in database,Not found in database,Not found in database,Not found in database,Not found in database,Not found in database,Not found in database,Not Found,62,Not Found
https://github.com/,Legitimate,GITHUB.COMgithub.com,GitHub Inc.,None,None,CA,None,US,abusecomplaints@markmonitor.comwhoisrequest@markmonitor.com,GITHUB.COMgithub.com,62,MarkMonitor Inc.
https://github.com/,Legitimate,GITHUB.COM,None,None,None,None,None,None,abusecomplaints@markmonitor.com,GITHUB.COM,62,MarkMonitor Inc.
https://github.com/abhisheksaxena1998,Legitimate,GITHUB.COMgithub.com,GitHub Inc.,None,None,CA,None,US,abusecomplaints@markmonitor.comwhoisrequest@markmonitor.com,GITHUB.COMgithub.com,62,MarkMonitor Inc.
https://github.com/abhisheksaxena1998,Legitimate,GITHUB.COM,None,None,None,None,None,None,abusecomplaints@markmonitor.com,GITHUB.COM,62,MarkMonitor Inc.
https://github.com/settings/profile,Legitimate,GITHUB.COMgithub.com,GitHub Inc.,None,None,CA,None,US,abusecomplaints@markmonitor.comwhoisrequest@markmonitor.com,GITHUB.COMgithub.com,62,MarkMonitor Inc.
https://github.com/settings/profile,Legitimate,GITHUB.COMgithub.com,GitHub Inc.,None,None,CA,None,US,abusecomplaints@markmonitor.comwhoisrequest@markmonitor.com,GITHUB.COMgithub.com,62,MarkMonitor Inc.
https://github.com/settings/profile,Legitimate,GITHUB.COM,None,None,None,None,None,None,abusecomplaints@markmonitor.com,GITHUB.COM,62,MarkMonitor Inc.
https://github.com/abhisheksaxena1998,Legitimate,Not found in database,Not found in database,Not found in database,Not found in database,Not found in database,Not found in database,Not found in database,Not found in database,Not Found,62,Not Found
https://github.com/abhisheksaxena1998,Legitimate,Not found in database,Not found in database,Not found in database,Not found in database,Not found in database,Not found in database,Not found in database,Not found in database,Not Found,62,Not Found
https://github.com/settings/profile,Legitimate,GITHUB.COMgithub.com,GitHub Inc.,None,None,CA,None,US,abusecomplaints@markmonitor.comwhoisrequest@markmonitor.com,GITHUB.COMgithub.com,62,MarkMonitor Inc.
https://github.com/settings/profile,Legitimate,GITHUB.COMgithub.com,GitHub Inc.,None,None,CA,None,US,abusecomplaints@markmonitor.comwhoisrequest@markmonitor.com,GITHUB.COMgithub.com,62,MarkMonitor Inc.
https://github.com/settings/profile,Legitimate,Not found in database,Not found in database,Not found in database,Not found in database,Not found in database,Not found in database,Not found in database,Not found in database,Not Found,62,Not Found
https://github.com/abhisheksaxena1998,Legitimate,GITHUB.COMgithub.com,GitHub Inc.,None,None,CA,None,US,abusecomplaints@markmonitor.comwhoisrequest@markmonitor.com,GITHUB.COMgithub.com,62,MarkMonitor Inc.
https://github.com/abhisheksaxena1998,Legitimate,GITHUB.COMgithub.com,GitHub Inc.,None,None,CA,None,US,abusecomplaints@markmonitor.comwhoisrequest@markmonitor.com,GITHUB.COMgithub.com,62,MarkMonitor Inc.
https://github.com/abhisheksaxena1998,Legitimate,Not found in database,Not found in database,Not found in database,Not found in database,Not found in database,Not found in database,Not found in database,Not found in database,Not Found,62,Not Found
https://github.com/,Legitimate,GITHUB.COMgithub.com,GitHub Inc.,None,None,CA,None,US,abusecomplaints@markmonitor.comwhoisrequest@markmonitor.com,GITHUB.COMgithub.com,62,MarkMonitor Inc.
https://github.com/abhisheksaxena1998,Legitimate,GITHUB.COM,None,None,None,None,None,None,abusecomplaints@markmonitor.com,GITHUB.COM,62,MarkMonitor Inc.
https://github.com/abhisheksaxena1998,Legitimate,Not found in database,Not found in database,Not found in database,Not found in database,Not found in database,Not found in database,Not found in database,Not found in database,Not Found,62,Not Found
https://github.com/abhisheksaxena1998,Legitimate,GITHUB.COM,None,None,None,None,None,None,abusecomplaints@markmonitor.com,GITHUB.COM,62,MarkMonitor Inc.
https://github.com/abhisheksaxena1998?tab=followers,Legitimate,GITHUB.COMgithub.com,GitHub Inc.,None,None,CA,None,US,abusecomplaints@markmonitor.comwhoisrequest@markmonitor.com,GITHUB.COMgithub.com,62,MarkMonitor Inc.
https://github.com/abhisheksaxena1998?tab=followers,Legitimate,GITHUB.COM,None,None,None,None,None,None,abusecomplaints@markmonitor.com,GITHUB.COM,62,MarkMonitor Inc.
https://github.com/deepika567,Legitimate,GITHUB.COM,None,None,None,None,None,None,abusecomplaints@markmonitor.com,GITHUB.COM,62,MarkMonitor Inc.
https://github.com/deepika567,Legitimate,GITHUB.COM,None,None,None,None,None,None,abusecomplaints@markmonitor.com,GITHUB.COM,62,MarkMonitor Inc.
https://github.com/abhisheksaxena1998?tab=followers,Legitimate,GITHUB.COMgithub.com,GitHub Inc.,None,None,CA,None,US,abusecomplaints@markmonitor.comwhoisrequest@markmonitor.com,GITHUB.COMgithub.com,62,MarkMonitor Inc.
https://github.com/abhisheksaxena1998?tab=followers,Legitimate,GITHUB.COMgithub.com,GitHub Inc.,None,None,CA,None,US,abusecomplaints@markmonitor.comwhoisrequest@markmonitor.com,GITHUB.COMgithub.com,62,MarkMonitor Inc.
https://github.com/abhisheksaxena1998,Legitimate,GITHUB.COMgithub.com,GitHub Inc.,None,None,CA,None,US,abusecomplaints@markmonitor.comwhoisrequest@markmonitor.com,GITHUB.COMgithub.com,62,MarkMonitor Inc.
https://github.com/abhisheksaxena1998,Legitimate,GITHUB.COMgithub.com,GitHub Inc.,None,None,CA,None,US,abusecomplaints@markmonitor.comwhoisrequest@markmonitor.com,GITHUB.COMgithub.com,62,MarkMonitor Inc.
https://leetcode.com/problems/maximum-swap/,Legitimate,LEETCODE.COM,Domains By Proxy LLC,DomainsByProxy.com14455 N. Hayden Road,Scottsdale,Arizona,85260,US,abuse@godaddy.comLEETCODE.COM@domainsbyproxy.com,LEETCODE.COM,2149,GoDaddy.com LLC
https://leetcode.com/problems/maximum-swap/submissions/,Legitimate,LEETCODE.COM,Domains By Proxy LLC,DomainsByProxy.com14455 N. Hayden Road,Scottsdale,Arizona,85260,US,abuse@godaddy.comLEETCODE.COM@domainsbyproxy.com,LEETCODE.COM,2149,GoDaddy.com LLC
https://leetcode.com/problems/maximum-swap/discuss/?currentPage=1,Legitimate,LEETCODE.COM,Domains By Proxy LLC,DomainsByProxy.com14455 N. Hayden Road,Scottsdale,Arizona,85260,US,abuse@godaddy.comLEETCODE.COM@domainsbyproxy.com,LEETCODE.COM,2149,GoDaddy.com LLC
https://leetcode.com/problems/maximum-swap/discuss/?currentPage=1,Legitimate,LEETCODE.COM,Domains By Proxy LLC,DomainsByProxy.com14455 N. Hayden Road,Scottsdale,Arizona,85260,US,abuse@godaddy.comLEETCODE.COM@domainsbyproxy.com,LEETCODE.COM,2149,GoDaddy.com LLC
https://leetcode.com/problems/maximum-swap/discuss/616058/python3-simple-logic-(with-explanation),Legitimate,LEETCODE.COM,Domains By Proxy LLC,DomainsByProxy.com14455 N. Hayden Road,Scottsdale,Arizona,85260,US,abuse@godaddy.comLEETCODE.COM@domainsbyproxy.com,LEETCODE.COM,2149,GoDaddy.com LLC
https://leetcode.com/problems/maximum-swap/discuss/616058/python3-simple-logic-(with-explanation),Legitimate,LEETCODE.COM,Domains By Proxy LLC,DomainsByProxy.com14455 N. Hayden Road,Scottsdale,Arizona,85260,US,abuse@godaddy.comLEETCODE.COM@domainsbyproxy.com,LEETCODE.COM,2149,GoDaddy.com LLC
https://leetcode.com/problems/maximum-swap/discuss/?currentPage=1,Legitimate,LEETCODE.COM,Domains By Proxy LLC,DomainsByProxy.com14455 N. Hayden Road,Scottsdale,Arizona,85260,US,abuse@godaddy.comLEETCODE.COM@domainsbyproxy.com,LEETCODE.COM,2149,GoDaddy.com LLC
https://leetcode.com/problems/maximum-swap/discuss/?currentPage=1,Legitimate,LEETCODE.COM,Domains By Proxy LLC,DomainsByProxy.com14455 N. Hayden Road,Scottsdale,Arizona,85260,US,abuse@godaddy.comLEETCODE.COM@domainsbyproxy.com,LEETCODE.COM,2149,GoDaddy.com LLC
https://leetcode.com/problems/maximum-swap/discuss/?currentPage=1,Legitimate,LEETCODE.COM,Domains By Proxy LLC,DomainsByProxy.com14455 N. Hayden Road,Scottsdale,Arizona,85260,US,abuse@godaddy.comLEETCODE.COM@domainsbyproxy.com,LEETCODE.COM,2149,GoDaddy.com LLC
https://leetcode.com/problems/maximum-swap/,Legitimate,LEETCODE.COM,Domains By Proxy LLC,DomainsByProxy.com14455 N. Hayden Road,Scottsdale,Arizona,85260,US,abuse@godaddy.comLEETCODE.COM@domainsbyproxy.com,LEETCODE.COM,2149,GoDaddy.com LLC
https://leetcode.com/problems/maximum-swap/,Legitimate,LEETCODE.COM,Domains By Proxy LLC,DomainsByProxy.com14455 N. Hayden Road,Scottsdale,Arizona,85260,US,abuse@godaddy.comLEETCODE.COM@domainsbyproxy.com,LEETCODE.COM,2149,GoDaddy.com LLC
https://leetcode.com/problems/maximum-swap/submissions/,Legitimate,LEETCODE.COM,Domains By Proxy LLC,DomainsByProxy.com14455 N. Hayden Road,Scottsdale,Arizona,85260,US,abuse@godaddy.comLEETCODE.COM@domainsbyproxy.com,LEETCODE.COM,2149,GoDaddy.com LLC
https://leetcode.com/problems/maximum-swap/submissions/,Legitimate,LEETCODE.COM,Domains By Proxy LLC,DomainsByProxy.com14455 N. Hayden Road,Scottsdale,Arizona,85260,US,abuse@godaddy.comLEETCODE.COM@domainsbyproxy.com,LEETCODE.COM,2149,GoDaddy.com LLC
https://leetcode.com/problems/maximum-swap/submissions/,Legitimate,LEETCODE.COM,Domains By Proxy LLC,DomainsByProxy.com14455 N. Hayden Road,Scottsdale,Arizona,85260,US,abuse@godaddy.comLEETCODE.COM@domainsbyproxy.com,LEETCODE.COM,2149,GoDaddy.com LLC
https://leetcode.com/problems/maximum-swap/submissions/,Legitimate,LEETCODE.COM,Domains By Proxy LLC,DomainsByProxy.com14455 N. Hayden Road,Scottsdale,Arizona,85260,US,abuse@godaddy.comLEETCODE.COM@domainsbyproxy.com,LEETCODE.COM,2149,GoDaddy.com LLC
https://leetcode.com/problems/maximum-swap/,Legitimate,LEETCODE.COM,Domains By Proxy LLC,DomainsByProxy.com14455 N. Hayden Road,Scottsdale,Arizona,85260,US,abuse@godaddy.comLEETCODE.COM@domainsbyproxy.com,LEETCODE.COM,2149,GoDaddy.com LLC
https://leetcode.com/problems/maximum-swap/submissions/,Legitimate,LEETCODE.COM,Domains By Proxy LLC,DomainsByProxy.com14455 N. Hayden Road,Scottsdale,Arizona,85260,US,abuse@godaddy.comLEETCODE.COM@domainsbyproxy.com,LEETCODE.COM,2149,GoDaddy.com LLC
https://leetcode.com/problems/maximum-swap/submissions/,Legitimate,LEETCODE.COM,Domains By Proxy LLC,DomainsByProxy.com14455 N. Hayden Road,Scottsdale,Arizona,85260,US,abuse@godaddy.comLEETCODE.COM@domainsbyproxy.com,LEETCODE.COM,2149,GoDaddy.com LLC
https://leetcode.com/problems/maximum-swap/submissions/,Legitimate,LEETCODE.COM,Domains By Proxy LLC,DomainsByProxy.com14455 N. Hayden Road,Scottsdale,Arizona,85260,US,abuse@godaddy.comLEETCODE.COM@domainsbyproxy.com,LEETCODE.COM,2149,GoDaddy.com LLC
https://leetcode.com/submissions/detail/336278597/,Legitimate,LEETCODE.COM,Domains By Proxy LLC,DomainsByProxy.com14455 N. Hayden Road,Scottsdale,Arizona,85260,US,abuse@godaddy.comLEETCODE.COM@domainsbyproxy.com,LEETCODE.COM,2149,GoDaddy.com LLC
https://leetcode.com/problems/maximum-swap/,Legitimate,LEETCODE.COM,Domains By Proxy LLC,DomainsByProxy.com14455 N. Hayden Road,Scottsdale,Arizona,85260,US,abuse@godaddy.comLEETCODE.COM@domainsbyproxy.com,LEETCODE.COM,2149,GoDaddy.com LLC
https://leetcode.com/problems/maximum-swap/submissions/,Legitimate,LEETCODE.COM,Domains By Proxy LLC,DomainsByProxy.com14455 N. Hayden Road,Scottsdale,Arizona,85260,US,abuse@godaddy.comLEETCODE.COM@domainsbyproxy.com,LEETCODE.COM,2149,GoDaddy.com LLC
https://leetcode.com/submissions/detail/336252618/,Legitimate,LEETCODE.COM,Domains By Proxy LLC,DomainsByProxy.com14455 N. Hayden Road,Scottsdale,Arizona,85260,US,abuse@godaddy.comLEETCODE.COM@domainsbyproxy.com,LEETCODE.COM,2149,GoDaddy.com LLC
https://leetcode.com/submissions/detail/336252618/,Legitimate,LEETCODE.COM,Domains By Proxy LLC,DomainsByProxy.com14455 N. Hayden Road,Scottsdale,Arizona,85260,US,abuse@godaddy.comLEETCODE.COM@domainsbyproxy.com,LEETCODE.COM,2149,GoDaddy.com LLC
https://leetcode.com/submissions/detail/336252618/,Legitimate,LEETCODE.COM,Domains By Proxy LLC,DomainsByProxy.com14455 N. Hayden Road,Scottsdale,Arizona,85260,US,abuse@godaddy.comLEETCODE.COM@domainsbyproxy.com,LEETCODE.COM,2149,GoDaddy.com LLC
https://leetcode.com/problems/maximum-swap/discuss/?currentPage=1,Legitimate,LEETCODE.COM,Domains By Proxy LLC,DomainsByProxy.com14455 N. Hayden Road,Scottsdale,Arizona,85260,US,abuse@godaddy.comLEETCODE.COM@domainsbyproxy.com,LEETCODE.COM,2149,GoDaddy.com LLC
https://leetcode.com/problems/maximum-swap/discuss/617706/Java-O(N)-Solution-with-explanation-faster-than-100,Legitimate,LEETCODE.COM,Domains By Proxy LLC,DomainsByProxy.com14455 N. Hayden Road,Scottsdale,Arizona,85260,US,abuse@godaddy.comLEETCODE.COM@domainsbyproxy.com,LEETCODE.COM,2149,GoDaddy.com LLC
https://leetcode.com/problems/maximum-swap/discuss/617706/Java-O(N)-Solution-with-explanation-faster-than-100,Legitimate,LEETCODE.COM,Domains By Proxy LLC,DomainsByProxy.com14455 N. Hayden Road,Scottsdale,Arizona,85260,US,abuse@godaddy.comLEETCODE.COM@domainsbyproxy.com,LEETCODE.COM,2149,GoDaddy.com LLC
https://leetcode.com/problems/maximum-swap/discuss/?currentPage=1,Legitimate,LEETCODE.COM,Domains By Proxy LLC,DomainsByProxy.com14455 N. Hayden Road,Scottsdale,Arizona,85260,US,abuse@godaddy.comLEETCODE.COM@domainsbyproxy.com,LEETCODE.COM,2149,GoDaddy.com LLC
https://leetcode.com/problems/maximum-swap/discuss/?currentPage=1,Legitimate,LEETCODE.COM,Domains By Proxy LLC,DomainsByProxy.com14455 N. Hayden Road,Scottsdale,Arizona,85260,US,abuse@godaddy.comLEETCODE.COM@domainsbyproxy.com,LEETCODE.COM,2149,GoDaddy.com LLC
https://leetcode.com/problems/maximum-swap/discuss/616058/python3-simple-logic-(with-explanation),Legitimate,LEETCODE.COM,Domains By Proxy LLC,DomainsByProxy.com14455 N. Hayden Road,Scottsdale,Arizona,85260,US,abuse@godaddy.comLEETCODE.COM@domainsbyproxy.com,LEETCODE.COM,2149,GoDaddy.com LLC
https://leetcode.com/problems/maximum-swap/,Legitimate,LEETCODE.COM,Domains By Proxy LLC,DomainsByProxy.com14455 N. Hayden Road,Scottsdale,Arizona,85260,US,abuse@godaddy.comLEETCODE.COM@domainsbyproxy.com,LEETCODE.COM,2149,GoDaddy.com LLC
https://leetcode.com/problems/maximum-swap/,Legitimate,LEETCODE.COM,Domains By Proxy LLC,DomainsByProxy.com14455 N. Hayden Road,Scottsdale,Arizona,85260,US,abuse@godaddy.comLEETCODE.COM@domainsbyproxy.com,LEETCODE.COM,2149,GoDaddy.com LLC
https://leetcode.com/problems/maximum-swap/submissions/,Legitimate,LEETCODE.COM,Domains By Proxy LLC,DomainsByProxy.com14455 N. Hayden Road,Scottsdale,Arizona,85260,US,abuse@godaddy.comLEETCODE.COM@domainsbyproxy.com,LEETCODE.COM,2149,GoDaddy.com LLC
https://leetcode.com/submissions/detail/336252618/,Legitimate,LEETCODE.COM,Domains By Proxy LLC,DomainsByProxy.com14455 N. Hayden Road,Scottsdale,Arizona,85260,US,abuse@godaddy.comLEETCODE.COM@domainsbyproxy.com,LEETCODE.COM,2149,GoDaddy.com LLC
https://leetcode.com/submissions/detail/336252618/,Legitimate,LEETCODE.COM,Domains By Proxy LLC,DomainsByProxy.com14455 N. Hayden Road,Scottsdale,Arizona,85260,US,abuse@godaddy.comLEETCODE.COM@domainsbyproxy.com,LEETCODE.COM,2149,GoDaddy.com LLC
https://leetcode.com/problems/maximum-swap/submissions/,Legitimate,LEETCODE.COM,Domains By Proxy LLC,DomainsByProxy.com14455 N. Hayden Road,Scottsdale,Arizona,85260,US,abuse@godaddy.comLEETCODE.COM@domainsbyproxy.com,LEETCODE.COM,2149,GoDaddy.com LLC
https://leetcode.com/problems/create-maximum-number/,Legitimate,LEETCODE.COM,Domains By Proxy LLC,DomainsByProxy.com14455 N. Hayden Road,Scottsdale,Arizona,85260,US,abuse@godaddy.comLEETCODE.COM@domainsbyproxy.com,LEETCODE.COM,2149,GoDaddy.com LLC
https://leetcode.com/problems/create-maximum-number/,Legitimate,LEETCODE.COM,Domains By Proxy LLC,DomainsByProxy.com14455 N. Hayden Road,Scottsdale,Arizona,85260,US,abuse@godaddy.comLEETCODE.COM@domainsbyproxy.com,LEETCODE.COM,2149,GoDaddy.com LLC
https://leetcode.com/problems/create-maximum-number/,Legitimate,LEETCODE.COM,Domains By Proxy LLC,DomainsByProxy.com14455 N. Hayden Road,Scottsdale,Arizona,85260,US,abuse@godaddy.comLEETCODE.COM@domainsbyproxy.com,LEETCODE.COM,2149,GoDaddy.com LLC
https://leetcode.com/legion_abhe/,Legitimate,LEETCODE.COM,Domains By Proxy LLC,DomainsByProxy.com14455 N. Hayden Road,Scottsdale,Arizona,85260,US,abuse@godaddy.comLEETCODE.COM@domainsbyproxy.com,LEETCODE.COM,2149,GoDaddy.com LLC
https://leetcode.com/princegaur1998/,Legitimate,LEETCODE.COM,Domains By Proxy LLC,DomainsByProxy.com14455 N. Hayden Road,Scottsdale,Arizona,85260,US,abuse@godaddy.comLEETCODE.COM@domainsbyproxy.com,LEETCODE.COM,2149,GoDaddy.com LLC
https://leetcode.com/princegaur1998/,Legitimate,LEETCODE.COM,Domains By Proxy LLC,DomainsByProxy.com14455 N. Hayden Road,Scottsdale,Arizona,85260,US,abuse@godaddy.comLEETCODE.COM@domainsbyproxy.com,LEETCODE.COM,2149,GoDaddy.com LLC
https://leetcode.com/princegaur1998/,Legitimate,LEETCODE.COM,Domains By Proxy LLC,DomainsByProxy.com14455 N. Hayden Road,Scottsdale,Arizona,85260,US,abuse@godaddy.comLEETCODE.COM@domainsbyproxy.com,LEETCODE.COM,2149,GoDaddy.com LLC
https://leetcode.com/isa_97/,Legitimate,LEETCODE.COM,Domains By Proxy LLC,DomainsByProxy.com14455 N. Hayden Road,Scottsdale,Arizona,85260,US,abuse@godaddy.comLEETCODE.COM@domainsbyproxy.com,LEETCODE.COM,2149,GoDaddy.com LLC
https://leetcode.com/isa_97/,Legitimate,LEETCODE.COM,Domains By Proxy LLC,DomainsByProxy.com14455 N. Hayden Road,Scottsdale,Arizona,85260,US,abuse@godaddy.comLEETCODE.COM@domainsbyproxy.com,LEETCODE.COM,2149,GoDaddy.com LLC
https://leetcode.com/isa_97/,Legitimate,LEETCODE.COM,Domains By Proxy LLC,DomainsByProxy.com14455 N. Hayden Road,Scottsdale,Arizona,85260,US,abuse@godaddy.comLEETCODE.COM@domainsbyproxy.com,LEETCODE.COM,2149,GoDaddy.com LLC
https://leetcode.com/problems/create-maximum-number/,Legitimate,LEETCODE.COM,Domains By Proxy LLC,DomainsByProxy.com14455 N. Hayden Road,Scottsdale,Arizona,85260,US,abuse@godaddy.comLEETCODE.COM@domainsbyproxy.com,LEETCODE.COM,2149,GoDaddy.com LLC
https://leetcode.com/problems/create-maximum-number/,Legitimate,LEETCODE.COM,Domains By Proxy LLC,DomainsByProxy.com14455 N. Hayden Road,Scottsdale,Arizona,85260,US,abuse@godaddy.comLEETCODE.COM@domainsbyproxy.com,LEETCODE.COM,2149,GoDaddy.com LLC
https://leetcode.com/problems/create-maximum-number/,Legitimate,LEETCODE.COM,Domains By Proxy LLC,DomainsByProxy.com14455 N. Hayden Road,Scottsdale,Arizona,85260,US,abuse@godaddy.comLEETCODE.COM@domainsbyproxy.com,LEETCODE.COM,2149,GoDaddy.com LLC
https://leetcode.com/problems/create-maximum-number/,Legitimate,LEETCODE.COM,Domains By Proxy LLC,DomainsByProxy.com14455 N. Hayden Road,Scottsdale,Arizona,85260,US,abuse@godaddy.comLEETCODE.COM@domainsbyproxy.com,LEETCODE.COM,2149,GoDaddy.com LLC
https://leetcode.com/problems/create-maximum-number/,Legitimate,LEETCODE.COM,Domains By Proxy LLC,DomainsByProxy.com14455 N. Hayden Road,Scottsdale,Arizona,85260,US,abuse@godaddy.comLEETCODE.COM@domainsbyproxy.com,LEETCODE.COM,2149,GoDaddy.com LLC
https://babytorrent.se/,Legitimate,babytorrent.se,None,None,None,None,None,None,None,babytorrent.se,18281,Sarek
https://babytorrent.se/,Legitimate,babytorrent.se,None,None,None,None,None,None,None,babytorrent.se,18281,Sarek
https://babytorrent.se/,Legitimate,babytorrent.se,None,None,None,None,None,None,None,babytorrent.se,18281,Sarek
https://babytorrent.se/?__cf_chl_jschl_tk__=8594a2ad10c71c78002330ecb67dbecd5157fc24-1588955862-0-AW2zarrc2-NqGKY5E1Hnv1MKDwyp-slk8NcmX4Z6EzMLtyGxlUIGOtMni7xJMNStvX1XMTHgwaMKUJHVWXBXXgezJ7kAqrmqo8tlsNK3ViTcX_qe6nA3H2Y3-oX9yTz8cJhX3tUZ2gKU4SuvZeGliH3Bbq58o9EGvNRjw3g9zB0qiWXgf_O5_wcTi4R8jlALn3V6RbRHUx3BEvWFt0IWZeZt68hcwcE6ReQLyX5TfhAGqxk-9EAQ6E0zDxkLN8IK5HOegRxFBRNXQL3A4bbz-X1wk5tgjBRx74yCtGBME-YqZMi-iyl0BMC99Lu3Z_7pcqBoa3OfmK0FsdTFqJpyr9A,Legitimate,babytorrent.se,None,None,None,None,None,None,None,babytorrent.se,18281,Sarek
https://babytorrent.se/?__cf_chl_jschl_tk__=8594a2ad10c71c78002330ecb67dbecd5157fc24-1588955862-0-AW2zarrc2-NqGKY5E1Hnv1MKDwyp-slk8NcmX4Z6EzMLtyGxlUIGOtMni7xJMNStvX1XMTHgwaMKUJHVWXBXXgezJ7kAqrmqo8tlsNK3ViTcX_qe6nA3H2Y3-oX9yTz8cJhX3tUZ2gKU4SuvZeGliH3Bbq58o9EGvNRjw3g9zB0qiWXgf_O5_wcTi4R8jlALn3V6RbRHUx3BEvWFt0IWZeZt68hcwcE6ReQLyX5TfhAGqxk-9EAQ6E0zDxkLN8IK5HOegRxFBRNXQL3A4bbz-X1wk5tgjBRx74yCtGBME-YqZMi-iyl0BMC99Lu3Z_7pcqBoa3OfmK0FsdTFqJpyr9A,Legitimate,babytorrent.se,None,None,None,None,None,None,None,babytorrent.se,18281,Sarek
https://babytorrent.se/?__cf_chl_jschl_tk__=8594a2ad10c71c78002330ecb67dbecd5157fc24-1588955862-0-AW2zarrc2-NqGKY5E1Hnv1MKDwyp-slk8NcmX4Z6EzMLtyGxlUIGOtMni7xJMNStvX1XMTHgwaMKUJHVWXBXXgezJ7kAqrmqo8tlsNK3ViTcX_qe6nA3H2Y3-oX9yTz8cJhX3tUZ2gKU4SuvZeGliH3Bbq58o9EGvNRjw3g9zB0qiWXgf_O5_wcTi4R8jlALn3V6RbRHUx3BEvWFt0IWZeZt68hcwcE6ReQLyX5TfhAGqxk-9EAQ6E0zDxkLN8IK5HOegRxFBRNXQL3A4bbz-X1wk5tgjBRx74yCtGBME-YqZMi-iyl0BMC99Lu3Z_7pcqBoa3OfmK0FsdTFqJpyr9A,Legitimate,babytorrent.se,None,None,None,None,None,None,None,babytorrent.se,18281,Sarek
https://babytorrent.se/?__cf_chl_jschl_tk__=8594a2ad10c71c78002330ecb67dbecd5157fc24-1588955862-0-AW2zarrc2-NqGKY5E1Hnv1MKDwyp-slk8NcmX4Z6EzMLtyGxlUIGOtMni7xJMNStvX1XMTHgwaMKUJHVWXBXXgezJ7kAqrmqo8tlsNK3ViTcX_qe6nA3H2Y3-oX9yTz8cJhX3tUZ2gKU4SuvZeGliH3Bbq58o9EGvNRjw3g9zB0qiWXgf_O5_wcTi4R8jlALn3V6RbRHUx3BEvWFt0IWZeZt68hcwcE6ReQLyX5TfhAGqxk-9EAQ6E0zDxkLN8IK5HOegRxFBRNXQL3A4bbz-X1wk5tgjBRx74yCtGBME-YqZMi-iyl0BMC99Lu3Z_7pcqBoa3OfmK0FsdTFqJpyr9A,Legitimate,babytorrent.se,None,None,None,None,None,None,None,babytorrent.se,18281,Sarek
https://babytorrent.se/genre/bollywood/,Legitimate,babytorrent.se,None,None,None,None,None,None,None,babytorrent.se,18281,Sarek
https://babytorrent.se/genre/bollywood/,Legitimate,babytorrent.se,None,None,None,None,None,None,None,babytorrent.se,18281,Sarek
https://yts.mx/movie/contagion-2011,Legitimate,yts.mx,None,None,None,None,None,None,None,yts.mx,253,Gandi SAS
https://yts.mx/,Legitimate,yts.mx,None,None,None,None,None,None,None,yts.mx,253,Gandi SAS
https://www.youtube.com/,Legitimate,YOUTUBE.COMyoutube.com,Google LLC,None,None,CA,None,US,abusecomplaints@markmonitor.comwhoisrequest@markmonitor.com,YOUTUBE.COMyoutube.com,2,MarkMonitor Inc.
https://www.youtube.com/,Legitimate,YOUTUBE.COMyoutube.com,Google LLC,None,None,CA,None,US,abusecomplaints@markmonitor.comwhoisrequest@markmonitor.com,YOUTUBE.COMyoutube.com,2,MarkMonitor Inc.
https://www.seedr.cc/,Legitimate,SEEDR.CCseedr.cc,REDACTED FOR PRIVACY,REDACTED FOR PRIVACY,REDACTED FOR PRIVACY,Panama,REDACTED FOR PRIVACY,PA,ABUSE@ENOM.COM,SEEDR.CCseedr.cc,5308,ENOM INC.
https://www.seedr.cc/files,Legitimate,SEEDR.CCseedr.cc,REDACTED FOR PRIVACY,REDACTED FOR PRIVACY,REDACTED FOR PRIVACY,Panama,REDACTED FOR PRIVACY,PA,ABUSE@ENOM.COM,SEEDR.CCseedr.cc,5308,ENOM INC.
https://www.seedr.cc/files,Legitimate,SEEDR.CCseedr.cc,REDACTED FOR PRIVACY,REDACTED FOR PRIVACY,REDACTED FOR PRIVACY,Panama,REDACTED FOR PRIVACY,PA,ABUSE@ENOM.COM,SEEDR.CCseedr.cc,5308,ENOM INC.
https://www.seedr.cc/files,Legitimate,SEEDR.CCseedr.cc,REDACTED FOR PRIVACY,REDACTED FOR PRIVACY,REDACTED FOR PRIVACY,Panama,REDACTED FOR PRIVACY,PA,ABUSE@ENOM.COM,SEEDR.CCseedr.cc,5308,ENOM INC.
https://www.seedr.cc/files/127324118,Legitimate,SEEDR.CCseedr.cc,REDACTED FOR PRIVACY,REDACTED FOR PRIVACY,REDACTED FOR PRIVACY,Panama,REDACTED FOR PRIVACY,PA,ABUSE@ENOM.COM,SEEDR.CCseedr.cc,5308,ENOM INC.
https://www.seedr.cc/files/127324118,Legitimate,SEEDR.CC,None,None,None,None,None,None,None,SEEDR.CC,5308,eNom LLC
https://8movierulz.com/,Legitimate,8MOVIERULZ.COM8movierulz.com,None,REDACTED FOR PRIVACY,REDACTED FOR PRIVACY,Georgia,REDACTED FOR PRIVACY,US,abuse@support.gandi.netd0f97ca7bdb9e5ecce8de7b3de084e6c-10462232@contact.gandi.net,8MOVIERULZ.COM8movierulz.com,-1,GANDI SAS
https://leetcode.com/problems/create-maximum-number/,Legitimate,LEETCODE.COM,Domains By Proxy LLC,DomainsByProxy.com14455 N. Hayden Road,Scottsdale,Arizona,85260,US,abuse@godaddy.comLEETCODE.COM@domainsbyproxy.com,LEETCODE.COM,2149,GoDaddy.com LLC
https://leetcode.com/problems/create-maximum-number/,Legitimate,LEETCODE.COM,Domains By Proxy LLC,DomainsByProxy.com14455 N. Hayden Road,Scottsdale,Arizona,85260,US,abuse@godaddy.comLEETCODE.COM@domainsbyproxy.com,LEETCODE.COM,2149,GoDaddy.com LLC
https://leetcode.com/problems/create-maximum-number/,Legitimate,LEETCODE.COM,Domains By Proxy LLC,DomainsByProxy.com14455 N. Hayden Road,Scottsdale,Arizona,85260,US,abuse@godaddy.comLEETCODE.COM@domainsbyproxy.com,LEETCODE.COM,2149,GoDaddy.com LLC
https://leetcode.com/legion_abhe/,Legitimate,LEETCODE.COM,Domains By Proxy LLC,DomainsByProxy.com14455 N. Hayden Road,Scottsdale,Arizona,85260,US,abuse@godaddy.comLEETCODE.COM@domainsbyproxy.com,LEETCODE.COM,2149,GoDaddy.com LLC
https://leetcode.com/legion_abhe/,Legitimate,Not found in database,Not found in database,Not found in database,Not found in database,Not found in database,Not found in database,Not found in database,Not found in database,Not Found,2149,Not Found
https://leetcode.com/isa_97/,Legitimate,LEETCODE.COM,Domains By Proxy LLC,DomainsByProxy.com14455 N. Hayden Road,Scottsdale,Arizona,85260,US,abuse@godaddy.comLEETCODE.COM@domainsbyproxy.com,LEETCODE.COM,2149,GoDaddy.com LLC
https://leetcode.com/isa_97/,Legitimate,LEETCODE.COM,Domains By Proxy LLC,DomainsByProxy.com14455 N. Hayden Road,Scottsdale,Arizona,85260,US,abuse@godaddy.comLEETCODE.COM@domainsbyproxy.com,LEETCODE.COM,2149,GoDaddy.com LLC
https://leetcode.com/isa_97/,Legitimate,LEETCODE.COM,Domains By Proxy LLC,DomainsByProxy.com14455 N. Hayden Road,Scottsdale,Arizona,85260,US,abuse@godaddy.comLEETCODE.COM@domainsbyproxy.com,LEETCODE.COM,2149,GoDaddy.com LLC
https://leetcode.com/isa_97/,Legitimate,LEETCODE.COM,Domains By Proxy LLC,DomainsByProxy.com14455 N. Hayden Road,Scottsdale,Arizona,85260,US,abuse@godaddy.comLEETCODE.COM@domainsbyproxy.com,LEETCODE.COM,2149,GoDaddy.com LLC
https://leetcode.com/isa_97/,Legitimate,LEETCODE.COM,Domains By Proxy LLC,DomainsByProxy.com14455 N. Hayden Road,Scottsdale,Arizona,85260,US,abuse@godaddy.comLEETCODE.COM@domainsbyproxy.com,LEETCODE.COM,2149,GoDaddy.com LLC
https://leetcode.com/isa_97/,Legitimate,LEETCODE.COM,Domains By Proxy LLC,DomainsByProxy.com14455 N. Hayden Road,Scottsdale,Arizona,85260,US,abuse@godaddy.comLEETCODE.COM@domainsbyproxy.com,LEETCODE.COM,2149,GoDaddy.com LLC
https://leetcode.com/isa_97/,Legitimate,LEETCODE.COM,Domains By Proxy LLC,DomainsByProxy.com14455 N. Hayden Road,Scottsdale,Arizona,85260,US,abuse@godaddy.comLEETCODE.COM@domainsbyproxy.com,LEETCODE.COM,2149,GoDaddy.com LLC
https://leetcode.com/isa_97/,Legitimate,LEETCODE.COM,Domains By Proxy LLC,DomainsByProxy.com14455 N. Hayden Road,Scottsdale,Arizona,85260,US,abuse@godaddy.comLEETCODE.COM@domainsbyproxy.com,LEETCODE.COM,2149,GoDaddy.com LLC
https://leetcode.com/problems/word-search/discuss/?currentPage=1,Legitimate,LEETCODE.COM,Domains By Proxy LLC,DomainsByProxy.com14455 N. Hayden Road,Scottsdale,Arizona,85260,US,abuse@godaddy.comLEETCODE.COM@domainsbyproxy.com,LEETCODE.COM,2149,GoDaddy.com LLC
https://leetcode.com/problems/word-search/discuss/?currentPage=1,Legitimate,LEETCODE.COM,Domains By Proxy LLC,DomainsByProxy.com14455 N. Hayden Road,Scottsdale,Arizona,85260,US,abuse@godaddy.comLEETCODE.COM@domainsbyproxy.com,LEETCODE.COM,2149,GoDaddy.com LLC
https://leetcode.com/problems/word-search/discuss/?currentPage=1,Legitimate,LEETCODE.COM,Domains By Proxy LLC,DomainsByProxy.com14455 N. Hayden Road,Scottsdale,Arizona,85260,US,abuse@godaddy.comLEETCODE.COM@domainsbyproxy.com,LEETCODE.COM,2149,GoDaddy.com LLC
https://leetcode.com/problems/word-search/discuss/429314/faster-(96)-low-memory(-100)-backtracking-python,Legitimate,LEETCODE.COM,Domains By Proxy LLC,DomainsByProxy.com14455 N. Hayden Road,Scottsdale,Arizona,85260,US,abuse@godaddy.comLEETCODE.COM@domainsbyproxy.com,LEETCODE.COM,2149,GoDaddy.com LLC
https://leetcode.com/problems/word-search/discuss/429314/faster-(96)-low-memory(-100)-backtracking-python,Legitimate,LEETCODE.COM,Domains By Proxy LLC,DomainsByProxy.com14455 N. Hayden Road,Scottsdale,Arizona,85260,US,abuse@godaddy.comLEETCODE.COM@domainsbyproxy.com,LEETCODE.COM,2149,GoDaddy.com LLC
https://leetcode.com/problems/word-search/discuss/?currentPage=1,Legitimate,LEETCODE.COM,Domains By Proxy LLC,DomainsByProxy.com14455 N. Hayden Road,Scottsdale,Arizona,85260,US,abuse@godaddy.comLEETCODE.COM@domainsbyproxy.com,LEETCODE.COM,2149,GoDaddy.com LLC
https://leetcode.com/problems/word-search/discuss/?currentPage=1,Legitimate,LEETCODE.COM,Domains By Proxy LLC,DomainsByProxy.com14455 N. Hayden Road,Scottsdale,Arizona,85260,US,abuse@godaddy.comLEETCODE.COM@domainsbyproxy.com,LEETCODE.COM,2149,GoDaddy.com LLC
https://leetcode.com/problems/word-search/discuss/?currentPage=1,Legitimate,LEETCODE.COM,Domains By Proxy LLC,DomainsByProxy.com14455 N. Hayden Road,Scottsdale,Arizona,85260,US,abuse@godaddy.comLEETCODE.COM@domainsbyproxy.com,LEETCODE.COM,2149,GoDaddy.com LLC
https://leetcode.com/problems/word-search/,Legitimate,LEETCODE.COM,Domains By Proxy LLC,DomainsByProxy.com14455 N. Hayden Road,Scottsdale,Arizona,85260,US,abuse@godaddy.comLEETCODE.COM@domainsbyproxy.com,LEETCODE.COM,2149,GoDaddy.com LLC
https://leetcode.com/problems/word-search/,Legitimate,LEETCODE.COM,Domains By Proxy LLC,DomainsByProxy.com14455 N. Hayden Road,Scottsdale,Arizona,85260,US,abuse@godaddy.comLEETCODE.COM@domainsbyproxy.com,LEETCODE.COM,2149,GoDaddy.com LLC
https://leetcode.com/problems/word-search/discuss/?currentPage=1,Legitimate,LEETCODE.COM,Domains By Proxy LLC,DomainsByProxy.com14455 N. Hayden Road,Scottsdale,Arizona,85260,US,abuse@godaddy.comLEETCODE.COM@domainsbyproxy.com,LEETCODE.COM,2149,GoDaddy.com LLC
https://leetcode.com/problems/first-missing-positive/submissions/,Legitimate,LEETCODE.COM,Domains By Proxy LLC,DomainsByProxy.com14455 N. Hayden Road,Scottsdale,Arizona,85260,US,abuse@godaddy.comLEETCODE.COM@domainsbyproxy.com,LEETCODE.COM,2149,GoDaddy.com LLC
https://leetcode.com/problems/first-missing-positive/,Legitimate,LEETCODE.COM,Domains By Proxy LLC,DomainsByProxy.com14455 N. Hayden Road,Scottsdale,Arizona,85260,US,abuse@godaddy.comLEETCODE.COM@domainsbyproxy.com,LEETCODE.COM,2149,GoDaddy.com LLC
https://leetcode.com/problemset/all/,Legitimate,LEETCODE.COM,Domains By Proxy LLC,DomainsByProxy.com14455 N. Hayden Road,Scottsdale,Arizona,85260,US,abuse@godaddy.comLEETCODE.COM@domainsbyproxy.com,LEETCODE.COM,2149,GoDaddy.com LLC
https://leetcode.com/problemset/all/,Legitimate,LEETCODE.COM,Domains By Proxy LLC,DomainsByProxy.com14455 N. Hayden Road,Scottsdale,Arizona,85260,US,abuse@godaddy.comLEETCODE.COM@domainsbyproxy.com,LEETCODE.COM,2149,GoDaddy.com LLC
https://leetcode.com/problems/divide-two-integers/,Legitimate,LEETCODE.COM,Domains By Proxy LLC,DomainsByProxy.com14455 N. Hayden Road,Scottsdale,Arizona,85260,US,abuse@godaddy.comLEETCODE.COM@domainsbyproxy.com,LEETCODE.COM,2149,GoDaddy.com LLC
https://leetcode.com/problems/divide-two-integers/,Legitimate,LEETCODE.COM,Domains By Proxy LLC,DomainsByProxy.com14455 N. Hayden Road,Scottsdale,Arizona,85260,US,abuse@godaddy.comLEETCODE.COM@domainsbyproxy.com,LEETCODE.COM,2149,GoDaddy.com LLC
https://leetcode.com/problems/divide-two-integers/,Legitimate,Not found in database,Not found in database,Not found in database,Not found in database,Not found in database,Not found in database,Not found in database,Not found in database,Not Found,2149,Not Found
https://leetcode.com/problems/divide-two-integers/submissions/,Legitimate,LEETCODE.COM,Domains By Proxy LLC,DomainsByProxy.com14455 N. Hayden Road,Scottsdale,Arizona,85260,US,abuse@godaddy.comLEETCODE.COM@domainsbyproxy.com,LEETCODE.COM,2149,GoDaddy.com LLC
https://leetcode.com/problems/divide-two-integers/submissions/,Legitimate,LEETCODE.COM,Domains By Proxy LLC,DomainsByProxy.com14455 N. Hayden Road,Scottsdale,Arizona,85260,US,abuse@godaddy.comLEETCODE.COM@domainsbyproxy.com,LEETCODE.COM,2149,GoDaddy.com LLC
https://leetcode.com/problems/divide-two-integers/submissions/,Legitimate,LEETCODE.COM,Domains By Proxy LLC,DomainsByProxy.com14455 N. Hayden Road,Scottsdale,Arizona,85260,US,abuse@godaddy.comLEETCODE.COM@domainsbyproxy.com,LEETCODE.COM,2149,GoDaddy.com LLC
https://leetcode.com/submissions/detail/336326521/,Legitimate,Not found in database,Not found in database,Not found in database,Not found in database,Not found in database,Not found in database,Not found in database,Not found in database,Not Found,2149,Not Found
https://leetcode.com/problems/divide-two-integers/submissions/,Legitimate,LEETCODE.COM,Domains By Proxy LLC,DomainsByProxy.com14455 N. Hayden Road,Scottsdale,Arizona,85260,US,abuse@godaddy.comLEETCODE.COM@domainsbyproxy.com,LEETCODE.COM,2149,GoDaddy.com LLC
https://leetcode.com/problems/divide-two-integers/submissions/,Legitimate,LEETCODE.COM,Domains By Proxy LLC,DomainsByProxy.com14455 N. Hayden Road,Scottsdale,Arizona,85260,US,abuse@godaddy.comLEETCODE.COM@domainsbyproxy.com,LEETCODE.COM,2149,GoDaddy.com LLC
https://leetcode.com/problems/divide-two-integers/submissions/,Legitimate,LEETCODE.COM,Domains By Proxy LLC,DomainsByProxy.com14455 N. Hayden Road,Scottsdale,Arizona,85260,US,abuse@godaddy.comLEETCODE.COM@domainsbyproxy.com,LEETCODE.COM,2149,GoDaddy.com LLC
https://leetcode.com/problems/divide-two-integers/submissions/,Legitimate,LEETCODE.COM,Domains By Proxy LLC,DomainsByProxy.com14455 N. Hayden Road,Scottsdale,Arizona,85260,US,abuse@godaddy.comLEETCODE.COM@domainsbyproxy.com,LEETCODE.COM,2149,GoDaddy.com LLC
https://leetcode.com/problems/divide-two-integers/submissions/,Legitimate,LEETCODE.COM,Domains By Proxy LLC,DomainsByProxy.com14455 N. Hayden Road,Scottsdale,Arizona,85260,US,abuse@godaddy.comLEETCODE.COM@domainsbyproxy.com,LEETCODE.COM,2149,GoDaddy.com LLC
https://leetcode.com/submissions/detail/336329038/,Legitimate,LEETCODE.COM,Domains By Proxy LLC,DomainsByProxy.com14455 N. Hayden Road,Scottsdale,Arizona,85260,US,abuse@godaddy.comLEETCODE.COM@domainsbyproxy.com,LEETCODE.COM,2149,GoDaddy.com LLC
https://leetcode.com/problems/divide-two-integers/submissions/,Legitimate,LEETCODE.COM,Domains By Proxy LLC,DomainsByProxy.com14455 N. Hayden Road,Scottsdale,Arizona,85260,US,abuse@godaddy.comLEETCODE.COM@domainsbyproxy.com,LEETCODE.COM,2149,GoDaddy.com LLC
https://leetcode.com/problems/divide-two-integers/submissions/,Legitimate,LEETCODE.COM,Domains By Proxy LLC,DomainsByProxy.com14455 N. Hayden Road,Scottsdale,Arizona,85260,US,abuse@godaddy.comLEETCODE.COM@domainsbyproxy.com,LEETCODE.COM,2149,GoDaddy.com LLC
https://leetcode.com/problems/divide-two-integers/submissions/,Legitimate,LEETCODE.COM,Domains By Proxy LLC,DomainsByProxy.com14455 N. Hayden Road,Scottsdale,Arizona,85260,US,abuse@godaddy.comLEETCODE.COM@domainsbyproxy.com,LEETCODE.COM,2149,GoDaddy.com LLC
https://leetcode.com/problems/power-of-two/,Legitimate,LEETCODE.COM,Domains By Proxy LLC,DomainsByProxy.com14455 N. Hayden Road,Scottsdale,Arizona,85260,US,abuse@godaddy.comLEETCODE.COM@domainsbyproxy.com,LEETCODE.COM,2149,GoDaddy.com LLC
https://leetcode.com/problems/power-of-two/,Legitimate,LEETCODE.COM,Domains By Proxy LLC,DomainsByProxy.com14455 N. Hayden Road,Scottsdale,Arizona,85260,US,abuse@godaddy.comLEETCODE.COM@domainsbyproxy.com,LEETCODE.COM,2149,GoDaddy.com LLC
https://leetcode.com/problems/power-of-two/,Legitimate,LEETCODE.COM,Domains By Proxy LLC,DomainsByProxy.com14455 N. Hayden Road,Scottsdale,Arizona,85260,US,abuse@godaddy.comLEETCODE.COM@domainsbyproxy.com,LEETCODE.COM,2149,GoDaddy.com LLC
https://leetcode.com/problems/power-of-two/,Legitimate,LEETCODE.COM,Domains By Proxy LLC,DomainsByProxy.com14455 N. Hayden Road,Scottsdale,Arizona,85260,US,abuse@godaddy.comLEETCODE.COM@domainsbyproxy.com,LEETCODE.COM,2149,GoDaddy.com LLC
https://leetcode.com/problems/power-of-two/,Legitimate,LEETCODE.COM,Domains By Proxy LLC,DomainsByProxy.com14455 N. Hayden Road,Scottsdale,Arizona,85260,US,abuse@godaddy.comLEETCODE.COM@domainsbyproxy.com,LEETCODE.COM,2149,GoDaddy.com LLC
https://leetcode.com/problems/power-of-two/,Legitimate,LEETCODE.COM,Domains By Proxy LLC,DomainsByProxy.com14455 N. Hayden Road,Scottsdale,Arizona,85260,US,abuse@godaddy.comLEETCODE.COM@domainsbyproxy.com,LEETCODE.COM,2149,GoDaddy.com LLC
https://leetcode.com/problems/power-of-two/,Legitimate,LEETCODE.COM,Domains By Proxy LLC,DomainsByProxy.com14455 N. Hayden Road,Scottsdale,Arizona,85260,US,abuse@godaddy.comLEETCODE.COM@domainsbyproxy.com,LEETCODE.COM,2149,GoDaddy.com LLC
https://www.geeksforgeeks.org/log-functions-python/,Legitimate,GEEKSFORGEEKS.ORG,Privacy Protect LLC (PrivacyProtect.org),10 Corporate Drive,Burlington,MA,01803,US,abuse-contact@publicdomainregistry.comcontact@privacyprotect.org,GEEKSFORGEEKS.ORG,318,PDR Ltd. d/b/a PublicDomainRegistry.com
https://www.geeksforgeeks.org/log-functions-python/,Legitimate,GEEKSFORGEEKS.ORG,Privacy Protect LLC (PrivacyProtect.org),10 Corporate Drive,Burlington,MA,01803,US,abuse-contact@publicdomainregistry.comcontact@privacyprotect.org,GEEKSFORGEEKS.ORG,318,PDR Ltd. d/b/a PublicDomainRegistry.com
https://www.geeksforgeeks.org/log-functions-python/,Legitimate,GEEKSFORGEEKS.ORG,Privacy Protect LLC (PrivacyProtect.org),10 Corporate Drive,Burlington,MA,01803,US,abuse-contact@publicdomainregistry.comcontact@privacyprotect.org,GEEKSFORGEEKS.ORG,318,PDR Ltd. d/b/a PublicDomainRegistry.com
https://www.geeksforgeeks.org/log-functions-python/,Legitimate,GEEKSFORGEEKS.ORG,Privacy Protect LLC (PrivacyProtect.org),10 Corporate Drive,Burlington,MA,01803,US,abuse-contact@publicdomainregistry.comcontact@privacyprotect.org,GEEKSFORGEEKS.ORG,318,PDR Ltd. d/b/a PublicDomainRegistry.com
https://www.geeksforgeeks.org/corona-virus-live-updates-for-india-using-python/?ref=leftbar-rightbar,Legitimate,GEEKSFORGEEKS.ORG,Privacy Protect LLC (PrivacyProtect.org),10 Corporate Drive,Burlington,MA,01803,US,abuse-contact@publicdomainregistry.comcontact@privacyprotect.org,GEEKSFORGEEKS.ORG,318,PDR Ltd. d/b/a PublicDomainRegistry.com
https://stackoverflow.com/questions/22623375/python-remove-all-decimals-from-a-float,Legitimate,STACKOVERFLOW.COM,Stack Exchange Inc.,110 William St , Floor 28,New York,NY,10038,US,abuse@name.comsysadmin-team@stackoverflow.com,STACKOVERFLOW.COM,42,Name.com Inc.
https://stackoverflow.com/questions/22623375/python-remove-all-decimals-from-a-float,Legitimate,STACKOVERFLOW.COM,None,None,None,None,None,None,abuse@name.com,STACKOVERFLOW.COM,42,Name.com Inc.
https://leetcode.com/problems/power-of-two/submissions/,Legitimate,LEETCODE.COM,Domains By Proxy LLC,DomainsByProxy.com14455 N. Hayden Road,Scottsdale,Arizona,85260,US,abuse@godaddy.comLEETCODE.COM@domainsbyproxy.com,LEETCODE.COM,2149,GoDaddy.com LLC
https://leetcode.com/problems/power-of-two/,Legitimate,LEETCODE.COM,Domains By Proxy LLC,DomainsByProxy.com14455 N. Hayden Road,Scottsdale,Arizona,85260,US,abuse@godaddy.comLEETCODE.COM@domainsbyproxy.com,LEETCODE.COM,2149,GoDaddy.com LLC
https://leetcode.com/problems/power-of-two/submissions/,Legitimate,LEETCODE.COM,Domains By Proxy LLC,DomainsByProxy.com14455 N. Hayden Road,Scottsdale,Arizona,85260,US,abuse@godaddy.comLEETCODE.COM@domainsbyproxy.com,LEETCODE.COM,2149,GoDaddy.com LLC
https://leetcode.com/submissions/detail/336339852/,Legitimate,LEETCODE.COM,Domains By Proxy LLC,DomainsByProxy.com14455 N. Hayden Road,Scottsdale,Arizona,85260,US,abuse@godaddy.comLEETCODE.COM@domainsbyproxy.com,LEETCODE.COM,2149,GoDaddy.com LLC
https://leetcode.com/submissions/detail/336339852/,Legitimate,LEETCODE.COM,Domains By Proxy LLC,DomainsByProxy.com14455 N. Hayden Road,Scottsdale,Arizona,85260,US,abuse@godaddy.comLEETCODE.COM@domainsbyproxy.com,LEETCODE.COM,2149,GoDaddy.com LLC
https://leetcode.com/problems/power-of-two/submissions/,Legitimate,LEETCODE.COM,Domains By Proxy LLC,DomainsByProxy.com14455 N. Hayden Road,Scottsdale,Arizona,85260,US,abuse@godaddy.comLEETCODE.COM@domainsbyproxy.com,LEETCODE.COM,2149,GoDaddy.com LLC
https://leetcode.com/problems/power-of-two/submissions/,Legitimate,Not found in database,Not found in database,Not found in database,Not found in database,Not found in database,Not found in database,Not found in database,Not found in database,Not Found,2149,Not Found
https://leetcode.com/problems/power-of-four/,Legitimate,LEETCODE.COM,Domains By Proxy LLC,DomainsByProxy.com14455 N. Hayden Road,Scottsdale,Arizona,85260,US,abuse@godaddy.comLEETCODE.COM@domainsbyproxy.com,LEETCODE.COM,2149,GoDaddy.com LLC
https://leetcode.com/problems/power-of-four/,Legitimate,LEETCODE.COM,Domains By Proxy LLC,DomainsByProxy.com14455 N. Hayden Road,Scottsdale,Arizona,85260,US,abuse@godaddy.comLEETCODE.COM@domainsbyproxy.com,LEETCODE.COM,2149,GoDaddy.com LLC
https://leetcode.com/problems/power-of-four/submissions/,Legitimate,LEETCODE.COM,Domains By Proxy LLC,DomainsByProxy.com14455 N. Hayden Road,Scottsdale,Arizona,85260,US,abuse@godaddy.comLEETCODE.COM@domainsbyproxy.com,LEETCODE.COM,2149,GoDaddy.com LLC
https://leetcode.com/problems/power-of-four/submissions/,Legitimate,LEETCODE.COM,Domains By Proxy LLC,DomainsByProxy.com14455 N. Hayden Road,Scottsdale,Arizona,85260,US,abuse@godaddy.comLEETCODE.COM@domainsbyproxy.com,LEETCODE.COM,2149,GoDaddy.com LLC
https://leetcode.com/problems/power-of-four/submissions/,Legitimate,LEETCODE.COM,Domains By Proxy LLC,DomainsByProxy.com14455 N. Hayden Road,Scottsdale,Arizona,85260,US,abuse@godaddy.comLEETCODE.COM@domainsbyproxy.com,LEETCODE.COM,2149,GoDaddy.com LLC
https://leetcode.com/problems/minimum-unique-word-abbreviation/,Legitimate,Not found in database,Not found in database,Not found in database,Not found in database,Not found in database,Not found in database,Not found in database,Not found in database,Not Found,2149,Not Found
https://leetcode.com/problems/minimum-unique-word-abbreviation/,Legitimate,LEETCODE.COM,Domains By Proxy LLC,DomainsByProxy.com14455 N. Hayden Road,Scottsdale,Arizona,85260,US,abuse@godaddy.comLEETCODE.COM@domainsbyproxy.com,LEETCODE.COM,2149,GoDaddy.com LLC
https://leetcode.com/problems/minimum-unique-word-abbreviation/,Legitimate,LEETCODE.COM,Domains By Proxy LLC,DomainsByProxy.com14455 N. Hayden Road,Scottsdale,Arizona,85260,US,abuse@godaddy.comLEETCODE.COM@domainsbyproxy.com,LEETCODE.COM,2149,GoDaddy.com LLC
https://leetcode.com/problems/minimum-unique-word-abbreviation/,Legitimate,LEETCODE.COM,Domains By Proxy LLC,DomainsByProxy.com14455 N. Hayden Road,Scottsdale,Arizona,85260,US,abuse@godaddy.comLEETCODE.COM@domainsbyproxy.com,LEETCODE.COM,2149,GoDaddy.com LLC
https://leetcode.com/problems/minimum-unique-word-abbreviation/,Legitimate,LEETCODE.COM,Domains By Proxy LLC,DomainsByProxy.com14455 N. Hayden Road,Scottsdale,Arizona,85260,US,abuse@godaddy.comLEETCODE.COM@domainsbyproxy.com,LEETCODE.COM,2149,GoDaddy.com LLC
https://leetcode.com/problems/bitwise-ors-of-subarrays/discuss/?currentPage=1,Legitimate,LEETCODE.COM,Domains By Proxy LLC,DomainsByProxy.com14455 N. Hayden Road,Scottsdale,Arizona,85260,US,abuse@godaddy.comLEETCODE.COM@domainsbyproxy.com,LEETCODE.COM,2149,GoDaddy.com LLC
https://leetcode.com/problems/bitwise-ors-of-subarrays/discuss/?currentPage=1,Legitimate,LEETCODE.COM,Domains By Proxy LLC,DomainsByProxy.com14455 N. Hayden Road,Scottsdale,Arizona,85260,US,abuse@godaddy.comLEETCODE.COM@domainsbyproxy.com,LEETCODE.COM,2149,GoDaddy.com LLC
https://leetcode.com/problems/bitwise-ors-of-subarrays/discuss/327075/Python3-5-Line-concise-solution,Legitimate,LEETCODE.COM,Domains By Proxy LLC,DomainsByProxy.com14455 N. Hayden Road,Scottsdale,Arizona,85260,US,abuse@godaddy.comLEETCODE.COM@domainsbyproxy.com,LEETCODE.COM,2149,GoDaddy.com LLC
https://leetcode.com/problems/bitwise-ors-of-subarrays/discuss/327075/Python3-5-Line-concise-solution,Legitimate,LEETCODE.COM,Domains By Proxy LLC,DomainsByProxy.com14455 N. Hayden Road,Scottsdale,Arizona,85260,US,abuse@godaddy.comLEETCODE.COM@domainsbyproxy.com,LEETCODE.COM,2149,GoDaddy.com LLC
https://leetcode.com/problems/bitwise-ors-of-subarrays/discuss/?currentPage=1,Legitimate,LEETCODE.COM,Domains By Proxy LLC,DomainsByProxy.com14455 N. Hayden Road,Scottsdale,Arizona,85260,US,abuse@godaddy.comLEETCODE.COM@domainsbyproxy.com,LEETCODE.COM,2149,GoDaddy.com LLC
https://leetcode.com/problems/bitwise-ors-of-subarrays/,Legitimate,LEETCODE.COM,Domains By Proxy LLC,DomainsByProxy.com14455 N. Hayden Road,Scottsdale,Arizona,85260,US,abuse@godaddy.comLEETCODE.COM@domainsbyproxy.com,LEETCODE.COM,2149,GoDaddy.com LLC
https://leetcode.com/problems/bitwise-ors-of-subarrays/,Legitimate,LEETCODE.COM,Domains By Proxy LLC,DomainsByProxy.com14455 N. Hayden Road,Scottsdale,Arizona,85260,US,abuse@godaddy.comLEETCODE.COM@domainsbyproxy.com,LEETCODE.COM,2149,GoDaddy.com LLC
https://leetcode.com/isa_97/,Legitimate,LEETCODE.COM,Domains By Proxy LLC,DomainsByProxy.com14455 N. Hayden Road,Scottsdale,Arizona,85260,US,abuse@godaddy.comLEETCODE.COM@domainsbyproxy.com,LEETCODE.COM,2149,GoDaddy.com LLC
https://leetcode.com/isa_97/,Legitimate,LEETCODE.COM,Domains By Proxy LLC,DomainsByProxy.com14455 N. Hayden Road,Scottsdale,Arizona,85260,US,abuse@godaddy.comLEETCODE.COM@domainsbyproxy.com,LEETCODE.COM,2149,GoDaddy.com LLC
https://leetcode.com/legion_abhe/,Legitimate,LEETCODE.COM,Domains By Proxy LLC,DomainsByProxy.com14455 N. Hayden Road,Scottsdale,Arizona,85260,US,abuse@godaddy.comLEETCODE.COM@domainsbyproxy.com,LEETCODE.COM,2149,GoDaddy.com LLC
https://leetcode.com/legion_abhe/,Legitimate,LEETCODE.COM,Domains By Proxy LLC,DomainsByProxy.com14455 N. Hayden Road,Scottsdale,Arizona,85260,US,abuse@godaddy.comLEETCODE.COM@domainsbyproxy.com,LEETCODE.COM,2149,GoDaddy.com LLC
https://leetcode.com/problemset/all/,Legitimate,LEETCODE.COM,Domains By Proxy LLC,DomainsByProxy.com14455 N. Hayden Road,Scottsdale,Arizona,85260,US,abuse@godaddy.comLEETCODE.COM@domainsbyproxy.com,LEETCODE.COM,2149,GoDaddy.com LLC
https://leetcode.com/problemset/all/,Legitimate,LEETCODE.COM,Domains By Proxy LLC,DomainsByProxy.com14455 N. Hayden Road,Scottsdale,Arizona,85260,US,abuse@godaddy.comLEETCODE.COM@domainsbyproxy.com,LEETCODE.COM,2149,GoDaddy.com LLC
https://leetcode.com/problemset/all/,Legitimate,LEETCODE.COM,Domains By Proxy LLC,DomainsByProxy.com14455 N. Hayden Road,Scottsdale,Arizona,85260,US,abuse@godaddy.comLEETCODE.COM@domainsbyproxy.com,LEETCODE.COM,2149,GoDaddy.com LLC
https://leetcode.com/problems/longest-palindromic-substring/,Legitimate,LEETCODE.COM,Domains By Proxy LLC,DomainsByProxy.com14455 N. Hayden Road,Scottsdale,Arizona,85260,US,abuse@godaddy.comLEETCODE.COM@domainsbyproxy.com,LEETCODE.COM,2149,GoDaddy.com LLC
https://leetcode.com/problems/longest-palindromic-substring/,Legitimate,LEETCODE.COM,Domains By Proxy LLC,DomainsByProxy.com14455 N. Hayden Road,Scottsdale,Arizona,85260,US,abuse@godaddy.comLEETCODE.COM@domainsbyproxy.com,LEETCODE.COM,2149,GoDaddy.com LLC
https://leetcode.com/problems/longest-palindromic-substring/submissions/,Legitimate,LEETCODE.COM,Domains By Proxy LLC,DomainsByProxy.com14455 N. Hayden Road,Scottsdale,Arizona,85260,US,abuse@godaddy.comLEETCODE.COM@domainsbyproxy.com,LEETCODE.COM,2149,GoDaddy.com LLC
https://leetcode.com/problems/longest-palindromic-substring/,Legitimate,LEETCODE.COM,Domains By Proxy LLC,DomainsByProxy.com14455 N. Hayden Road,Scottsdale,Arizona,85260,US,abuse@godaddy.comLEETCODE.COM@domainsbyproxy.com,LEETCODE.COM,2149,GoDaddy.com LLC
https://leetcode.com/problems/longest-palindromic-substring/discuss/?currentPage=1,Legitimate,LEETCODE.COM,Domains By Proxy LLC,DomainsByProxy.com14455 N. Hayden Road,Scottsdale,Arizona,85260,US,abuse@godaddy.comLEETCODE.COM@domainsbyproxy.com,LEETCODE.COM,2149,GoDaddy.com LLC
https://leetcode.com/problems/longest-palindromic-substring/discuss/?currentPage=1,Legitimate,LEETCODE.COM,Domains By Proxy LLC,DomainsByProxy.com14455 N. Hayden Road,Scottsdale,Arizona,85260,US,abuse@godaddy.comLEETCODE.COM@domainsbyproxy.com,LEETCODE.COM,2149,GoDaddy.com LLC
https://leetcode.com/problems/longest-palindromic-substring/discuss/?currentPage=1,Legitimate,LEETCODE.COM,Domains By Proxy LLC,DomainsByProxy.com14455 N. Hayden Road,Scottsdale,Arizona,85260,US,abuse@godaddy.comLEETCODE.COM@domainsbyproxy.com,LEETCODE.COM,2149,GoDaddy.com LLC
https://leetcode.com/problems/longest-palindromic-substring/discuss/?currentPage=1,Legitimate,LEETCODE.COM,Domains By Proxy LLC,DomainsByProxy.com14455 N. Hayden Road,Scottsdale,Arizona,85260,US,abuse@godaddy.comLEETCODE.COM@domainsbyproxy.com,LEETCODE.COM,2149,GoDaddy.com LLC
https://leetcode.com/problems/longest-palindromic-substring/discuss/?currentPage=1,Legitimate,LEETCODE.COM,Domains By Proxy LLC,DomainsByProxy.com14455 N. Hayden Road,Scottsdale,Arizona,85260,US,abuse@godaddy.comLEETCODE.COM@domainsbyproxy.com,LEETCODE.COM,2149,GoDaddy.com LLC
https://leetcode.com/problems/longest-palindromic-substring/,Legitimate,LEETCODE.COM,Domains By Proxy LLC,DomainsByProxy.com14455 N. Hayden Road,Scottsdale,Arizona,85260,US,abuse@godaddy.comLEETCODE.COM@domainsbyproxy.com,LEETCODE.COM,2149,GoDaddy.com LLC
https://leetcode.com/problems/longest-palindromic-substring/submissions/,Legitimate,LEETCODE.COM,Domains By Proxy LLC,DomainsByProxy.com14455 N. Hayden Road,Scottsdale,Arizona,85260,US,abuse@godaddy.comLEETCODE.COM@domainsbyproxy.com,LEETCODE.COM,2149,GoDaddy.com LLC
https://leetcode.com/problems/longest-palindromic-substring/discuss/?currentPage=1,Legitimate,LEETCODE.COM,Domains By Proxy LLC,DomainsByProxy.com14455 N. Hayden Road,Scottsdale,Arizona,85260,US,abuse@godaddy.comLEETCODE.COM@domainsbyproxy.com,LEETCODE.COM,2149,GoDaddy.com LLC
https://leetcode.com/problems/longest-palindromic-substring/discuss/?currentPage=1,Legitimate,LEETCODE.COM,Domains By Proxy LLC,DomainsByProxy.com14455 N. Hayden Road,Scottsdale,Arizona,85260,US,abuse@godaddy.comLEETCODE.COM@domainsbyproxy.com,LEETCODE.COM,2149,GoDaddy.com LLC
https://leetcode.com/problems/longest-palindromic-substring/discuss/?currentPage=1,Legitimate,LEETCODE.COM,Domains By Proxy LLC,DomainsByProxy.com14455 N. Hayden Road,Scottsdale,Arizona,85260,US,abuse@godaddy.comLEETCODE.COM@domainsbyproxy.com,LEETCODE.COM,2149,GoDaddy.com LLC
https://leetcode.com/problems/longest-palindromic-substring/discuss/?currentPage=1,Legitimate,LEETCODE.COM,Domains By Proxy LLC,DomainsByProxy.com14455 N. Hayden Road,Scottsdale,Arizona,85260,US,abuse@godaddy.comLEETCODE.COM@domainsbyproxy.com,LEETCODE.COM,2149,GoDaddy.com LLC
https://leetcode.com/problems/longest-palindromic-substring/discuss/614215/0ms-solution-in-go,Legitimate,LEETCODE.COM,Domains By Proxy LLC,DomainsByProxy.com14455 N. Hayden Road,Scottsdale,Arizona,85260,US,abuse@godaddy.comLEETCODE.COM@domainsbyproxy.com,LEETCODE.COM,2149,GoDaddy.com LLC
https://leetcode.com/problems/longest-palindromic-substring/discuss/614215/0ms-solution-in-go,Legitimate,LEETCODE.COM,Domains By Proxy LLC,DomainsByProxy.com14455 N. Hayden Road,Scottsdale,Arizona,85260,US,abuse@godaddy.comLEETCODE.COM@domainsbyproxy.com,LEETCODE.COM,2149,GoDaddy.com LLC
https://leetcode.com/problems/longest-palindromic-substring/discuss/?currentPage=1,Legitimate,LEETCODE.COM,Domains By Proxy LLC,DomainsByProxy.com14455 N. Hayden Road,Scottsdale,Arizona,85260,US,abuse@godaddy.comLEETCODE.COM@domainsbyproxy.com,LEETCODE.COM,2149,GoDaddy.com LLC
https://leetcode.com/problems/longest-palindromic-substring/discuss/?currentPage=1,Legitimate,LEETCODE.COM,Domains By Proxy LLC,DomainsByProxy.com14455 N. Hayden Road,Scottsdale,Arizona,85260,US,abuse@godaddy.comLEETCODE.COM@domainsbyproxy.com,LEETCODE.COM,2149,GoDaddy.com LLC
https://leetcode.com/problems/longest-palindromic-substring/,Legitimate,LEETCODE.COM,Domains By Proxy LLC,DomainsByProxy.com14455 N. Hayden Road,Scottsdale,Arizona,85260,US,abuse@godaddy.comLEETCODE.COM@domainsbyproxy.com,LEETCODE.COM,2149,GoDaddy.com LLC
https://leetcode.com/problems/longest-palindromic-substring/discuss/?currentPage=1,Legitimate,LEETCODE.COM,Domains By Proxy LLC,DomainsByProxy.com14455 N. Hayden Road,Scottsdale,Arizona,85260,US,abuse@godaddy.comLEETCODE.COM@domainsbyproxy.com,LEETCODE.COM,2149,GoDaddy.com LLC
https://leetcode.com/problems/longest-palindromic-substring/discuss/?currentPage=1,Legitimate,LEETCODE.COM,Domains By Proxy LLC,DomainsByProxy.com14455 N. Hayden Road,Scottsdale,Arizona,85260,US,abuse@godaddy.comLEETCODE.COM@domainsbyproxy.com,LEETCODE.COM,2149,GoDaddy.com LLC
https://leetcode.com/problems/remove-nth-node-from-end-of-list/,Legitimate,LEETCODE.COM,Domains By Proxy LLC,DomainsByProxy.com14455 N. Hayden Road,Scottsdale,Arizona,85260,US,abuse@godaddy.comLEETCODE.COM@domainsbyproxy.com,LEETCODE.COM,2149,GoDaddy.com LLC
https://leetcode.com/problems/remove-nth-node-from-end-of-list/,Legitimate,LEETCODE.COM,Domains By Proxy LLC,DomainsByProxy.com14455 N. Hayden Road,Scottsdale,Arizona,85260,US,abuse@godaddy.comLEETCODE.COM@domainsbyproxy.com,LEETCODE.COM,2149,GoDaddy.com LLC
https://leetcode.com/problems/remove-nth-node-from-end-of-list/,Legitimate,Not found in database,Not found in database,Not found in database,Not found in database,Not found in database,Not found in database,Not found in database,Not found in database,Not Found,2149,Not Found
https://www.newindianexpress.com/states/tamil-nadu/2020/may/07/community-transmission-is-here-what-should-we-do-2140149.html,Legitimate,NEWINDIANEXPRESS.COMnewindianexpress.com,Express Network Private Ltd,29 Second Main Road, Ambattur Industrial Estate,Chennai,TN,600058,IN,abuse@net4.comgopalann@newindianexpress.com,NEWINDIANEXPRESS.COMnewindianexpress.com,5296,Net 4 India Limited
https://leetcode.com/problems/remove-nth-node-from-end-of-list/submissions/,Legitimate,LEETCODE.COM,Domains By Proxy LLC,DomainsByProxy.com14455 N. Hayden Road,Scottsdale,Arizona,85260,US,abuse@godaddy.comLEETCODE.COM@domainsbyproxy.com,LEETCODE.COM,2149,GoDaddy.com LLC
https://leetcode.com/problems/remove-nth-node-from-end-of-list/submissions/,Legitimate,LEETCODE.COM,Domains By Proxy LLC,DomainsByProxy.com14455 N. Hayden Road,Scottsdale,Arizona,85260,US,abuse@godaddy.comLEETCODE.COM@domainsbyproxy.com,LEETCODE.COM,2149,GoDaddy.com LLC
https://leetcode.com/submissions/detail/336351472/,Legitimate,LEETCODE.COM,Domains By Proxy LLC,DomainsByProxy.com14455 N. Hayden Road,Scottsdale,Arizona,85260,US,abuse@godaddy.comLEETCODE.COM@domainsbyproxy.com,LEETCODE.COM,2149,GoDaddy.com LLC
https://leetcode.com/problems/remove-nth-node-from-end-of-list/discuss/?currentPage=1,Legitimate,LEETCODE.COM,Domains By Proxy LLC,DomainsByProxy.com14455 N. Hayden Road,Scottsdale,Arizona,85260,US,abuse@godaddy.comLEETCODE.COM@domainsbyproxy.com,LEETCODE.COM,2149,GoDaddy.com LLC
https://leetcode.com/problems/remove-nth-node-from-end-of-list/discuss/?currentPage=1,Legitimate,LEETCODE.COM,Domains By Proxy LLC,DomainsByProxy.com14455 N. Hayden Road,Scottsdale,Arizona,85260,US,abuse@godaddy.comLEETCODE.COM@domainsbyproxy.com,LEETCODE.COM,2149,GoDaddy.com LLC
https://leetcode.com/problems/remove-nth-node-from-end-of-list/discuss/?currentPage=1,Legitimate,LEETCODE.COM,Domains By Proxy LLC,DomainsByProxy.com14455 N. Hayden Road,Scottsdale,Arizona,85260,US,abuse@godaddy.comLEETCODE.COM@domainsbyproxy.com,LEETCODE.COM,2149,GoDaddy.com LLC
https://leetcode.com/problems/remove-nth-node-from-end-of-list/discuss/612328/Python-by-two-pointers-85+-w-Visualization,Legitimate,LEETCODE.COM,Domains By Proxy LLC,DomainsByProxy.com14455 N. Hayden Road,Scottsdale,Arizona,85260,US,abuse@godaddy.comLEETCODE.COM@domainsbyproxy.com,LEETCODE.COM,2149,GoDaddy.com LLC
https://leetcode.com/problems/remove-nth-node-from-end-of-list/discuss/612328/Python-by-two-pointers-85+-w-Visualization,Legitimate,LEETCODE.COM,Domains By Proxy LLC,DomainsByProxy.com14455 N. Hayden Road,Scottsdale,Arizona,85260,US,abuse@godaddy.comLEETCODE.COM@domainsbyproxy.com,LEETCODE.COM,2149,GoDaddy.com LLC
https://leetcode.com/problems/remove-nth-node-from-end-of-list/discuss/?currentPage=1,Legitimate,LEETCODE.COM,Domains By Proxy LLC,DomainsByProxy.com14455 N. Hayden Road,Scottsdale,Arizona,85260,US,abuse@godaddy.comLEETCODE.COM@domainsbyproxy.com,LEETCODE.COM,2149,GoDaddy.com LLC
https://leetcode.com/problems/remove-nth-node-from-end-of-list/discuss/?currentPage=1,Legitimate,LEETCODE.COM,Domains By Proxy LLC,DomainsByProxy.com14455 N. Hayden Road,Scottsdale,Arizona,85260,US,abuse@godaddy.comLEETCODE.COM@domainsbyproxy.com,LEETCODE.COM,2149,GoDaddy.com LLC
https://leetcode.com/problems/remove-nth-node-from-end-of-list/discuss/?currentPage=1,Legitimate,LEETCODE.COM,Domains By Proxy LLC,DomainsByProxy.com14455 N. Hayden Road,Scottsdale,Arizona,85260,US,abuse@godaddy.comLEETCODE.COM@domainsbyproxy.com,LEETCODE.COM,2149,GoDaddy.com LLC
https://leetcode.com/problems/remove-nth-node-from-end-of-list/discuss/?currentPage=1,Legitimate,Not found in database,Not found in database,Not found in database,Not found in database,Not found in database,Not found in database,Not found in database,Not found in database,Not Found,2149,Not Found
https://leetcode.com/problems/remove-nth-node-from-end-of-list/discuss/9032/Python-concise-one-pass-solution-with-dummy-head.,Legitimate,LEETCODE.COM,Domains By Proxy LLC,DomainsByProxy.com14455 N. Hayden Road,Scottsdale,Arizona,85260,US,abuse@godaddy.comLEETCODE.COM@domainsbyproxy.com,LEETCODE.COM,2149,GoDaddy.com LLC
https://leetcode.com/problems/remove-nth-node-from-end-of-list/discuss/9032/Python-concise-one-pass-solution-with-dummy-head.,Legitimate,LEETCODE.COM,Domains By Proxy LLC,DomainsByProxy.com14455 N. Hayden Road,Scottsdale,Arizona,85260,US,abuse@godaddy.comLEETCODE.COM@domainsbyproxy.com,LEETCODE.COM,2149,GoDaddy.com LLC
https://leetcode.com/problems/remove-nth-node-from-end-of-list/,Legitimate,LEETCODE.COM,Domains By Proxy LLC,DomainsByProxy.com14455 N. Hayden Road,Scottsdale,Arizona,85260,US,abuse@godaddy.comLEETCODE.COM@domainsbyproxy.com,LEETCODE.COM,2149,GoDaddy.com LLC
https://leetcode.com/problems/remove-nth-node-from-end-of-list/,Legitimate,LEETCODE.COM,Domains By Proxy LLC,DomainsByProxy.com14455 N. Hayden Road,Scottsdale,Arizona,85260,US,abuse@godaddy.comLEETCODE.COM@domainsbyproxy.com,LEETCODE.COM,2149,GoDaddy.com LLC
https://leetcode.com/problems/remove-nth-node-from-end-of-list/submissions/,Legitimate,LEETCODE.COM,Domains By Proxy LLC,DomainsByProxy.com14455 N. Hayden Road,Scottsdale,Arizona,85260,US,abuse@godaddy.comLEETCODE.COM@domainsbyproxy.com,LEETCODE.COM,2149,GoDaddy.com LLC
https://leetcode.com/problems/remove-nth-node-from-end-of-list/,Legitimate,LEETCODE.COM,Domains By Proxy LLC,DomainsByProxy.com14455 N. Hayden Road,Scottsdale,Arizona,85260,US,abuse@godaddy.comLEETCODE.COM@domainsbyproxy.com,LEETCODE.COM,2149,GoDaddy.com LLC
https://leetcode.com/problems/remove-nth-node-from-end-of-list/discuss/?currentPage=1,Legitimate,LEETCODE.COM,Domains By Proxy LLC,DomainsByProxy.com14455 N. Hayden Road,Scottsdale,Arizona,85260,US,abuse@godaddy.comLEETCODE.COM@domainsbyproxy.com,LEETCODE.COM,2149,GoDaddy.com LLC
https://leetcode.com/problems/remove-nth-node-from-end-of-list/discuss/?currentPage=1,Legitimate,LEETCODE.COM,Domains By Proxy LLC,DomainsByProxy.com14455 N. Hayden Road,Scottsdale,Arizona,85260,US,abuse@godaddy.comLEETCODE.COM@domainsbyproxy.com,LEETCODE.COM,2149,GoDaddy.com LLC
https://leetcode.com/problems/remove-nth-node-from-end-of-list/discuss/602246/Accepted-Simple-C++-Solution-O(n),Legitimate,LEETCODE.COM,Domains By Proxy LLC,DomainsByProxy.com14455 N. Hayden Road,Scottsdale,Arizona,85260,US,abuse@godaddy.comLEETCODE.COM@domainsbyproxy.com,LEETCODE.COM,2149,GoDaddy.com LLC
https://leetcode.com/problems/remove-nth-node-from-end-of-list/discuss/602246/Accepted-Simple-C++-Solution-O(n),Legitimate,LEETCODE.COM,Domains By Proxy LLC,DomainsByProxy.com14455 N. Hayden Road,Scottsdale,Arizona,85260,US,abuse@godaddy.comLEETCODE.COM@domainsbyproxy.com,LEETCODE.COM,2149,GoDaddy.com LLC
https://www.google.com/search?sxsrf=ALeKk00X3BN7978I5dlawO8fyMz0d55YgA:1588964461993,Legitimate,GOOGLE.COMgoogle.com,Google LLC,None,None,CA,None,US,abusecomplaints@markmonitor.comwhoisrequest@markmonitor.com,GOOGLE.COMgoogle.com,1,MarkMonitor Inc.
https://www.google.com/search?sxsrf=ALeKk00X3BN7978I5dlawO8fyMz0d55YgA:1588964461993,Legitimate,GOOGLE.COM,None,None,None,None,None,None,abusecomplaints@markmonitor.com,GOOGLE.COM,1,MarkMonitor Inc.
https://www.google.com/search?sxsrf=ALeKk00X3BN7978I5dlawO8fyMz0d55YgA:1588964461993,Legitimate,Not found in database,Not found in database,Not found in database,Not found in database,Not found in database,Not found in database,Not found in database,Not found in database,Not Found,1,Not Found
https://www.google.com/search?sxsrf=ALeKk02XeNoU-nDQpgkhETsgi8g-UB7J4A:1588964470339,Legitimate,GOOGLE.COMgoogle.com,Google LLC,None,None,CA,None,US,abusecomplaints@markmonitor.comwhoisrequest@markmonitor.com,GOOGLE.COMgoogle.com,1,MarkMonitor Inc.
https://www.google.com/search?sxsrf=ALeKk02XeNoU-nDQpgkhETsgi8g-UB7J4A:1588964470339,Legitimate,Not found in database,Not found in database,Not found in database,Not found in database,Not found in database,Not found in database,Not found in database,Not found in database,Not Found,1,Not Found
https://stackoverflow.com/questions/280243/python-linked-list,Legitimate,STACKOVERFLOW.COM,Stack Exchange Inc.,110 William St , Floor 28,New York,NY,10038,US,abuse@name.comsysadmin-team@stackoverflow.com,STACKOVERFLOW.COM,42,Name.com Inc.
https://stackoverflow.com/questions/280243/python-linked-list,Legitimate,STACKOVERFLOW.COM,None,None,None,None,None,None,abuse@name.com,STACKOVERFLOW.COM,42,Name.com Inc.
https://www.google.com/search?sxsrf=ALeKk02XeNoU-nDQpgkhETsgi8g-UB7J4A:1588964470339,Legitimate,GOOGLE.COMgoogle.com,Google LLC,None,None,CA,None,US,abusecomplaints@markmonitor.comwhoisrequest@markmonitor.com,GOOGLE.COMgoogle.com,1,MarkMonitor Inc.
https://www.google.com/search?sxsrf=ALeKk02XeNoU-nDQpgkhETsgi8g-UB7J4A:1588964470339,Legitimate,GOOGLE.COM,None,None,None,None,None,None,abusecomplaints@markmonitor.com,GOOGLE.COM,1,MarkMonitor Inc.
https://leetcode.com/problems/remove-nth-node-from-end-of-list/,Legitimate,LEETCODE.COM,Domains By Proxy LLC,DomainsByProxy.com14455 N. Hayden Road,Scottsdale,Arizona,85260,US,abuse@godaddy.comLEETCODE.COM@domainsbyproxy.com,LEETCODE.COM,2149,GoDaddy.com LLC
https://leetcode.com/problems/remove-nth-node-from-end-of-list/,Legitimate,LEETCODE.COM,Domains By Proxy LLC,DomainsByProxy.com14455 N. Hayden Road,Scottsdale,Arizona,85260,US,abuse@godaddy.comLEETCODE.COM@domainsbyproxy.com,LEETCODE.COM,2149,GoDaddy.com LLC
https://leetcode.com/problems/remove-nth-node-from-end-of-list/submissions/,Legitimate,LEETCODE.COM,Domains By Proxy LLC,DomainsByProxy.com14455 N. Hayden Road,Scottsdale,Arizona,85260,US,abuse@godaddy.comLEETCODE.COM@domainsbyproxy.com,LEETCODE.COM,2149,GoDaddy.com LLC
https://leetcode.com/problems/remove-nth-node-from-end-of-list/submissions/,Legitimate,LEETCODE.COM,Domains By Proxy LLC,DomainsByProxy.com14455 N. Hayden Road,Scottsdale,Arizona,85260,US,abuse@godaddy.comLEETCODE.COM@domainsbyproxy.com,LEETCODE.COM,2149,GoDaddy.com LLC
https://leetcode.com/submissions/detail/336354333/,Legitimate,LEETCODE.COM,Domains By Proxy LLC,DomainsByProxy.com14455 N. Hayden Road,Scottsdale,Arizona,85260,US,abuse@godaddy.comLEETCODE.COM@domainsbyproxy.com,LEETCODE.COM,2149,GoDaddy.com LLC
https://leetcode.com/problems/remove-nth-node-from-end-of-list/submissions/,Legitimate,LEETCODE.COM,Domains By Proxy LLC,DomainsByProxy.com14455 N. Hayden Road,Scottsdale,Arizona,85260,US,abuse@godaddy.comLEETCODE.COM@domainsbyproxy.com,LEETCODE.COM,2149,GoDaddy.com LLC
https://leetcode.com/problems/remove-nth-node-from-end-of-list/submissions/,Legitimate,LEETCODE.COM,Domains By Proxy LLC,DomainsByProxy.com14455 N. Hayden Road,Scottsdale,Arizona,85260,US,abuse@godaddy.comLEETCODE.COM@domainsbyproxy.com,LEETCODE.COM,2149,GoDaddy.com LLC
https://leetcode.com/submissions/detail/336356069/,Legitimate,LEETCODE.COM,Domains By Proxy LLC,DomainsByProxy.com14455 N. Hayden Road,Scottsdale,Arizona,85260,US,abuse@godaddy.comLEETCODE.COM@domainsbyproxy.com,LEETCODE.COM,2149,GoDaddy.com LLC
https://leetcode.com/problems/remove-nth-node-from-end-of-list/discuss/?currentPage=1,Legitimate,LEETCODE.COM,Domains By Proxy LLC,DomainsByProxy.com14455 N. Hayden Road,Scottsdale,Arizona,85260,US,abuse@godaddy.comLEETCODE.COM@domainsbyproxy.com,LEETCODE.COM,2149,GoDaddy.com LLC
https://leetcode.com/problems/remove-nth-node-from-end-of-list/discuss/?currentPage=1,Legitimate,LEETCODE.COM,Domains By Proxy LLC,DomainsByProxy.com14455 N. Hayden Road,Scottsdale,Arizona,85260,US,abuse@godaddy.comLEETCODE.COM@domainsbyproxy.com,LEETCODE.COM,2149,GoDaddy.com LLC
https://leetcode.com/problems/remove-nth-node-from-end-of-list/discuss/?currentPage=1,Legitimate,LEETCODE.COM,Domains By Proxy LLC,DomainsByProxy.com14455 N. Hayden Road,Scottsdale,Arizona,85260,US,abuse@godaddy.comLEETCODE.COM@domainsbyproxy.com,LEETCODE.COM,2149,GoDaddy.com LLC
https://leetcode.com/problems/remove-nth-node-from-end-of-list/discuss/?currentPage=1,Legitimate,LEETCODE.COM,Domains By Proxy LLC,DomainsByProxy.com14455 N. Hayden Road,Scottsdale,Arizona,85260,US,abuse@godaddy.comLEETCODE.COM@domainsbyproxy.com,LEETCODE.COM,2149,GoDaddy.com LLC
https://leetcode.com/problems/remove-nth-node-from-end-of-list/discuss/553706/beats-99.-Python-Count-solution.,Legitimate,LEETCODE.COM,Domains By Proxy LLC,DomainsByProxy.com14455 N. Hayden Road,Scottsdale,Arizona,85260,US,abuse@godaddy.comLEETCODE.COM@domainsbyproxy.com,LEETCODE.COM,2149,GoDaddy.com LLC
https://leetcode.com/problems/remove-nth-node-from-end-of-list/discuss/553706/beats-99.-Python-Count-solution.,Legitimate,LEETCODE.COM,Domains By Proxy LLC,DomainsByProxy.com14455 N. Hayden Road,Scottsdale,Arizona,85260,US,abuse@godaddy.comLEETCODE.COM@domainsbyproxy.com,LEETCODE.COM,2149,GoDaddy.com LLC
https://leetcode.com/problems/remove-nth-node-from-end-of-list/discuss/?currentPage=1,Legitimate,LEETCODE.COM,Domains By Proxy LLC,DomainsByProxy.com14455 N. Hayden Road,Scottsdale,Arizona,85260,US,abuse@godaddy.comLEETCODE.COM@domainsbyproxy.com,LEETCODE.COM,2149,GoDaddy.com LLC
https://leetcode.com/problems/remove-nth-node-from-end-of-list/discuss/?currentPage=1,Legitimate,LEETCODE.COM,Domains By Proxy LLC,DomainsByProxy.com14455 N. Hayden Road,Scottsdale,Arizona,85260,US,abuse@godaddy.comLEETCODE.COM@domainsbyproxy.com,LEETCODE.COM,2149,GoDaddy.com LLC
https://leetcode.com/problems/remove-nth-node-from-end-of-list/,Legitimate,LEETCODE.COM,Domains By Proxy LLC,DomainsByProxy.com14455 N. Hayden Road,Scottsdale,Arizona,85260,US,abuse@godaddy.comLEETCODE.COM@domainsbyproxy.com,LEETCODE.COM,2149,GoDaddy.com LLC
https://leetcode.com/problems/remove-nth-node-from-end-of-list/,Legitimate,LEETCODE.COM,Domains By Proxy LLC,DomainsByProxy.com14455 N. Hayden Road,Scottsdale,Arizona,85260,US,abuse@godaddy.comLEETCODE.COM@domainsbyproxy.com,LEETCODE.COM,2149,GoDaddy.com LLC
https://leetcode.com/problems/remove-nth-node-from-end-of-list/submissions/,Legitimate,LEETCODE.COM,Domains By Proxy LLC,DomainsByProxy.com14455 N. Hayden Road,Scottsdale,Arizona,85260,US,abuse@godaddy.comLEETCODE.COM@domainsbyproxy.com,LEETCODE.COM,2149,GoDaddy.com LLC
https://leetcode.com/problems/remove-nth-node-from-end-of-list/submissions/,Legitimate,Not found in database,Not found in database,Not found in database,Not found in database,Not found in database,Not found in database,Not found in database,Not found in database,Not Found,2149,Not Found
https://leetcode.com/problems/remove-nth-node-from-end-of-list/submissions/,Legitimate,LEETCODE.COM,Domains By Proxy LLC,DomainsByProxy.com14455 N. Hayden Road,Scottsdale,Arizona,85260,US,abuse@godaddy.comLEETCODE.COM@domainsbyproxy.com,LEETCODE.COM,2149,GoDaddy.com LLC
https://leetcode.com/problems/remove-nth-node-from-end-of-list/submissions/,Legitimate,LEETCODE.COM,Domains By Proxy LLC,DomainsByProxy.com14455 N. Hayden Road,Scottsdale,Arizona,85260,US,abuse@godaddy.comLEETCODE.COM@domainsbyproxy.com,LEETCODE.COM,2149,GoDaddy.com LLC
https://leetcode.com/problems/remove-nth-node-from-end-of-list/,Legitimate,LEETCODE.COM,Domains By Proxy LLC,DomainsByProxy.com14455 N. Hayden Road,Scottsdale,Arizona,85260,US,abuse@godaddy.comLEETCODE.COM@domainsbyproxy.com,LEETCODE.COM,2149,GoDaddy.com LLC
https://github.com/,Legitimate,GITHUB.COMgithub.com,GitHub Inc.,None,None,CA,None,US,abusecomplaints@markmonitor.comwhoisrequest@markmonitor.com,GITHUB.COMgithub.com,62,MarkMonitor Inc.
https://github.com/abhisheksaxena1998,Legitimate,GITHUB.COM,None,None,None,None,None,None,abusecomplaints@markmonitor.com,GITHUB.COM,62,MarkMonitor Inc.
https://github.com/abhisheksaxena1998,Legitimate,Not found in database,Not found in database,Not found in database,Not found in database,Not found in database,Not found in database,Not found in database,Not found in database,Not Found,62,Not Found
https://github.com/abhisheksaxena1998,Legitimate,GITHUB.COMgithub.com,GitHub Inc.,None,None,CA,None,US,abusecomplaints@markmonitor.comwhoisrequest@markmonitor.com,GITHUB.COMgithub.com,62,MarkMonitor Inc.
https://github.com/abhisheksaxena1998,Legitimate,Not found in database,Not found in database,Not found in database,Not found in database,Not found in database,Not found in database,Not found in database,Not found in database,Not Found,62,Not Found
https://github.com/abhisheksaxena1998,Legitimate,GITHUB.COMgithub.com,GitHub Inc.,None,None,CA,None,US,abusecomplaints@markmonitor.comwhoisrequest@markmonitor.com,GITHUB.COMgithub.com,62,MarkMonitor Inc.
https://github.com/abhisheksaxena1998,Legitimate,GITHUB.COM,None,None,None,None,None,None,abusecomplaints@markmonitor.com,GITHUB.COM,62,MarkMonitor Inc.
https://github.com/abhisheksaxena1998,Legitimate,GITHUB.COMgithub.com,GitHub Inc.,None,None,CA,None,US,abusecomplaints@markmonitor.comwhoisrequest@markmonitor.com,GITHUB.COMgithub.com,62,MarkMonitor Inc.
https://github.com/abhisheksaxena1998,Legitimate,GITHUB.COM,None,None,None,None,None,None,abusecomplaints@markmonitor.com,GITHUB.COM,62,MarkMonitor Inc.
https://github.com/abhisheksaxena1998,Legitimate,Not found in database,Not found in database,Not found in database,Not found in database,Not found in database,Not found in database,Not found in database,Not found in database,Not Found,62,Not Found
https://github.com/abhisheksaxena1998,Legitimate,GITHUB.COM,None,None,None,None,None,None,abusecomplaints@markmonitor.com,GITHUB.COM,62,MarkMonitor Inc.
https://github.com/abhisheksaxena1998,Legitimate,GITHUB.COM,None,None,None,None,None,None,abusecomplaints@markmonitor.com,GITHUB.COM,62,MarkMonitor Inc.
https://www.google.com/search?sxsrf=ALeKk02XeNoU-nDQpgkhETsgi8g-UB7J4A:1588964470339,Legitimate,Not found in database,Not found in database,Not found in database,Not found in database,Not found in database,Not found in database,Not found in database,Not found in database,Not Found,1,Not Found
https://leetcode.com/problems/remove-nth-node-from-end-of-list/discuss/553706/beats-99.-Python-Count-solution.,Legitimate,LEETCODE.COM,Domains By Proxy LLC,DomainsByProxy.com14455 N. Hayden Road,Scottsdale,Arizona,85260,US,abuse@godaddy.comLEETCODE.COM@domainsbyproxy.com,LEETCODE.COM,2149,GoDaddy.com LLC
https://leetcode.com/problems/remove-nth-node-from-end-of-list/discuss/553706/beats-99.-Python-Count-solution.,Legitimate,LEETCODE.COM,Domains By Proxy LLC,DomainsByProxy.com14455 N. Hayden Road,Scottsdale,Arizona,85260,US,abuse@godaddy.comLEETCODE.COM@domainsbyproxy.com,LEETCODE.COM,2149,GoDaddy.com LLC
https://leetcode.com/problems/remove-nth-node-from-end-of-list/,Legitimate,LEETCODE.COM,Domains By Proxy LLC,DomainsByProxy.com14455 N. Hayden Road,Scottsdale,Arizona,85260,US,abuse@godaddy.comLEETCODE.COM@domainsbyproxy.com,LEETCODE.COM,2149,GoDaddy.com LLC
https://leetcode.com/problems/remove-nth-node-from-end-of-list/,Legitimate,LEETCODE.COM,Domains By Proxy LLC,DomainsByProxy.com14455 N. Hayden Road,Scottsdale,Arizona,85260,US,abuse@godaddy.comLEETCODE.COM@domainsbyproxy.com,LEETCODE.COM,2149,GoDaddy.com LLC
https://leetcode.com/problems/remove-nth-node-from-end-of-list/submissions/,Legitimate,LEETCODE.COM,Domains By Proxy LLC,DomainsByProxy.com14455 N. Hayden Road,Scottsdale,Arizona,85260,US,abuse@godaddy.comLEETCODE.COM@domainsbyproxy.com,LEETCODE.COM,2149,GoDaddy.com LLC
https://leetcode.com/problemset/all/,Legitimate,LEETCODE.COM,Domains By Proxy LLC,DomainsByProxy.com14455 N. Hayden Road,Scottsdale,Arizona,85260,US,abuse@godaddy.comLEETCODE.COM@domainsbyproxy.com,LEETCODE.COM,2149,GoDaddy.com LLC
https://leetcode.com/problemset/all/,Legitimate,LEETCODE.COM,Domains By Proxy LLC,DomainsByProxy.com14455 N. Hayden Road,Scottsdale,Arizona,85260,US,abuse@godaddy.comLEETCODE.COM@domainsbyproxy.com,LEETCODE.COM,2149,GoDaddy.com LLC
https://leetcode.com/problemset/all/,Legitimate,LEETCODE.COM,Domains By Proxy LLC,DomainsByProxy.com14455 N. Hayden Road,Scottsdale,Arizona,85260,US,abuse@godaddy.comLEETCODE.COM@domainsbyproxy.com,LEETCODE.COM,2149,GoDaddy.com LLC
https://leetcode.com/problems/remove-nth-node-from-end-of-list/submissions/,Legitimate,LEETCODE.COM,Domains By Proxy LLC,DomainsByProxy.com14455 N. Hayden Road,Scottsdale,Arizona,85260,US,abuse@godaddy.comLEETCODE.COM@domainsbyproxy.com,LEETCODE.COM,2149,GoDaddy.com LLC
https://leetcode.com/problemset/all/,Legitimate,LEETCODE.COM,Domains By Proxy LLC,DomainsByProxy.com14455 N. Hayden Road,Scottsdale,Arizona,85260,US,abuse@godaddy.comLEETCODE.COM@domainsbyproxy.com,LEETCODE.COM,2149,GoDaddy.com LLC
https://leetcode.com/problems/remove-nth-node-from-end-of-list/submissions/,Legitimate,LEETCODE.COM,Domains By Proxy LLC,DomainsByProxy.com14455 N. Hayden Road,Scottsdale,Arizona,85260,US,abuse@godaddy.comLEETCODE.COM@domainsbyproxy.com,LEETCODE.COM,2149,GoDaddy.com LLC
https://leetcode.com/problems/remove-nth-node-from-end-of-list/,Legitimate,LEETCODE.COM,Domains By Proxy LLC,DomainsByProxy.com14455 N. Hayden Road,Scottsdale,Arizona,85260,US,abuse@godaddy.comLEETCODE.COM@domainsbyproxy.com,LEETCODE.COM,2149,GoDaddy.com LLC
https://leetcode.com/problems/remove-nth-node-from-end-of-list/submissions/,Legitimate,LEETCODE.COM,Domains By Proxy LLC,DomainsByProxy.com14455 N. Hayden Road,Scottsdale,Arizona,85260,US,abuse@godaddy.comLEETCODE.COM@domainsbyproxy.com,LEETCODE.COM,2149,GoDaddy.com LLC
https://leetcode.com/problems/remove-nth-node-from-end-of-list/submissions/,Legitimate,LEETCODE.COM,Domains By Proxy LLC,DomainsByProxy.com14455 N. Hayden Road,Scottsdale,Arizona,85260,US,abuse@godaddy.comLEETCODE.COM@domainsbyproxy.com,LEETCODE.COM,2149,GoDaddy.com LLC
https://leetcode.com/problems/remove-nth-node-from-end-of-list/submissions/,Legitimate,LEETCODE.COM,Domains By Proxy LLC,DomainsByProxy.com14455 N. Hayden Road,Scottsdale,Arizona,85260,US,abuse@godaddy.comLEETCODE.COM@domainsbyproxy.com,LEETCODE.COM,2149,GoDaddy.com LLC
https://leetcode.com/problems/remove-nth-node-from-end-of-list/submissions/,Legitimate,LEETCODE.COM,Domains By Proxy LLC,DomainsByProxy.com14455 N. Hayden Road,Scottsdale,Arizona,85260,US,abuse@godaddy.comLEETCODE.COM@domainsbyproxy.com,LEETCODE.COM,2149,GoDaddy.com LLC
https://leetcode.com/problems/remove-nth-node-from-end-of-list/submissions/,Legitimate,LEETCODE.COM,Domains By Proxy LLC,DomainsByProxy.com14455 N. Hayden Road,Scottsdale,Arizona,85260,US,abuse@godaddy.comLEETCODE.COM@domainsbyproxy.com,LEETCODE.COM,2149,GoDaddy.com LLC
https://leetcode.com/problems/remove-nth-node-from-end-of-list/submissions/,Legitimate,LEETCODE.COM,Domains By Proxy LLC,DomainsByProxy.com14455 N. Hayden Road,Scottsdale,Arizona,85260,US,abuse@godaddy.comLEETCODE.COM@domainsbyproxy.com,LEETCODE.COM,2149,GoDaddy.com LLC
https://leetcode.com/problems/remove-nth-node-from-end-of-list/submissions/,Legitimate,LEETCODE.COM,Domains By Proxy LLC,DomainsByProxy.com14455 N. Hayden Road,Scottsdale,Arizona,85260,US,abuse@godaddy.comLEETCODE.COM@domainsbyproxy.com,LEETCODE.COM,2149,GoDaddy.com LLC
https://leetcode.com/problems/remove-nth-node-from-end-of-list/submissions/,Legitimate,LEETCODE.COM,Domains By Proxy LLC,DomainsByProxy.com14455 N. Hayden Road,Scottsdale,Arizona,85260,US,abuse@godaddy.comLEETCODE.COM@domainsbyproxy.com,LEETCODE.COM,2149,GoDaddy.com LLC
https://leetcode.com/problems/remove-nth-node-from-end-of-list/submissions/,Legitimate,LEETCODE.COM,Domains By Proxy LLC,DomainsByProxy.com14455 N. Hayden Road,Scottsdale,Arizona,85260,US,abuse@godaddy.comLEETCODE.COM@domainsbyproxy.com,LEETCODE.COM,2149,GoDaddy.com LLC
https://leetcode.com/problems/remove-nth-node-from-end-of-list/submissions/,Legitimate,LEETCODE.COM,Domains By Proxy LLC,DomainsByProxy.com14455 N. Hayden Road,Scottsdale,Arizona,85260,US,abuse@godaddy.comLEETCODE.COM@domainsbyproxy.com,LEETCODE.COM,2149,GoDaddy.com LLC
https://leetcode.com/problems/remove-nth-node-from-end-of-list/submissions/,Legitimate,LEETCODE.COM,Domains By Proxy LLC,DomainsByProxy.com14455 N. Hayden Road,Scottsdale,Arizona,85260,US,abuse@godaddy.comLEETCODE.COM@domainsbyproxy.com,LEETCODE.COM,2149,GoDaddy.com LLC
https://leetcode.com/problems/remove-nth-node-from-end-of-list/submissions/,Legitimate,LEETCODE.COM,Domains By Proxy LLC,DomainsByProxy.com14455 N. Hayden Road,Scottsdale,Arizona,85260,US,abuse@godaddy.comLEETCODE.COM@domainsbyproxy.com,LEETCODE.COM,2149,GoDaddy.com LLC
https://leetcode.com/problems/remove-nth-node-from-end-of-list/submissions/,Legitimate,LEETCODE.COM,Domains By Proxy LLC,DomainsByProxy.com14455 N. Hayden Road,Scottsdale,Arizona,85260,US,abuse@godaddy.comLEETCODE.COM@domainsbyproxy.com,LEETCODE.COM,2149,GoDaddy.com LLC
https://leetcode.com/problems/remove-nth-node-from-end-of-list/submissions/,Legitimate,LEETCODE.COM,Domains By Proxy LLC,DomainsByProxy.com14455 N. Hayden Road,Scottsdale,Arizona,85260,US,abuse@godaddy.comLEETCODE.COM@domainsbyproxy.com,LEETCODE.COM,2149,GoDaddy.com LLC
https://leetcode.com/problems/remove-nth-node-from-end-of-list/submissions/,Legitimate,LEETCODE.COM,Domains By Proxy LLC,DomainsByProxy.com14455 N. Hayden Road,Scottsdale,Arizona,85260,US,abuse@godaddy.comLEETCODE.COM@domainsbyproxy.com,LEETCODE.COM,2149,GoDaddy.com LLC
https://leetcode.com/problems/remove-nth-node-from-end-of-list/submissions/,Legitimate,LEETCODE.COM,Domains By Proxy LLC,DomainsByProxy.com14455 N. Hayden Road,Scottsdale,Arizona,85260,US,abuse@godaddy.comLEETCODE.COM@domainsbyproxy.com,LEETCODE.COM,2149,GoDaddy.com LLC
https://leetcode.com/problems/remove-nth-node-from-end-of-list/submissions/,Legitimate,LEETCODE.COM,Domains By Proxy LLC,DomainsByProxy.com14455 N. Hayden Road,Scottsdale,Arizona,85260,US,abuse@godaddy.comLEETCODE.COM@domainsbyproxy.com,LEETCODE.COM,2149,GoDaddy.com LLC
https://leetcode.com/problems/remove-nth-node-from-end-of-list/submissions/,Legitimate,LEETCODE.COM,Domains By Proxy LLC,DomainsByProxy.com14455 N. Hayden Road,Scottsdale,Arizona,85260,US,abuse@godaddy.comLEETCODE.COM@domainsbyproxy.com,LEETCODE.COM,2149,GoDaddy.com LLC
https://leetcode.com/problems/remove-nth-node-from-end-of-list/submissions/,Legitimate,LEETCODE.COM,Domains By Proxy LLC,DomainsByProxy.com14455 N. Hayden Road,Scottsdale,Arizona,85260,US,abuse@godaddy.comLEETCODE.COM@domainsbyproxy.com,LEETCODE.COM,2149,GoDaddy.com LLC
https://leetcode.com/problems/remove-nth-node-from-end-of-list/submissions/,Legitimate,LEETCODE.COM,Domains By Proxy LLC,DomainsByProxy.com14455 N. Hayden Road,Scottsdale,Arizona,85260,US,abuse@godaddy.comLEETCODE.COM@domainsbyproxy.com,LEETCODE.COM,2149,GoDaddy.com LLC
https://leetcode.com/problems/circular-array-loop/,Legitimate,LEETCODE.COM,Domains By Proxy LLC,DomainsByProxy.com14455 N. Hayden Road,Scottsdale,Arizona,85260,US,abuse@godaddy.comLEETCODE.COM@domainsbyproxy.com,LEETCODE.COM,2149,GoDaddy.com LLC
https://leetcode.com/problemset/all/,Legitimate,LEETCODE.COM,Domains By Proxy LLC,DomainsByProxy.com14455 N. Hayden Road,Scottsdale,Arizona,85260,US,abuse@godaddy.comLEETCODE.COM@domainsbyproxy.com,LEETCODE.COM,2149,GoDaddy.com LLC
https://leetcode.com/problems/merge-k-sorted-lists/,Legitimate,LEETCODE.COM,Domains By Proxy LLC,DomainsByProxy.com14455 N. Hayden Road,Scottsdale,Arizona,85260,US,abuse@godaddy.comLEETCODE.COM@domainsbyproxy.com,LEETCODE.COM,2149,GoDaddy.com LLC
https://leetcode.com/problems/merge-k-sorted-lists/,Legitimate,LEETCODE.COM,Domains By Proxy LLC,DomainsByProxy.com14455 N. Hayden Road,Scottsdale,Arizona,85260,US,abuse@godaddy.comLEETCODE.COM@domainsbyproxy.com,LEETCODE.COM,2149,GoDaddy.com LLC
https://leetcode.com/problems/merge-k-sorted-lists/,Legitimate,LEETCODE.COM,Domains By Proxy LLC,DomainsByProxy.com14455 N. Hayden Road,Scottsdale,Arizona,85260,US,abuse@godaddy.comLEETCODE.COM@domainsbyproxy.com,LEETCODE.COM,2149,GoDaddy.com LLC
https://leetcode.com/problems/merge-k-sorted-lists/discuss/?currentPage=1,Legitimate,LEETCODE.COM,Domains By Proxy LLC,DomainsByProxy.com14455 N. Hayden Road,Scottsdale,Arizona,85260,US,abuse@godaddy.comLEETCODE.COM@domainsbyproxy.com,LEETCODE.COM,2149,GoDaddy.com LLC
https://leetcode.com/problems/merge-k-sorted-lists/discuss/?currentPage=1,Legitimate,LEETCODE.COM,Domains By Proxy LLC,DomainsByProxy.com14455 N. Hayden Road,Scottsdale,Arizona,85260,US,abuse@godaddy.comLEETCODE.COM@domainsbyproxy.com,LEETCODE.COM,2149,GoDaddy.com LLC
https://leetcode.com/problems/merge-k-sorted-lists/discuss/619267/Simple-O(nlogn)-python-solution,Legitimate,LEETCODE.COM,Domains By Proxy LLC,DomainsByProxy.com14455 N. Hayden Road,Scottsdale,Arizona,85260,US,abuse@godaddy.comLEETCODE.COM@domainsbyproxy.com,LEETCODE.COM,2149,GoDaddy.com LLC
https://leetcode.com/problems/merge-k-sorted-lists/discuss/619267/Simple-O(nlogn)-python-solution,Legitimate,LEETCODE.COM,Domains By Proxy LLC,DomainsByProxy.com14455 N. Hayden Road,Scottsdale,Arizona,85260,US,abuse@godaddy.comLEETCODE.COM@domainsbyproxy.com,LEETCODE.COM,2149,GoDaddy.com LLC
https://leetcode.com/problems/merge-k-sorted-lists/discuss/?currentPage=1,Legitimate,LEETCODE.COM,Domains By Proxy LLC,DomainsByProxy.com14455 N. Hayden Road,Scottsdale,Arizona,85260,US,abuse@godaddy.comLEETCODE.COM@domainsbyproxy.com,LEETCODE.COM,2149,GoDaddy.com LLC
https://leetcode.com/problems/merge-k-sorted-lists/discuss/?currentPage=1,Legitimate,LEETCODE.COM,Domains By Proxy LLC,DomainsByProxy.com14455 N. Hayden Road,Scottsdale,Arizona,85260,US,abuse@godaddy.comLEETCODE.COM@domainsbyproxy.com,LEETCODE.COM,2149,GoDaddy.com LLC
https://leetcode.com/problems/merge-k-sorted-lists/discuss/?currentPage=1,Legitimate,LEETCODE.COM,Domains By Proxy LLC,DomainsByProxy.com14455 N. Hayden Road,Scottsdale,Arizona,85260,US,abuse@godaddy.comLEETCODE.COM@domainsbyproxy.com,LEETCODE.COM,2149,GoDaddy.com LLC
https://leetcode.com/problems/merge-k-sorted-lists/,Legitimate,LEETCODE.COM,Domains By Proxy LLC,DomainsByProxy.com14455 N. Hayden Road,Scottsdale,Arizona,85260,US,abuse@godaddy.comLEETCODE.COM@domainsbyproxy.com,LEETCODE.COM,2149,GoDaddy.com LLC
https://leetcode.com/problemset/all/,Legitimate,LEETCODE.COM,Domains By Proxy LLC,DomainsByProxy.com14455 N. Hayden Road,Scottsdale,Arizona,85260,US,abuse@godaddy.comLEETCODE.COM@domainsbyproxy.com,LEETCODE.COM,2149,GoDaddy.com LLC
https://leetcode.com/problemset/all/,Legitimate,LEETCODE.COM,Domains By Proxy LLC,DomainsByProxy.com14455 N. Hayden Road,Scottsdale,Arizona,85260,US,abuse@godaddy.comLEETCODE.COM@domainsbyproxy.com,LEETCODE.COM,2149,GoDaddy.com LLC
https://leetcode.com/problems/count-and-say/,Legitimate,LEETCODE.COM,Domains By Proxy LLC,DomainsByProxy.com14455 N. Hayden Road,Scottsdale,Arizona,85260,US,abuse@godaddy.comLEETCODE.COM@domainsbyproxy.com,LEETCODE.COM,2149,GoDaddy.com LLC
https://leetcode.com/problems/count-and-say/,Legitimate,LEETCODE.COM,Domains By Proxy LLC,DomainsByProxy.com14455 N. Hayden Road,Scottsdale,Arizona,85260,US,abuse@godaddy.comLEETCODE.COM@domainsbyproxy.com,LEETCODE.COM,2149,GoDaddy.com LLC
https://leetcode.com/problems/count-and-say/,Legitimate,LEETCODE.COM,Domains By Proxy LLC,DomainsByProxy.com14455 N. Hayden Road,Scottsdale,Arizona,85260,US,abuse@godaddy.comLEETCODE.COM@domainsbyproxy.com,LEETCODE.COM,2149,GoDaddy.com LLC
https://leetcode.com/problems/count-and-say/,Legitimate,LEETCODE.COM,Domains By Proxy LLC,DomainsByProxy.com14455 N. Hayden Road,Scottsdale,Arizona,85260,US,abuse@godaddy.comLEETCODE.COM@domainsbyproxy.com,LEETCODE.COM,2149,GoDaddy.com LLC
https://leetcode.com/problemset/all/,Legitimate,Not found in database,Not found in database,Not found in database,Not found in database,Not found in database,Not found in database,Not found in database,Not found in database,Not Found,2149,Not Found
https://leetcode.com/problems/interleaving-string/,Legitimate,LEETCODE.COM,Domains By Proxy LLC,DomainsByProxy.com14455 N. Hayden Road,Scottsdale,Arizona,85260,US,abuse@godaddy.comLEETCODE.COM@domainsbyproxy.com,LEETCODE.COM,2149,GoDaddy.com LLC
https://leetcode.com/problems/interleaving-string/,Legitimate,LEETCODE.COM,Domains By Proxy LLC,DomainsByProxy.com14455 N. Hayden Road,Scottsdale,Arizona,85260,US,abuse@godaddy.comLEETCODE.COM@domainsbyproxy.com,LEETCODE.COM,2149,GoDaddy.com LLC
https://leetcode.com/problems/reverse-linked-list-ii/,Legitimate,LEETCODE.COM,Domains By Proxy LLC,DomainsByProxy.com14455 N. Hayden Road,Scottsdale,Arizona,85260,US,abuse@godaddy.comLEETCODE.COM@domainsbyproxy.com,LEETCODE.COM,2149,GoDaddy.com LLC
https://leetcode.com/problems/reverse-linked-list-ii/,Legitimate,LEETCODE.COM,Domains By Proxy LLC,DomainsByProxy.com14455 N. Hayden Road,Scottsdale,Arizona,85260,US,abuse@godaddy.comLEETCODE.COM@domainsbyproxy.com,LEETCODE.COM,2149,GoDaddy.com LLC
https://leetcode.com/problems/reverse-linked-list-ii/,Legitimate,LEETCODE.COM,Domains By Proxy LLC,DomainsByProxy.com14455 N. Hayden Road,Scottsdale,Arizona,85260,US,abuse@godaddy.comLEETCODE.COM@domainsbyproxy.com,LEETCODE.COM,2149,GoDaddy.com LLC
https://leetcode.com/problemset/all/,Legitimate,LEETCODE.COM,Domains By Proxy LLC,DomainsByProxy.com14455 N. Hayden Road,Scottsdale,Arizona,85260,US,abuse@godaddy.comLEETCODE.COM@domainsbyproxy.com,LEETCODE.COM,2149,GoDaddy.com LLC
https://leetcode.com/problems/sort-list/,Legitimate,LEETCODE.COM,Domains By Proxy LLC,DomainsByProxy.com14455 N. Hayden Road,Scottsdale,Arizona,85260,US,abuse@godaddy.comLEETCODE.COM@domainsbyproxy.com,LEETCODE.COM,2149,GoDaddy.com LLC
https://leetcode.com/problems/sort-list/,Legitimate,LEETCODE.COM,Domains By Proxy LLC,DomainsByProxy.com14455 N. Hayden Road,Scottsdale,Arizona,85260,US,abuse@godaddy.comLEETCODE.COM@domainsbyproxy.com,LEETCODE.COM,2149,GoDaddy.com LLC
https://leetcode.com/problems/sort-list/discuss/?currentPage=1,Legitimate,LEETCODE.COM,Domains By Proxy LLC,DomainsByProxy.com14455 N. Hayden Road,Scottsdale,Arizona,85260,US,abuse@godaddy.comLEETCODE.COM@domainsbyproxy.com,LEETCODE.COM,2149,GoDaddy.com LLC
https://leetcode.com/problems/sort-list/discuss/?currentPage=1,Legitimate,LEETCODE.COM,Domains By Proxy LLC,DomainsByProxy.com14455 N. Hayden Road,Scottsdale,Arizona,85260,US,abuse@godaddy.comLEETCODE.COM@domainsbyproxy.com,LEETCODE.COM,2149,GoDaddy.com LLC
https://leetcode.com/problems/sort-list/discuss/?currentPage=1,Legitimate,LEETCODE.COM,Domains By Proxy LLC,DomainsByProxy.com14455 N. Hayden Road,Scottsdale,Arizona,85260,US,abuse@godaddy.comLEETCODE.COM@domainsbyproxy.com,LEETCODE.COM,2149,GoDaddy.com LLC
https://leetcode.com/problems/sort-list/discuss/606584/Python-merge-sort-easy-to-understand,Legitimate,LEETCODE.COM,Domains By Proxy LLC,DomainsByProxy.com14455 N. Hayden Road,Scottsdale,Arizona,85260,US,abuse@godaddy.comLEETCODE.COM@domainsbyproxy.com,LEETCODE.COM,2149,GoDaddy.com LLC
https://leetcode.com/problems/sort-list/discuss/606584/Python-merge-sort-easy-to-understand,Legitimate,LEETCODE.COM,Domains By Proxy LLC,DomainsByProxy.com14455 N. Hayden Road,Scottsdale,Arizona,85260,US,abuse@godaddy.comLEETCODE.COM@domainsbyproxy.com,LEETCODE.COM,2149,GoDaddy.com LLC
https://leetcode.com/problems/sort-list/discuss/?currentPage=1,Legitimate,LEETCODE.COM,Domains By Proxy LLC,DomainsByProxy.com14455 N. Hayden Road,Scottsdale,Arizona,85260,US,abuse@godaddy.comLEETCODE.COM@domainsbyproxy.com,LEETCODE.COM,2149,GoDaddy.com LLC
https://leetcode.com/problems/sort-list/discuss/?currentPage=1,Legitimate,LEETCODE.COM,Domains By Proxy LLC,DomainsByProxy.com14455 N. Hayden Road,Scottsdale,Arizona,85260,US,abuse@godaddy.comLEETCODE.COM@domainsbyproxy.com,LEETCODE.COM,2149,GoDaddy.com LLC
https://leetcode.com/problems/sort-list/,Legitimate,LEETCODE.COM,Domains By Proxy LLC,DomainsByProxy.com14455 N. Hayden Road,Scottsdale,Arizona,85260,US,abuse@godaddy.comLEETCODE.COM@domainsbyproxy.com,LEETCODE.COM,2149,GoDaddy.com LLC
https://leetcode.com/problemset/all/,Legitimate,LEETCODE.COM,Domains By Proxy LLC,DomainsByProxy.com14455 N. Hayden Road,Scottsdale,Arizona,85260,US,abuse@godaddy.comLEETCODE.COM@domainsbyproxy.com,LEETCODE.COM,2149,GoDaddy.com LLC
https://leetcode.com/problems/rising-temperature/,Legitimate,LEETCODE.COM,Domains By Proxy LLC,DomainsByProxy.com14455 N. Hayden Road,Scottsdale,Arizona,85260,US,abuse@godaddy.comLEETCODE.COM@domainsbyproxy.com,LEETCODE.COM,2149,GoDaddy.com LLC
https://leetcode.com/problems/rising-temperature/,Legitimate,LEETCODE.COM,Domains By Proxy LLC,DomainsByProxy.com14455 N. Hayden Road,Scottsdale,Arizona,85260,US,abuse@godaddy.comLEETCODE.COM@domainsbyproxy.com,LEETCODE.COM,2149,GoDaddy.com LLC
https://leetcode.com/problems/rising-temperature/,Legitimate,LEETCODE.COM,Domains By Proxy LLC,DomainsByProxy.com14455 N. Hayden Road,Scottsdale,Arizona,85260,US,abuse@godaddy.comLEETCODE.COM@domainsbyproxy.com,LEETCODE.COM,2149,GoDaddy.com LLC
https://leetcode.com/problemset/all/,Legitimate,LEETCODE.COM,Domains By Proxy LLC,DomainsByProxy.com14455 N. Hayden Road,Scottsdale,Arizona,85260,US,abuse@godaddy.comLEETCODE.COM@domainsbyproxy.com,LEETCODE.COM,2149,GoDaddy.com LLC
https://leetcode.com/problemset/all/,Legitimate,LEETCODE.COM,Domains By Proxy LLC,DomainsByProxy.com14455 N. Hayden Road,Scottsdale,Arizona,85260,US,abuse@godaddy.comLEETCODE.COM@domainsbyproxy.com,LEETCODE.COM,2149,GoDaddy.com LLC
https://leetcode.com/problems/valid-phone-numbers/,Legitimate,LEETCODE.COM,Domains By Proxy LLC,DomainsByProxy.com14455 N. Hayden Road,Scottsdale,Arizona,85260,US,abuse@godaddy.comLEETCODE.COM@domainsbyproxy.com,LEETCODE.COM,2149,GoDaddy.com LLC
https://leetcode.com/problemset/all/,Legitimate,LEETCODE.COM,Domains By Proxy LLC,DomainsByProxy.com14455 N. Hayden Road,Scottsdale,Arizona,85260,US,abuse@godaddy.comLEETCODE.COM@domainsbyproxy.com,LEETCODE.COM,2149,GoDaddy.com LLC
https://leetcode.com/problems/repeated-dna-sequences/,Legitimate,LEETCODE.COM,Domains By Proxy LLC,DomainsByProxy.com14455 N. Hayden Road,Scottsdale,Arizona,85260,US,abuse@godaddy.comLEETCODE.COM@domainsbyproxy.com,LEETCODE.COM,2149,GoDaddy.com LLC
https://leetcode.com/problems/repeated-dna-sequences/,Legitimate,LEETCODE.COM,Domains By Proxy LLC,DomainsByProxy.com14455 N. Hayden Road,Scottsdale,Arizona,85260,US,abuse@godaddy.comLEETCODE.COM@domainsbyproxy.com,LEETCODE.COM,2149,GoDaddy.com LLC
https://www.minivision.cn/,Legitimate,minivision.cn,None,None,None,None,None,None,maojing@minivision.cn,minivision.cn,-1,
https://leetcode.com/problems/product-of-array-except-self/,Legitimate,LEETCODE.COM,Domains By Proxy LLC,DomainsByProxy.com14455 N. Hayden Road,Scottsdale,Arizona,85260,US,abuse@godaddy.comLEETCODE.COM@domainsbyproxy.com,LEETCODE.COM,2149,GoDaddy.com LLC
https://leetcode.com/problems/product-of-array-except-self/,Legitimate,LEETCODE.COM,Domains By Proxy LLC,DomainsByProxy.com14455 N. Hayden Road,Scottsdale,Arizona,85260,US,abuse@godaddy.comLEETCODE.COM@domainsbyproxy.com,LEETCODE.COM,2149,GoDaddy.com LLC
https://leetcode.com/problems/product-of-array-except-self/,Legitimate,LEETCODE.COM,Domains By Proxy LLC,DomainsByProxy.com14455 N. Hayden Road,Scottsdale,Arizona,85260,US,abuse@godaddy.comLEETCODE.COM@domainsbyproxy.com,LEETCODE.COM,2149,GoDaddy.com LLC
https://leetcode.com/problems/product-of-array-except-self/,Legitimate,LEETCODE.COM,Domains By Proxy LLC,DomainsByProxy.com14455 N. Hayden Road,Scottsdale,Arizona,85260,US,abuse@godaddy.comLEETCODE.COM@domainsbyproxy.com,LEETCODE.COM,2149,GoDaddy.com LLC
https://leetcode.com/problems/product-of-array-except-self/submissions/,Legitimate,LEETCODE.COM,Domains By Proxy LLC,DomainsByProxy.com14455 N. Hayden Road,Scottsdale,Arizona,85260,US,abuse@godaddy.comLEETCODE.COM@domainsbyproxy.com,LEETCODE.COM,2149,GoDaddy.com LLC
https://leetcode.com/problems/product-of-array-except-self/,Legitimate,LEETCODE.COM,Domains By Proxy LLC,DomainsByProxy.com14455 N. Hayden Road,Scottsdale,Arizona,85260,US,abuse@godaddy.comLEETCODE.COM@domainsbyproxy.com,LEETCODE.COM,2149,GoDaddy.com LLC
https://leetcode.com/problems/product-of-array-except-self/discuss/?currentPage=1,Legitimate,LEETCODE.COM,Domains By Proxy LLC,DomainsByProxy.com14455 N. Hayden Road,Scottsdale,Arizona,85260,US,abuse@godaddy.comLEETCODE.COM@domainsbyproxy.com,LEETCODE.COM,2149,GoDaddy.com LLC
https://leetcode.com/problems/product-of-array-except-self/discuss/?currentPage=1,Legitimate,LEETCODE.COM,Domains By Proxy LLC,DomainsByProxy.com14455 N. Hayden Road,Scottsdale,Arizona,85260,US,abuse@godaddy.comLEETCODE.COM@domainsbyproxy.com,LEETCODE.COM,2149,GoDaddy.com LLC
https://leetcode.com/problems/product-of-array-except-self/discuss/580623/Python-easy-to-understand-solution-O(n)-time-without-division-with-O(1)-space,Legitimate,LEETCODE.COM,Domains By Proxy LLC,DomainsByProxy.com14455 N. Hayden Road,Scottsdale,Arizona,85260,US,abuse@godaddy.comLEETCODE.COM@domainsbyproxy.com,LEETCODE.COM,2149,GoDaddy.com LLC
https://leetcode.com/problems/product-of-array-except-self/discuss/580623/Python-easy-to-understand-solution-O(n)-time-without-division-with-O(1)-space,Legitimate,LEETCODE.COM,Domains By Proxy LLC,DomainsByProxy.com14455 N. Hayden Road,Scottsdale,Arizona,85260,US,abuse@godaddy.comLEETCODE.COM@domainsbyproxy.com,LEETCODE.COM,2149,GoDaddy.com LLC
https://leetcode.com/problems/product-of-array-except-self/discuss/?currentPage=1,Legitimate,Not found in database,Not found in database,Not found in database,Not found in database,Not found in database,Not found in database,Not found in database,Not found in database,Not Found,2149,Not Found
https://leetcode.com/problems/product-of-array-except-self/,Legitimate,LEETCODE.COM,Domains By Proxy LLC,DomainsByProxy.com14455 N. Hayden Road,Scottsdale,Arizona,85260,US,abuse@godaddy.comLEETCODE.COM@domainsbyproxy.com,LEETCODE.COM,2149,GoDaddy.com LLC
https://leetcode.com/problems/product-of-array-except-self/,Legitimate,LEETCODE.COM,Domains By Proxy LLC,DomainsByProxy.com14455 N. Hayden Road,Scottsdale,Arizona,85260,US,abuse@godaddy.comLEETCODE.COM@domainsbyproxy.com,LEETCODE.COM,2149,GoDaddy.com LLC
https://leetcode.com/problems/product-of-array-except-self/submissions/,Legitimate,LEETCODE.COM,Domains By Proxy LLC,DomainsByProxy.com14455 N. Hayden Road,Scottsdale,Arizona,85260,US,abuse@godaddy.comLEETCODE.COM@domainsbyproxy.com,LEETCODE.COM,2149,GoDaddy.com LLC
https://leetcode.com/problems/product-of-array-except-self/submissions/,Legitimate,LEETCODE.COM,Domains By Proxy LLC,DomainsByProxy.com14455 N. Hayden Road,Scottsdale,Arizona,85260,US,abuse@godaddy.comLEETCODE.COM@domainsbyproxy.com,LEETCODE.COM,2149,GoDaddy.com LLC
https://leetcode.com/problems/product-of-array-except-self/submissions/,Legitimate,LEETCODE.COM,Domains By Proxy LLC,DomainsByProxy.com14455 N. Hayden Road,Scottsdale,Arizona,85260,US,abuse@godaddy.comLEETCODE.COM@domainsbyproxy.com,LEETCODE.COM,2149,GoDaddy.com LLC
https://leetcode.com/problems/product-of-array-except-self/submissions/,Legitimate,LEETCODE.COM,Domains By Proxy LLC,DomainsByProxy.com14455 N. Hayden Road,Scottsdale,Arizona,85260,US,abuse@godaddy.comLEETCODE.COM@domainsbyproxy.com,LEETCODE.COM,2149,GoDaddy.com LLC
https://leetcode.com/problems/product-of-array-except-self/submissions/,Legitimate,LEETCODE.COM,Domains By Proxy LLC,DomainsByProxy.com14455 N. Hayden Road,Scottsdale,Arizona,85260,US,abuse@godaddy.comLEETCODE.COM@domainsbyproxy.com,LEETCODE.COM,2149,GoDaddy.com LLC
https://leetcode.com/problems/product-of-array-except-self/submissions/,Legitimate,LEETCODE.COM,Domains By Proxy LLC,DomainsByProxy.com14455 N. Hayden Road,Scottsdale,Arizona,85260,US,abuse@godaddy.comLEETCODE.COM@domainsbyproxy.com,LEETCODE.COM,2149,GoDaddy.com LLC
https://leetcode.com/problems/product-of-array-except-self/submissions/,Legitimate,LEETCODE.COM,Domains By Proxy LLC,DomainsByProxy.com14455 N. Hayden Road,Scottsdale,Arizona,85260,US,abuse@godaddy.comLEETCODE.COM@domainsbyproxy.com,LEETCODE.COM,2149,GoDaddy.com LLC
https://leetcode.com/problems/product-of-array-except-self/submissions/,Legitimate,LEETCODE.COM,Domains By Proxy LLC,DomainsByProxy.com14455 N. Hayden Road,Scottsdale,Arizona,85260,US,abuse@godaddy.comLEETCODE.COM@domainsbyproxy.com,LEETCODE.COM,2149,GoDaddy.com LLC
https://leetcode.com/problems/product-of-array-except-self/submissions/,Legitimate,LEETCODE.COM,Domains By Proxy LLC,DomainsByProxy.com14455 N. Hayden Road,Scottsdale,Arizona,85260,US,abuse@godaddy.comLEETCODE.COM@domainsbyproxy.com,LEETCODE.COM,2149,GoDaddy.com LLC
https://leetcode.com/problems/product-of-array-except-self/submissions/,Legitimate,LEETCODE.COM,Domains By Proxy LLC,DomainsByProxy.com14455 N. Hayden Road,Scottsdale,Arizona,85260,US,abuse@godaddy.comLEETCODE.COM@domainsbyproxy.com,LEETCODE.COM,2149,GoDaddy.com LLC
https://leetcode.com/problems/product-of-array-except-self/submissions/,Legitimate,LEETCODE.COM,Domains By Proxy LLC,DomainsByProxy.com14455 N. Hayden Road,Scottsdale,Arizona,85260,US,abuse@godaddy.comLEETCODE.COM@domainsbyproxy.com,LEETCODE.COM,2149,GoDaddy.com LLC
https://leetcode.com/problems/product-of-array-except-self/submissions/,Legitimate,LEETCODE.COM,Domains By Proxy LLC,DomainsByProxy.com14455 N. Hayden Road,Scottsdale,Arizona,85260,US,abuse@godaddy.comLEETCODE.COM@domainsbyproxy.com,LEETCODE.COM,2149,GoDaddy.com LLC
https://leetcode.com/submissions/detail/311273484/,Legitimate,LEETCODE.COM,Domains By Proxy LLC,DomainsByProxy.com14455 N. Hayden Road,Scottsdale,Arizona,85260,US,abuse@godaddy.comLEETCODE.COM@domainsbyproxy.com,LEETCODE.COM,2149,GoDaddy.com LLC
https://leetcode.com/problemset/all/,Legitimate,LEETCODE.COM,Domains By Proxy LLC,DomainsByProxy.com14455 N. Hayden Road,Scottsdale,Arizona,85260,US,abuse@godaddy.comLEETCODE.COM@domainsbyproxy.com,LEETCODE.COM,2149,GoDaddy.com LLC
https://leetcode.com/problems/bulls-and-cows/,Legitimate,LEETCODE.COM,Domains By Proxy LLC,DomainsByProxy.com14455 N. Hayden Road,Scottsdale,Arizona,85260,US,abuse@godaddy.comLEETCODE.COM@domainsbyproxy.com,LEETCODE.COM,2149,GoDaddy.com LLC
https://leetcode.com/problems/bulls-and-cows/,Legitimate,LEETCODE.COM,Domains By Proxy LLC,DomainsByProxy.com14455 N. Hayden Road,Scottsdale,Arizona,85260,US,abuse@godaddy.comLEETCODE.COM@domainsbyproxy.com,LEETCODE.COM,2149,GoDaddy.com LLC
https://leetcode.com/problems/bulls-and-cows/,Legitimate,LEETCODE.COM,Domains By Proxy LLC,DomainsByProxy.com14455 N. Hayden Road,Scottsdale,Arizona,85260,US,abuse@godaddy.comLEETCODE.COM@domainsbyproxy.com,LEETCODE.COM,2149,GoDaddy.com LLC
https://www.analyticsvidhya.com/blog/2020/05/6-open-source-data-science-projects-try-home/,Legitimate,ANALYTICSVIDHYA.COM,None,E-13/39, First Floor, DLF Phase 1,Gurgaon,Haryana,122002,IN,abuse-contact@publicdomainregistry.comkunalj101@gmail.com,ANALYTICSVIDHYA.COM,9084,PDR Ltd. d/b/a PublicDomainRegistry.com
https://www.analyticsvidhya.com/blog/2020/05/6-open-source-data-science-projects-try-home/,Legitimate,ANALYTICSVIDHYA.COM,None,E-13/39, First Floor, DLF Phase 1,Gurgaon,Haryana,122002,IN,abuse-contact@publicdomainregistry.comkunalj101@gmail.com,ANALYTICSVIDHYA.COM,9084,PDR Ltd. d/b/a PublicDomainRegistry.com
https://leetcode.com/problems/bulls-and-cows/,Legitimate,LEETCODE.COM,Domains By Proxy LLC,DomainsByProxy.com14455 N. Hayden Road,Scottsdale,Arizona,85260,US,abuse@godaddy.comLEETCODE.COM@domainsbyproxy.com,LEETCODE.COM,2149,GoDaddy.com LLC
https://leetcode.com/problems/bulls-and-cows/,Legitimate,LEETCODE.COM,Domains By Proxy LLC,DomainsByProxy.com14455 N. Hayden Road,Scottsdale,Arizona,85260,US,abuse@godaddy.comLEETCODE.COM@domainsbyproxy.com,LEETCODE.COM,2149,GoDaddy.com LLC
https://leetcode.com/problems/bulls-and-cows/,Legitimate,LEETCODE.COM,Domains By Proxy LLC,DomainsByProxy.com14455 N. Hayden Road,Scottsdale,Arizona,85260,US,abuse@godaddy.comLEETCODE.COM@domainsbyproxy.com,LEETCODE.COM,2149,GoDaddy.com LLC
https://leetcode.com/problems/bulls-and-cows/,Legitimate,LEETCODE.COM,Domains By Proxy LLC,DomainsByProxy.com14455 N. Hayden Road,Scottsdale,Arizona,85260,US,abuse@godaddy.comLEETCODE.COM@domainsbyproxy.com,LEETCODE.COM,2149,GoDaddy.com LLC
https://leetcode.com/problems/bulls-and-cows/submissions/,Legitimate,LEETCODE.COM,Domains By Proxy LLC,DomainsByProxy.com14455 N. Hayden Road,Scottsdale,Arizona,85260,US,abuse@godaddy.comLEETCODE.COM@domainsbyproxy.com,LEETCODE.COM,2149,GoDaddy.com LLC
https://leetcode.com/submissions/detail/336383411/,Legitimate,LEETCODE.COM,Domains By Proxy LLC,DomainsByProxy.com14455 N. Hayden Road,Scottsdale,Arizona,85260,US,abuse@godaddy.comLEETCODE.COM@domainsbyproxy.com,LEETCODE.COM,2149,GoDaddy.com LLC
https://leetcode.com/submissions/detail/336383411/,Legitimate,LEETCODE.COM,Domains By Proxy LLC,DomainsByProxy.com14455 N. Hayden Road,Scottsdale,Arizona,85260,US,abuse@godaddy.comLEETCODE.COM@domainsbyproxy.com,LEETCODE.COM,2149,GoDaddy.com LLC
https://leetcode.com/problems/bulls-and-cows/,Legitimate,LEETCODE.COM,Domains By Proxy LLC,DomainsByProxy.com14455 N. Hayden Road,Scottsdale,Arizona,85260,US,abuse@godaddy.comLEETCODE.COM@domainsbyproxy.com,LEETCODE.COM,2149,GoDaddy.com LLC
https://leetcode.com/isa_97/,Legitimate,LEETCODE.COM,Domains By Proxy LLC,DomainsByProxy.com14455 N. Hayden Road,Scottsdale,Arizona,85260,US,abuse@godaddy.comLEETCODE.COM@domainsbyproxy.com,LEETCODE.COM,2149,GoDaddy.com LLC
https://leetcode.com/isa_97/,Legitimate,LEETCODE.COM,Domains By Proxy LLC,DomainsByProxy.com14455 N. Hayden Road,Scottsdale,Arizona,85260,US,abuse@godaddy.comLEETCODE.COM@domainsbyproxy.com,LEETCODE.COM,2149,GoDaddy.com LLC
https://leetcode.com/problems/bulls-and-cows/submissions/,Legitimate,LEETCODE.COM,Domains By Proxy LLC,DomainsByProxy.com14455 N. Hayden Road,Scottsdale,Arizona,85260,US,abuse@godaddy.comLEETCODE.COM@domainsbyproxy.com,LEETCODE.COM,2149,GoDaddy.com LLC
https://leetcode.com/problems/bulls-and-cows/submissions/,Legitimate,LEETCODE.COM,Domains By Proxy LLC,DomainsByProxy.com14455 N. Hayden Road,Scottsdale,Arizona,85260,US,abuse@godaddy.comLEETCODE.COM@domainsbyproxy.com,LEETCODE.COM,2149,GoDaddy.com LLC
https://leetcode.com/problems/bulls-and-cows/submissions/,Legitimate,LEETCODE.COM,Domains By Proxy LLC,DomainsByProxy.com14455 N. Hayden Road,Scottsdale,Arizona,85260,US,abuse@godaddy.comLEETCODE.COM@domainsbyproxy.com,LEETCODE.COM,2149,GoDaddy.com LLC
https://leetcode.com/submissions/detail/336383411/,Legitimate,LEETCODE.COM,Domains By Proxy LLC,DomainsByProxy.com14455 N. Hayden Road,Scottsdale,Arizona,85260,US,abuse@godaddy.comLEETCODE.COM@domainsbyproxy.com,LEETCODE.COM,2149,GoDaddy.com LLC
https://leetcode.com/submissions/detail/336383411/,Legitimate,LEETCODE.COM,Domains By Proxy LLC,DomainsByProxy.com14455 N. Hayden Road,Scottsdale,Arizona,85260,US,abuse@godaddy.comLEETCODE.COM@domainsbyproxy.com,LEETCODE.COM,2149,GoDaddy.com LLC
https://leetcode.com/problems/bulls-and-cows/submissions/,Legitimate,LEETCODE.COM,Domains By Proxy LLC,DomainsByProxy.com14455 N. Hayden Road,Scottsdale,Arizona,85260,US,abuse@godaddy.comLEETCODE.COM@domainsbyproxy.com,LEETCODE.COM,2149,GoDaddy.com LLC
https://leetcode.com/submissions/detail/336384974/,Legitimate,LEETCODE.COM,Domains By Proxy LLC,DomainsByProxy.com14455 N. Hayden Road,Scottsdale,Arizona,85260,US,abuse@godaddy.comLEETCODE.COM@domainsbyproxy.com,LEETCODE.COM,2149,GoDaddy.com LLC
https://leetcode.com/submissions/detail/336384974/,Legitimate,LEETCODE.COM,Domains By Proxy LLC,DomainsByProxy.com14455 N. Hayden Road,Scottsdale,Arizona,85260,US,abuse@godaddy.comLEETCODE.COM@domainsbyproxy.com,LEETCODE.COM,2149,GoDaddy.com LLC
https://leetcode.com/submissions/detail/336384974/,Legitimate,LEETCODE.COM,Domains By Proxy LLC,DomainsByProxy.com14455 N. Hayden Road,Scottsdale,Arizona,85260,US,abuse@godaddy.comLEETCODE.COM@domainsbyproxy.com,LEETCODE.COM,2149,GoDaddy.com LLC
https://leetcode.com/submissions/detail/336384974/,Legitimate,LEETCODE.COM,Domains By Proxy LLC,DomainsByProxy.com14455 N. Hayden Road,Scottsdale,Arizona,85260,US,abuse@godaddy.comLEETCODE.COM@domainsbyproxy.com,LEETCODE.COM,2149,GoDaddy.com LLC
https://leetcode.com/problems/bulls-and-cows/submissions/,Legitimate,LEETCODE.COM,Domains By Proxy LLC,DomainsByProxy.com14455 N. Hayden Road,Scottsdale,Arizona,85260,US,abuse@godaddy.comLEETCODE.COM@domainsbyproxy.com,LEETCODE.COM,2149,GoDaddy.com LLC
https://leetcode.com/submissions/detail/336387174/,Legitimate,LEETCODE.COM,Domains By Proxy LLC,DomainsByProxy.com14455 N. Hayden Road,Scottsdale,Arizona,85260,US,abuse@godaddy.comLEETCODE.COM@domainsbyproxy.com,LEETCODE.COM,2149,GoDaddy.com LLC
https://leetcode.com/submissions/detail/336387174/,Legitimate,LEETCODE.COM,Domains By Proxy LLC,DomainsByProxy.com14455 N. Hayden Road,Scottsdale,Arizona,85260,US,abuse@godaddy.comLEETCODE.COM@domainsbyproxy.com,LEETCODE.COM,2149,GoDaddy.com LLC
https://leetcode.com/problems/bulls-and-cows/submissions/,Legitimate,LEETCODE.COM,Domains By Proxy LLC,DomainsByProxy.com14455 N. Hayden Road,Scottsdale,Arizona,85260,US,abuse@godaddy.comLEETCODE.COM@domainsbyproxy.com,LEETCODE.COM,2149,GoDaddy.com LLC
https://leetcode.com/submissions/detail/336387294/,Legitimate,LEETCODE.COM,Domains By Proxy LLC,DomainsByProxy.com14455 N. Hayden Road,Scottsdale,Arizona,85260,US,abuse@godaddy.comLEETCODE.COM@domainsbyproxy.com,LEETCODE.COM,2149,GoDaddy.com LLC
https://leetcode.com/submissions/detail/336387294/,Legitimate,LEETCODE.COM,Domains By Proxy LLC,DomainsByProxy.com14455 N. Hayden Road,Scottsdale,Arizona,85260,US,abuse@godaddy.comLEETCODE.COM@domainsbyproxy.com,LEETCODE.COM,2149,GoDaddy.com LLC
https://leetcode.com/problems/bulls-and-cows/submissions/,Legitimate,LEETCODE.COM,Domains By Proxy LLC,DomainsByProxy.com14455 N. Hayden Road,Scottsdale,Arizona,85260,US,abuse@godaddy.comLEETCODE.COM@domainsbyproxy.com,LEETCODE.COM,2149,GoDaddy.com LLC
https://leetcode.com/submissions/detail/336388115/,Legitimate,LEETCODE.COM,Domains By Proxy LLC,DomainsByProxy.com14455 N. Hayden Road,Scottsdale,Arizona,85260,US,abuse@godaddy.comLEETCODE.COM@domainsbyproxy.com,LEETCODE.COM,2149,GoDaddy.com LLC
https://leetcode.com/submissions/detail/336388115/,Legitimate,LEETCODE.COM,Domains By Proxy LLC,DomainsByProxy.com14455 N. Hayden Road,Scottsdale,Arizona,85260,US,abuse@godaddy.comLEETCODE.COM@domainsbyproxy.com,LEETCODE.COM,2149,GoDaddy.com LLC
https://leetcode.com/problems/bulls-and-cows/,Legitimate,LEETCODE.COM,Domains By Proxy LLC,DomainsByProxy.com14455 N. Hayden Road,Scottsdale,Arizona,85260,US,abuse@godaddy.comLEETCODE.COM@domainsbyproxy.com,LEETCODE.COM,2149,GoDaddy.com LLC
https://leetcode.com/problems/bulls-and-cows/,Legitimate,LEETCODE.COM,Domains By Proxy LLC,DomainsByProxy.com14455 N. Hayden Road,Scottsdale,Arizona,85260,US,abuse@godaddy.comLEETCODE.COM@domainsbyproxy.com,LEETCODE.COM,2149,GoDaddy.com LLC
https://leetcode.com/problemset/all/,Legitimate,LEETCODE.COM,Domains By Proxy LLC,DomainsByProxy.com14455 N. Hayden Road,Scottsdale,Arizona,85260,US,abuse@godaddy.comLEETCODE.COM@domainsbyproxy.com,LEETCODE.COM,2149,GoDaddy.com LLC
https://leetcode.com/problemset/all/,Legitimate,LEETCODE.COM,Domains By Proxy LLC,DomainsByProxy.com14455 N. Hayden Road,Scottsdale,Arizona,85260,US,abuse@godaddy.comLEETCODE.COM@domainsbyproxy.com,LEETCODE.COM,2149,GoDaddy.com LLC
https://leetcode.com/isa_97/,Legitimate,LEETCODE.COM,Domains By Proxy LLC,DomainsByProxy.com14455 N. Hayden Road,Scottsdale,Arizona,85260,US,abuse@godaddy.comLEETCODE.COM@domainsbyproxy.com,LEETCODE.COM,2149,GoDaddy.com LLC
https://leetcode.com/isa_97/,Legitimate,LEETCODE.COM,Domains By Proxy LLC,DomainsByProxy.com14455 N. Hayden Road,Scottsdale,Arizona,85260,US,abuse@godaddy.comLEETCODE.COM@domainsbyproxy.com,LEETCODE.COM,2149,GoDaddy.com LLC
https://leetcode.com/isa_97/,Legitimate,LEETCODE.COM,Domains By Proxy LLC,DomainsByProxy.com14455 N. Hayden Road,Scottsdale,Arizona,85260,US,abuse@godaddy.comLEETCODE.COM@domainsbyproxy.com,LEETCODE.COM,2149,GoDaddy.com LLC
https://leetcode.com/isa_97/,Legitimate,LEETCODE.COM,Domains By Proxy LLC,DomainsByProxy.com14455 N. Hayden Road,Scottsdale,Arizona,85260,US,abuse@godaddy.comLEETCODE.COM@domainsbyproxy.com,LEETCODE.COM,2149,GoDaddy.com LLC
https://leetcode.com/isa_97/,Legitimate,LEETCODE.COM,Domains By Proxy LLC,DomainsByProxy.com14455 N. Hayden Road,Scottsdale,Arizona,85260,US,abuse@godaddy.comLEETCODE.COM@domainsbyproxy.com,LEETCODE.COM,2149,GoDaddy.com LLC
https://leetcode.com/isa_97/,Legitimate,LEETCODE.COM,Domains By Proxy LLC,DomainsByProxy.com14455 N. Hayden Road,Scottsdale,Arizona,85260,US,abuse@godaddy.comLEETCODE.COM@domainsbyproxy.com,LEETCODE.COM,2149,GoDaddy.com LLC
https://leetcode.com/isa_97/,Legitimate,LEETCODE.COM,Domains By Proxy LLC,DomainsByProxy.com14455 N. Hayden Road,Scottsdale,Arizona,85260,US,abuse@godaddy.comLEETCODE.COM@domainsbyproxy.com,LEETCODE.COM,2149,GoDaddy.com LLC
https://leetcode.com/isa_97/,Legitimate,LEETCODE.COM,Domains By Proxy LLC,DomainsByProxy.com14455 N. Hayden Road,Scottsdale,Arizona,85260,US,abuse@godaddy.comLEETCODE.COM@domainsbyproxy.com,LEETCODE.COM,2149,GoDaddy.com LLC
